{
"type": "FeatureCollection",
"name": "recorte_de_los_cuatro",
"crs": { "type": "name", "properties": { "name": "urn:ogc:def:crs:OGC:1.3:CRS84" } },
"features": [
{ "type": "Feature", "properties": { "zona_id": "Z41", "nombre": "Núñez", "que_es": "recorte de adentro, medido y no adoptado", "ha": 35.66, "n_locales": 107 }, "geometry": { "type": "MultiPolygon", "coordinates": [ [ [ [ -58.465254556525188, -34.553902074725592 ], [ -58.465617248466394, -34.554098622223584 ], [ -58.466233226076831, -34.553512046095115 ], [ -58.466351876980248, -34.553440633078154 ], [ -58.46725116988295, -34.552262762916044 ], [ -58.467848471562029, -34.551480329385761 ], [ -58.467956985554828, -34.551338138846639 ], [ -58.468462017615288, -34.550676835310789 ], [ -58.468666615454943, -34.550408932815969 ], [ -58.469303124712951, -34.549582263795081 ], [ -58.469303406548327, -34.549581897406959 ], [ -58.469302633557135, -34.549581469811116 ], [ -58.468372952957274, -34.549075788385373 ], [ -58.468189262655059, -34.54894001579158 ], [ -58.468225859883141, -34.54889430789266 ], [ -58.468508505934182, -34.548539629853892 ], [ -58.468553017188171, -34.548483780157603 ], [ -58.468667152052966, -34.548347466087776 ], [ -58.467437137295391, -34.547871596429886 ], [ -58.467299886843563, -34.548043791681138 ], [ -58.467180346187916, -34.548204995317818 ], [ -58.467062548144582, -34.548378028764027 ], [ -58.466471305232389, -34.549185388865951 ], [ -58.465902179527014, -34.549962603966208 ], [ -58.465332447456277, -34.550740590990785 ], [ -58.464764151704252, -34.551516532938585 ], [ -58.464199760682988, -34.552287190299708 ], [ -58.465133493890903, -34.55274993714589 ], [ -58.464520240502935, -34.553512990745453 ], [ -58.465254556525188, -34.553902074725592 ] ] ], [ [ [ -58.465652384573481, -34.546801972195055 ], [ -58.465354813614944, -34.546507108646992 ], [ -58.465172587130809, -34.546256049116231 ], [ -58.464853336899978, -34.54609647223247 ], [ -58.465159382536797, -34.545691387621012 ], [ -58.46538499993131, -34.545392714679565 ], [ -58.46552491424665, -34.545207496392514 ], [ -58.465915717668878, -34.544684095475795 ], [ -58.465136287165748, -34.544291705625213 ], [ -58.465143305366752, -34.544205978250396 ], [ -58.465076952899139, -34.544141609461185 ], [ -58.464969417987575, -34.544118892235183 ], [ -58.464859969977368, -34.544153099676478 ], [ -58.464486595215661, -34.543962564038317 ], [ -58.464058645867269, -34.543745154236497 ], [ -58.46398639052817, -34.543842973992867 ], [ -58.463533195065956, -34.544459328986541 ], [ -58.463009182141924, -34.545172304182437 ], [ -58.462066013424135, -34.544693976654294 ], [ -58.461881925715893, -34.544600592069294 ], [ -58.46112821738123, -34.5442121911097 ], [ -58.461226605339419, -34.544078738811656 ], [ -58.461652750776807, -34.543509012855658 ], [ -58.461295135040778, -34.543327664968352 ], [ -58.460623110759862, -34.543951822520242 ], [ -58.459796343721472, -34.544719637484093 ], [ -58.458925224069048, -34.545402865630933 ], [ -58.458117583743878, -34.54605862473656 ], [ -58.459330198028269, -34.546665656817005 ], [ -58.46028452287154, -34.547143442203513 ], [ -58.460759886469688, -34.546494563999048 ], [ -58.460851894281681, -34.546366886709031 ], [ -58.461787159819878, -34.546835716112291 ], [ -58.462697328199944, -34.547292073103733 ], [ -58.462157543690999, -34.548081031981191 ], [ -58.46163714317553, -34.548839239000543 ], [ -58.462000580580067, -34.549029627931802 ], [ -58.462028158487151, -34.549087956303389 ], [ -58.462243320932807, -34.549195635888218 ], [ -58.462395077743409, -34.549271555516491 ], [ -58.462515714224644, -34.549288716570217 ], [ -58.462741296699249, -34.549391794334497 ], [ -58.462830776786141, -34.549427017577081 ], [ -58.463367663279513, -34.548694221073809 ], [ -58.463425965146449, -34.548614219106341 ], [ -58.463901312300095, -34.54790624289619 ], [ -58.464589274548587, -34.548248640191829 ], [ -58.46518742284448, -34.547433824001949 ], [ -58.465488705420654, -34.547023456909422 ], [ -58.465652384573481, -34.546801972195055 ] ], [ [ -58.463934701426993, -34.546796246914518 ], [ -58.463942605383821, -34.546817210659199 ], [ -58.46376990378252, -34.546731772341182 ], [ -58.46380954838628, -34.546735655645428 ], [ -58.463934701426993, -34.546796246914518 ] ], [ [ -58.464043206794038, -34.5468254308025 ], [ -58.464484465484738, -34.547036926752988 ], [ -58.464627683963172, -34.547156311081608 ], [ -58.464429775328568, -34.547113606237836 ], [ -58.464339173746488, -34.547048059624814 ], [ -58.463975942602538, -34.546874410010219 ], [ -58.463942605383821, -34.546817210659199 ], [ -58.464043206794038, -34.5468254308025 ] ] ] ] } },
{ "type": "Feature", "properties": { "zona_id": "Z46", "nombre": "Retiro", "que_es": "recorte de adentro, medido y no adoptado", "ha": 37.16, "n_locales": 297 }, "geometry": { "type": "Polygon", "coordinates": [ [ [ -58.379009308493345, -34.601254716727013 ], [ -58.379063950009119, -34.601230081882676 ], [ -58.379196600036316, -34.601155467109741 ], [ -58.379242244183992, -34.60112396454597 ], [ -58.379948115494216, -34.600957098301194 ], [ -58.380689078790503, -34.600642148110033 ], [ -58.381170049769551, -34.600326299801488 ], [ -58.381177188498299, -34.600213660745119 ], [ -58.381322210316654, -34.600226376743727 ], [ -58.381354272430428, -34.600205321660567 ], [ -58.381610890326186, -34.599955057824189 ], [ -58.381624573050082, -34.599672491847308 ], [ -58.381666815844198, -34.599049727830916 ], [ -58.381709819203941, -34.597872599360628 ], [ -58.381588449397661, -34.596793886013067 ], [ -58.381421068290798, -34.596688418087837 ], [ -58.381488369287524, -34.595361399950875 ], [ -58.38122984531887, -34.595339465444127 ], [ -58.379957838437576, -34.595227545217931 ], [ -58.378505142322709, -34.595099711410576 ], [ -58.377689301263821, -34.595027943455683 ], [ -58.377582135973519, -34.595227378450971 ], [ -58.376977173578631, -34.595738489775414 ], [ -58.376958189365432, -34.596278856647025 ], [ -58.376263456323422, -34.596269982688042 ], [ -58.37592673714196, -34.596329780087721 ], [ -58.375603078542348, -34.596308304462177 ], [ -58.375417580636814, -34.596244305612615 ], [ -58.374420005943797, -34.596245061990061 ], [ -58.374321735835935, -34.59623991987182 ], [ -58.374349110790163, -34.595781002530245 ], [ -58.374403640868763, -34.595059256641314 ], [ -58.37340612601961, -34.595017609744019 ], [ -58.373301214600822, -34.595012814029836 ], [ -58.373031431395482, -34.594998259176343 ], [ -58.37335508255854, -34.594403946738964 ], [ -58.373842227962804, -34.593567768001257 ], [ -58.37304422810363, -34.594517193779176 ], [ -58.372812338975088, -34.594989353535702 ], [ -58.372305706839981, -34.596021176253103 ], [ -58.372255936933399, -34.596132338064244 ], [ -58.372446800024903, -34.596142284434258 ], [ -58.372026211813626, -34.597179426894677 ], [ -58.372015595295274, -34.59730246677168 ], [ -58.371851131268663, -34.597621160908822 ], [ -58.371484166735641, -34.598416724897625 ], [ -58.372798465069245, -34.598516299818492 ], [ -58.374191365866494, -34.598621833593356 ], [ -58.374203812394732, -34.598450431598323 ], [ -58.374231801836011, -34.59791931708196 ], [ -58.37425223069301, -34.597529818914168 ], [ -58.374258134060405, -34.59742453989621 ], [ -58.375262038967989, -34.597491114411334 ], [ -58.375405613696927, -34.597499246206226 ], [ -58.375402521603441, -34.597685866594972 ], [ -58.375380900345668, -34.598484666174045 ], [ -58.375372237517375, -34.598704522464516 ], [ -58.376842986806807, -34.598807476370567 ], [ -58.37828299789777, -34.598908278429867 ], [ -58.378269850881793, -34.599106652590379 ], [ -58.378221366163821, -34.599884377126763 ], [ -58.378211887387572, -34.60007641568231 ], [ -58.37820675558379, -34.600181413692944 ], [ -58.378185004500494, -34.601133102984981 ], [ -58.378180402414429, -34.601219650365522 ], [ -58.379009308493345, -34.601254716727013 ] ] ] } },
{ "type": "Feature", "properties": { "zona_id": "Z27", "nombre": "Villa Santa Rita", "que_es": "recorte de adentro, medido y no adoptado", "ha": 16.56, "n_locales": 40 }, "geometry": { "type": "Polygon", "coordinates": [ [ [ -58.483514992398852, -34.611087526365253 ], [ -58.483227657697071, -34.610936796920271 ], [ -58.482976954104181, -34.610805216085168 ], [ -58.482725484607059, -34.610673141889343 ], [ -58.483493707745602, -34.609718989857853 ], [ -58.484052882992628, -34.609024341613257 ], [ -58.483674059953444, -34.60893108505163 ], [ -58.483429256148014, -34.608870843145418 ], [ -58.4822143550563, -34.608572160521248 ], [ -58.481969978716194, -34.608512689937641 ], [ -58.481964935406367, -34.608511462460577 ], [ -58.481881104978157, -34.608608808004128 ], [ -58.481713785456009, -34.608818836331658 ], [ -58.481349511367121, -34.609276221131218 ], [ -58.480973482304037, -34.609748325027567 ], [ -58.480571477324027, -34.610253037494225 ], [ -58.480170489345205, -34.610756551254831 ], [ -58.479372160539846, -34.611758785421173 ], [ -58.478572024242979, -34.612763338401905 ], [ -58.477770846735154, -34.613769083293704 ], [ -58.479021394828621, -34.614426965415532 ], [ -58.479821115745125, -34.613422268970993 ], [ -58.480026672977615, -34.613530763533042 ], [ -58.481114183970156, -34.614102659420183 ], [ -58.48191430226062, -34.613097104065439 ], [ -58.482713038836536, -34.612093304106885 ], [ -58.483114102927203, -34.611589218701809 ], [ -58.483514992398852, -34.611087526365253 ] ] ] } },
{ "type": "Feature", "properties": { "zona_id": "Z43", "nombre": "Colegiales", "que_es": "recorte de adentro, medido y no adoptado", "ha": 98.03, "n_locales": 298 }, "geometry": { "type": "MultiPolygon", "coordinates": [ [ [ [ -58.461605862038546, -34.576837425386053 ], [ -58.462247663829402, -34.576166856200096 ], [ -58.462376652995985, -34.57603206588427 ], [ -58.463187670105086, -34.57510529984566 ], [ -58.462367672480731, -34.574286679956423 ], [ -58.461549783191252, -34.573508211182514 ], [ -58.46073034188332, -34.572679996560431 ], [ -58.460100392409572, -34.572093213476613 ], [ -58.459524382674545, -34.571541716885918 ], [ -58.458627937740381, -34.570656335662321 ], [ -58.458417259294393, -34.570751655172522 ], [ -58.458171467858193, -34.570867210826854 ], [ -58.457977393218762, -34.570347614456551 ], [ -58.457966534200658, -34.570323458257462 ], [ -58.45787399042085, -34.570117591339098 ], [ -58.457720580748251, -34.569776323679875 ], [ -58.456217333251743, -34.570234212847119 ], [ -58.454985317515529, -34.570604001855294 ], [ -58.455378335669963, -34.571118545506799 ], [ -58.454426730022774, -34.571581095053681 ], [ -58.453968334495087, -34.571803882276761 ], [ -58.453548335141548, -34.57200772679964 ], [ -58.45431981790626, -34.572994284677236 ], [ -58.453377720622242, -34.573455277273474 ], [ -58.451953359887348, -34.574143969679668 ], [ -58.452493109500452, -34.57501304989627 ], [ -58.45266990670175, -34.575303141541227 ], [ -58.451125127412205, -34.575943502721039 ], [ -58.450975355254819, -34.576015531348723 ], [ -58.451489551657694, -34.576975037436917 ], [ -58.451637792542705, -34.576903078467431 ], [ -58.453226779126716, -34.576216586899996 ], [ -58.45330713591715, -34.576348427056075 ], [ -58.453721681734002, -34.577122066834264 ], [ -58.454788555525354, -34.5766057274434 ], [ -58.455642455009752, -34.57636444128471 ], [ -58.456717549075414, -34.576060695265163 ], [ -58.457593225385693, -34.577180549809434 ], [ -58.458539162674036, -34.578390120651989 ], [ -58.459695743408759, -34.578320229370668 ], [ -58.460102811004468, -34.578295662777514 ], [ -58.46022550143045, -34.578295384234117 ], [ -58.460547607312073, -34.577943061228851 ], [ -58.461605862038546, -34.576837425386053 ] ], [ [ -58.458350808026118, -34.575839430068989 ], [ -58.457805566309823, -34.57591328142513 ], [ -58.457664586386933, -34.575733694024528 ], [ -58.457238841177656, -34.575187747435081 ], [ -58.458216688213263, -34.574838911973245 ], [ -58.458922952935339, -34.575766985722261 ], [ -58.458350808026118, -34.575839430068989 ] ] ], [ [ [ -58.450060879516442, -34.576455303301124 ], [ -58.449542193283285, -34.575477832510337 ], [ -58.448899767766932, -34.574267100777703 ], [ -58.448282553177989, -34.573102566635093 ], [ -58.449206953605156, -34.572715908561385 ], [ -58.450262465537413, -34.57226580555534 ], [ -58.451782580282568, -34.571617424242135 ], [ -58.451913099738846, -34.571570745402035 ], [ -58.45198850046701, -34.571489537517934 ], [ -58.451474972538627, -34.570826337150066 ], [ -58.451295636256845, -34.570671209576297 ], [ -58.451194944107151, -34.570644601153127 ], [ -58.450514061344172, -34.571037638324775 ], [ -58.450341904251111, -34.571126706487199 ], [ -58.450176132460854, -34.57121246516585 ], [ -58.4493961474464, -34.571574498826685 ], [ -58.448782865539236, -34.57185915149315 ], [ -58.4486412731097, -34.571923431643462 ], [ -58.447561314977854, -34.572413940853444 ], [ -58.447231677037188, -34.571915296321514 ], [ -58.446698885594216, -34.571109293224659 ], [ -58.445709336260414, -34.569554835933147 ], [ -58.445707444748791, -34.569555764689426 ], [ -58.444888199884289, -34.569958046288797 ], [ -58.444113138123711, -34.570338639180683 ], [ -58.443830118301946, -34.570477610619633 ], [ -58.443642289451027, -34.570569765837149 ], [ -58.442958828221371, -34.570921210327583 ], [ -58.442549484908355, -34.571131626358934 ], [ -58.443339833115523, -34.571998596902048 ], [ -58.444350724010889, -34.571316420286387 ], [ -58.444895651834706, -34.572198493300483 ], [ -58.445412931188045, -34.57303562923218 ], [ -58.443206536730074, -34.574490047990217 ], [ -58.442969519168813, -34.574270061567475 ], [ -58.442843221963265, -34.574223744527359 ], [ -58.443140515855603, -34.574523896186669 ], [ -58.443973063006446, -34.575364399485096 ], [ -58.444458529742775, -34.575854465952858 ], [ -58.444426853486583, -34.57572512677271 ], [ -58.444042502275671, -34.575316972054864 ], [ -58.444322101007771, -34.575140224502611 ], [ -58.445002969325742, -34.574710179159226 ], [ -58.445123542579495, -34.574633998488665 ], [ -58.446024345601103, -34.574056371406805 ], [ -58.446345122299732, -34.574594666462346 ], [ -58.446735009875638, -34.575266000806216 ], [ -58.44741905170843, -34.576444002036624 ], [ -58.447978334315508, -34.577406979472507 ], [ -58.448450470446865, -34.578219940755545 ], [ -58.448558653743348, -34.578405661644609 ], [ -58.449109961958463, -34.579351942167023 ], [ -58.449983518191374, -34.578927032533471 ], [ -58.450141215469195, -34.578850358037009 ], [ -58.451089010384543, -34.578392912603235 ], [ -58.450572768498205, -34.577420024298739 ], [ -58.450060879516442, -34.576455303301124 ] ], [ [ -58.446333642078415, -34.572432650006384 ], [ -58.446922848194326, -34.57340569890907 ], [ -58.446844812740423, -34.573389550449441 ], [ -58.446757267844973, -34.573275591499048 ], [ -58.446324606257065, -34.572551893860258 ], [ -58.446333642078415, -34.572432650006384 ] ], [ [ -58.446971192270901, -34.573428558450729 ], [ -58.447054126096305, -34.573566339630105 ], [ -58.447050943050641, -34.573615165595776 ], [ -58.446922848194326, -34.57340569890907 ], [ -58.446971192270901, -34.573428558450729 ] ] ], [ [ [ -58.453872315663901, -34.567005851625218 ], [ -58.453751890993985, -34.566938014687842 ], [ -58.4522897506588, -34.566114351028816 ], [ -58.451720528505376, -34.566415783500325 ], [ -58.45158635296287, -34.56648682842556 ], [ -58.450951527164762, -34.566833580159674 ], [ -58.450782741196164, -34.566925771783787 ], [ -58.450165232886121, -34.567262967850326 ], [ -58.449932293730306, -34.56738731159588 ], [ -58.449046761194644, -34.567859827049666 ], [ -58.4486450709311, -34.568074220018602 ], [ -58.448135592973657, -34.568334586427611 ], [ -58.447047256817164, -34.568890773931166 ], [ -58.448226879434714, -34.57023862865428 ], [ -58.449216405758023, -34.569674791611156 ], [ -58.45006049810533, -34.56919381983959 ], [ -58.450538988741151, -34.568921189112281 ], [ -58.450949109102851, -34.568686296858949 ], [ -58.451788839741447, -34.568205312614218 ], [ -58.452711229670385, -34.567676934396481 ], [ -58.453872315663901, -34.567005851625218 ] ] ] ] } }
]
}
