{
"type": "FeatureCollection",
"name": "perimetros_18",
"crs": { "type": "name", "properties": { "name": "urn:ogc:def:crs:OGC:1.3:CRS84" } },
"features": [
{ "type": "Feature", "properties": { "zona_id": "Z41", "nombre": "Nunez", "pieza": "corredor Crisologo Larralde", "fuente_del_perimetro": "Tres piezas: el corredor de Crisologo Larralde entre Av. del Libertador y Av. Cabildo, el corredor bajo el viaducto Mitre, y un nucleo disperso de bistros en Campos Salles, O'Higgins y Grecia.", "metodo": "manzanas frentistas del callejero sobre LARRALDE, CRISOLOGO AV. entre DEL LIBERTADOR AV. y CABILDO AV. (frente minimo 20 m)", "ha": 23.81, "n_locales": 61 }, "geometry": { "type": "Polygon", "coordinates": [ [ [ -58.468189805299183, -34.548940819241764 ], [ -58.468226401041441, -34.548895112449813 ], [ -58.468509037869119, -34.548540444319201 ], [ -58.468553548057727, -34.548484595999447 ], [ -58.467473539833925, -34.548087797150842 ], [ -58.467299886843563, -34.548043791681138 ], [ -58.466370051039618, -34.547582201026358 ], [ -58.466179653923234, -34.547388033183012 ], [ -58.466068959037401, -34.54729644494784 ], [ -58.465940552347938, -34.547160893412183 ], [ -58.465652384573481, -34.546801972195055 ], [ -58.465354813614944, -34.546507108646992 ], [ -58.465172587130809, -34.546256049116231 ], [ -58.464853336899978, -34.54609647223247 ], [ -58.465159382536797, -34.545691387621012 ], [ -58.46538499993131, -34.545392714679565 ], [ -58.46552491424665, -34.545207496392514 ], [ -58.465915717668878, -34.544684095475795 ], [ -58.465136287165748, -34.544291705625213 ], [ -58.465143305366752, -34.544205978250396 ], [ -58.465076952899139, -34.544141609461185 ], [ -58.464969417987575, -34.544118892235183 ], [ -58.464859969977368, -34.544153099676478 ], [ -58.464486595215661, -34.543962564038317 ], [ -58.464058645867269, -34.543745154236497 ], [ -58.46398639052817, -34.543842973992867 ], [ -58.463533195065956, -34.544459328986541 ], [ -58.463009182141924, -34.545172304182437 ], [ -58.462066013424135, -34.544693976654294 ], [ -58.461881925715893, -34.544600592069294 ], [ -58.46112821738123, -34.5442121911097 ], [ -58.460623110759862, -34.543951822520242 ], [ -58.459796343721472, -34.544719637484093 ], [ -58.458925224069048, -34.545402865630933 ], [ -58.459897404834656, -34.545889246539787 ], [ -58.460709337213608, -34.546295332726267 ], [ -58.460851894281681, -34.546366886709031 ], [ -58.461787159819878, -34.546835716112291 ], [ -58.462697328199944, -34.547292073103733 ], [ -58.462157543690999, -34.548081031981191 ], [ -58.46163714317553, -34.548839239000543 ], [ -58.462000580580067, -34.549029627931802 ], [ -58.462028158487151, -34.549087956303389 ], [ -58.462243320932807, -34.549195635888218 ], [ -58.462395077743409, -34.549271555516491 ], [ -58.462515714224644, -34.549288716570217 ], [ -58.462741296699249, -34.549391794334497 ], [ -58.462830776786141, -34.549427017577081 ], [ -58.463367663279513, -34.548694221073809 ], [ -58.463425965146449, -34.548614219106341 ], [ -58.463901312300095, -34.54790624289619 ], [ -58.464589274548587, -34.548248640191829 ], [ -58.465530539959317, -34.548717159016995 ], [ -58.466471305232389, -34.549185388865951 ], [ -58.467560267177404, -34.549727410925975 ], [ -58.468189805299183, -34.548940819241764 ] ] ] } },
{ "type": "Feature", "properties": { "zona_id": "Z46", "nombre": "Retiro", "pieza": "cluster coreano y asiatico", "fuente_del_perimetro": "Tres piezas: el nucleo institucional de Plaza San Martin y Florida; el corredor Arroyo, de Juncal y Esmeralda a Plaza Carlos Pellegrini; y un cluster coreano y asiatico sobre Maipu, Esmeralda, Paraguay y M. T. de Alvear, alturas 800 a 990, entre Plaza San Martin y Av. Cordoba.", "metodo": "manzanas frentistas del callejero sobre MAIPU, ESMERALDA, PARAGUAY, ALVEAR, MARCELO T. DE 800-990 (frente minimo 20 m)", "ha": 18.96, "n_locales": 163 }, "geometry": { "type": "Polygon", "coordinates": [ [ [ -58.375402521603441, -34.597685866594972 ], [ -58.375380900345668, -34.598484666174045 ], [ -58.375372237517375, -34.598704522464516 ], [ -58.376842986806807, -34.598807476370567 ], [ -58.37828299789777, -34.598908278429867 ], [ -58.379745959802733, -34.59897083919072 ], [ -58.381024387640316, -34.599019807216692 ], [ -58.381253722840832, -34.599030525176389 ], [ -58.381335066628623, -34.597977465000426 ], [ -58.381344310787384, -34.597843314196446 ], [ -58.381414293030097, -34.596823626934814 ], [ -58.381421068290798, -34.596688418087837 ], [ -58.381488369287524, -34.595361399950875 ], [ -58.38122984531887, -34.595339465444127 ], [ -58.379957838437576, -34.595227545217931 ], [ -58.378505142322709, -34.595099711410576 ], [ -58.378500671518708, -34.595309148264171 ], [ -58.378439938153186, -34.596244472987721 ], [ -58.378441772170383, -34.596367081830266 ], [ -58.378316513122016, -34.596354600098515 ], [ -58.377064381969845, -34.596281748684611 ], [ -58.376958189365432, -34.596278856647025 ], [ -58.376263456323422, -34.596269982688042 ], [ -58.37592673714196, -34.596329780087721 ], [ -58.375603078542348, -34.596308304462177 ], [ -58.375417580636814, -34.596244305612615 ], [ -58.375407523381099, -34.597384104945931 ], [ -58.375405613696927, -34.597499246206226 ], [ -58.375402521603441, -34.597685866594972 ] ] ] } },
{ "type": "Feature", "properties": { "zona_id": "Z46", "nombre": "Retiro", "pieza": "corredor Arroyo", "fuente_del_perimetro": "Tres piezas: el nucleo institucional de Plaza San Martin y Florida; el corredor Arroyo, de Juncal y Esmeralda a Plaza Carlos Pellegrini; y un cluster coreano y asiatico sobre Maipu, Esmeralda, Paraguay y M. T. de Alvear, alturas 800 a 990, entre Plaza San Martin y Av. Cordoba.", "metodo": "manzanas frentistas del callejero sobre ARROYO entre JUNCAL y PELLEGRINI, CARLOS (frente minimo 20 m)", "ha": 11.9, "n_locales": 32 }, "geometry": { "type": "Polygon", "coordinates": [ [ [ -58.380081808281993, -34.592859211276895 ], [ -58.381428000164171, -34.592834628491858 ], [ -58.381619093406606, -34.59283447485253 ], [ -58.381560947299299, -34.591600471933525 ], [ -58.381549935160962, -34.591367221250692 ], [ -58.381550097687295, -34.590592701402777 ], [ -58.38144046833505, -34.590367694568329 ], [ -58.380909326948832, -34.58927731875692 ], [ -58.379543311285943, -34.590020838067481 ], [ -58.379396954592153, -34.590102675271567 ], [ -58.378753196500789, -34.590492061710684 ], [ -58.377859405920077, -34.59107842083656 ], [ -58.377133474068295, -34.59155467889817 ], [ -58.376674087182437, -34.591854006502849 ], [ -58.377090812256924, -34.592872416897748 ], [ -58.377859612357121, -34.592873168861942 ], [ -58.378584884291712, -34.592886491612838 ], [ -58.380081808281993, -34.592859211276895 ] ] ] } },
{ "type": "Feature", "properties": { "zona_id": "Z50", "nombre": "Barracas - Av. Montes de Oca", "pieza": "corredor documentado 280-1702", "fuente_del_perimetro": "El corredor documentado va de Av. Montes de Oca 280 a 1702. El poligono medido es otra cosa y es mas chico: 18,02 hectareas y 62 locales, sobre el tramo 301 a 999.", "metodo": "manzanas frentistas del callejero sobre MONTES DE OCA, MANUEL AV. 280-1702 (frente minimo 20 m)", "ha": 50.62, "n_locales": 84 }, "geometry": { "type": "Polygon", "coordinates": [ [ [ -58.374418163498433, -34.646634517700612 ], [ -58.375098178231234, -34.644603446693999 ], [ -58.375140380410578, -34.644420588461699 ], [ -58.375170426955158, -34.644290327470955 ], [ -58.375241628051491, -34.644000447051639 ], [ -58.375278341307165, -34.643850613219371 ], [ -58.375342902923492, -34.643553544771244 ], [ -58.37540112778764, -34.64328569729264 ], [ -58.375420634973892, -34.643129512917632 ], [ -58.375448047071671, -34.642910939361677 ], [ -58.375490376423642, -34.642525051233498 ], [ -58.375527002229418, -34.64219148831981 ], [ -58.375699692389666, -34.640618707111308 ], [ -58.375798970241256, -34.639714263640819 ], [ -58.375844746400169, -34.639531970963468 ], [ -58.375909345937075, -34.639274831950139 ], [ -58.376211111987352, -34.638243207799405 ], [ -58.376273555173711, -34.638009165793555 ], [ -58.376328214598544, -34.63780378042312 ], [ -58.376696039543539, -34.636571918391077 ], [ -58.376784919678428, -34.636229795244581 ], [ -58.376828888926433, -34.636060599520157 ], [ -58.377091829936347, -34.634898803026829 ], [ -58.377137264750587, -34.634711720696444 ], [ -58.377183896888752, -34.634520061680554 ], [ -58.377391139585264, -34.633575621360137 ], [ -58.37745858930478, -34.633354539959875 ], [ -58.377495947368189, -34.633231959428677 ], [ -58.37776972608971, -34.6325332012606 ], [ -58.378292839909378, -34.631198060786467 ], [ -58.378479737082493, -34.630742283163414 ], [ -58.378458123594015, -34.630518975495903 ], [ -58.378086486216418, -34.630277924807046 ], [ -58.377242263570039, -34.629730337383315 ], [ -58.37710990645347, -34.629942710889253 ], [ -58.376819895466951, -34.630605681360237 ], [ -58.376722104197448, -34.630838572079604 ], [ -58.374793905810044, -34.629912530923079 ], [ -58.374648812830365, -34.630077920196563 ], [ -58.374337247348244, -34.630402767066315 ], [ -58.375142132134677, -34.631250050114403 ], [ -58.37428888249103, -34.631813943062909 ], [ -58.375205879931535, -34.632761730783315 ], [ -58.374352790951626, -34.633320624094168 ], [ -58.374411257356485, -34.633381653220191 ], [ -58.374245332041383, -34.634219427505272 ], [ -58.374070065774681, -34.635104589421225 ], [ -58.373870979329126, -34.636111283899979 ], [ -58.373688935824717, -34.637032003716712 ], [ -58.373549209883883, -34.637738174898949 ], [ -58.373440836616588, -34.638286339384074 ], [ -58.373381627576791, -34.638516156917781 ], [ -58.37331959430206, -34.638757240033918 ], [ -58.373217276020526, -34.639297732570625 ], [ -58.37317468959845, -34.639519252310791 ], [ -58.373032190117748, -34.640260843389761 ], [ -58.372994398132171, -34.640460324140122 ], [ -58.372839888024323, -34.64127416010362 ], [ -58.372800295974479, -34.641482653583594 ], [ -58.372682890836856, -34.642099965840401 ], [ -58.372642857243122, -34.642321980148751 ], [ -58.372499181205313, -34.643117936011542 ], [ -58.372446462208003, -34.643407335673558 ], [ -58.372114107553152, -34.645233721565774 ], [ -58.372075540485, -34.64543658159198 ], [ -58.37189461564482, -34.646388143418292 ], [ -58.372765875196805, -34.646575977851079 ], [ -58.37302731757427, -34.646645916789225 ], [ -58.372900461182653, -34.647406617589198 ], [ -58.373025707140087, -34.647433365209238 ], [ -58.372915710899143, -34.648050695834215 ], [ -58.372827538183721, -34.648173147939417 ], [ -58.373139614796123, -34.648230280891418 ], [ -58.37382127990432, -34.648352826108422 ], [ -58.373904812934867, -34.648172393124284 ], [ -58.374228459291338, -34.647212482144134 ], [ -58.374303007564933, -34.646985422226898 ], [ -58.374418163498433, -34.646634517700612 ] ] ] } },
{ "type": "Feature", "properties": { "zona_id": "Z51", "nombre": "Barracas - Iriarte, California y Vieytes", "pieza": "racimo Av. Iriarte 2100-2300", "fuente_del_perimetro": "Racimo documentado sobre Av. Iriarte 2100-2300, con extension a Vieytes y California.", "metodo": "manzanas frentistas del callejero sobre IRIARTE, GRAL. AV. 2100-2300 (frente minimo 20 m)", "ha": 5.83, "n_locales": 12 }, "geometry": { "type": "Polygon", "coordinates": [ [ [ -58.377054825134877, -34.6491640349061 ], [ -58.376741290703293, -34.650011635559558 ], [ -58.376673609478807, -34.650194616926214 ], [ -58.377546935638527, -34.650328052020598 ], [ -58.377744593858949, -34.650370022133423 ], [ -58.377947875316096, -34.650413193053147 ], [ -58.379135059703614, -34.650713104792487 ], [ -58.379228361817901, -34.650469716790013 ], [ -58.379609625068966, -34.649446380411263 ], [ -58.37970964307867, -34.649334962517223 ], [ -58.37966444883709, -34.64932680831604 ], [ -58.379314821666654, -34.649263725980425 ], [ -58.379630401370093, -34.648359837651903 ], [ -58.378569407023903, -34.648102483484806 ], [ -58.377830446395379, -34.647923163681774 ], [ -58.377564061778003, -34.647846990217772 ], [ -58.377473868631853, -34.648048477527688 ], [ -58.37724505228168, -34.648642616307804 ], [ -58.37713353139619, -34.64894817352986 ], [ -58.377102766814318, -34.649032518580754 ], [ -58.377054825134877, -34.6491640349061 ] ] ] } },
{ "type": "Feature", "properties": { "zona_id": "Z28", "nombre": "Monte Castro", "pieza": "corredor Av. Alvarez Jonte 4400-5299", "fuente_del_perimetro": "Av. Alvarez Jonte, aproximadamente entre el 4400 y el 5299, con nodo en el cruce con Av. Lope de Vega.", "metodo": "manzanas frentistas del callejero sobre ALVAREZ JONTE AV. 4400-5299 (frente minimo 20 m)", "ha": 28.73, "n_locales": 69 }, "geometry": { "type": "Polygon", "coordinates": [ [ [ -58.509554325763091, -34.624149822168512 ], [ -58.509795199882063, -34.624381141690371 ], [ -58.509898164030851, -34.624479765497689 ], [ -58.510206972630392, -34.62477542515029 ], [ -58.510469926228303, -34.625027228011334 ], [ -58.510561299660864, -34.625114517573152 ], [ -58.510733902525224, -34.624977547620965 ], [ -58.511210843387467, -34.624613202165591 ], [ -58.511649717275056, -34.624277954759009 ], [ -58.512113366613235, -34.623923822388662 ], [ -58.512207968976696, -34.623850966757779 ], [ -58.512750205061195, -34.623433348973137 ], [ -58.512119996967201, -34.62288099077567 ], [ -58.511498405597138, -34.622336302010453 ], [ -58.511018644488608, -34.621915781447555 ], [ -58.510115302210892, -34.621124079807359 ], [ -58.509943908606132, -34.62097386197518 ], [ -58.508830330364589, -34.619991242661463 ], [ -58.508671099872188, -34.620111866830719 ], [ -58.508403555660578, -34.620311052962208 ], [ -58.508299330873399, -34.620389190988767 ], [ -58.50755614281438, -34.620012275205731 ], [ -58.50738777068387, -34.619924659051009 ], [ -58.506447671252523, -34.619435834287479 ], [ -58.506914405472067, -34.618962916025993 ], [ -58.506732998112717, -34.618865937298231 ], [ -58.505874198802843, -34.618414966845684 ], [ -58.505685127197609, -34.618317707530807 ], [ -58.505495204022303, -34.618220096098682 ], [ -58.505116550579345, -34.618022900077719 ], [ -58.505000841849608, -34.617962727665848 ], [ -58.504672718093907, -34.617793611918422 ], [ -58.504441049587498, -34.617679463482872 ], [ -58.504244400274168, -34.617582627017811 ], [ -58.503799635043372, -34.61735235004884 ], [ -58.503546409649644, -34.617221235014462 ], [ -58.503310820928057, -34.617096733470312 ], [ -58.502642996711835, -34.6167437067568 ], [ -58.501954472666881, -34.616376879932368 ], [ -58.501199792638353, -34.617373889934292 ], [ -58.500317539713954, -34.618099662899205 ], [ -58.501298707774325, -34.618909441711104 ], [ -58.501657455845304, -34.618622283631389 ], [ -58.50218888502085, -34.61818851843686 ], [ -58.502085237669505, -34.618416089478323 ], [ -58.503310054896893, -34.619050701777589 ], [ -58.503191695723828, -34.619326518579456 ], [ -58.504434379965168, -34.619872661861791 ], [ -58.504329037630455, -34.620109742474263 ], [ -58.504267085847779, -34.620238074711075 ], [ -58.505327622763808, -34.62070391675902 ], [ -58.505510655338796, -34.620809418213248 ], [ -58.505659263166699, -34.620895142379453 ], [ -58.506838216402919, -34.621506776869104 ], [ -58.507435355172028, -34.622113330036086 ], [ -58.508055242273691, -34.622709590061362 ], [ -58.508560414536049, -34.623195324828139 ], [ -58.508646073576585, -34.623277547491426 ], [ -58.50923836164926, -34.623846416958159 ], [ -58.509554325763091, -34.624149822168512 ] ] ] } },
{ "type": "Feature", "properties": { "zona_id": "Z52", "nombre": "La Boca - Almirante Brown y Necochea", "pieza": "tramo Necochea, de Suarez a Alte. Brown", "fuente_del_perimetro": "El tramo de la calle Necochea y sus intersecciones con la avenida Suarez y la calle Olavarria, aproximadamente 340 metros lineales, desde la avenida Suarez y la calle Olavarria, extendiendose hasta la avenida Almirante Brown.", "metodo": "manzanas frentistas del callejero sobre NECOCHEA entre SUAREZ AV. y BROWN, ALTE. AV. (frente minimo 20 m)", "ha": 6.14, "n_locales": 3 }, "geometry": { "type": "Polygon", "coordinates": [ [ [ -58.356386061578533, -34.637328327195988 ], [ -58.35648883849192, -34.637405347121742 ], [ -58.356700495398719, -34.637233760479809 ], [ -58.356977183031532, -34.636967147161492 ], [ -58.357108720286398, -34.636806696726104 ], [ -58.357179382135755, -34.636661287982854 ], [ -58.357643910740258, -34.635849641755328 ], [ -58.357685093558445, -34.635782945903685 ], [ -58.358119299224064, -34.635012253549839 ], [ -58.358107616681302, -34.635007570117374 ], [ -58.357664373946754, -34.634829791027826 ], [ -58.357546686355981, -34.634783209739275 ], [ -58.356081819255706, -34.634203193048471 ], [ -58.355614088485773, -34.635048704262879 ], [ -58.35516223282837, -34.635865565403179 ], [ -58.354737953600669, -34.636632519280241 ], [ -58.35510371403587, -34.636838620775798 ], [ -58.355663602854037, -34.63708334369327 ], [ -58.355878309017854, -34.637152688530165 ], [ -58.356187817292309, -34.637230157189819 ], [ -58.356255520226085, -34.63724293706661 ], [ -58.356386061578533, -34.637328327195988 ] ] ] } },
{ "type": "Feature", "properties": { "zona_id": "Z31", "nombre": "Villa Luro", "pieza": "Bulevar Ramon L. Falcon 5400-5800", "fuente_del_perimetro": "Bulevar Ramon L. Falcon 5400-5800, entre Albariños y Escalada, mas Av. Rivadavia 10100-10400.", "metodo": "manzanas frentistas del callejero sobre FALCON, RAMON L.,CNEL. AV. 5400-5800 (frente minimo 20 m)", "ha": 8.05, "n_locales": 30 }, "geometry": { "type": "Polygon", "coordinates": [ [ [ -58.508468618579968, -34.639768838573943 ], [ -58.508698615236717, -34.638881139592968 ], [ -58.507347999477062, -34.638643041165345 ], [ -58.505931442840335, -34.638403471949104 ], [ -58.504633511107301, -34.638190606930081 ], [ -58.504513364847654, -34.638172337562764 ], [ -58.503937600841255, -34.63808478348507 ], [ -58.503017575947837, -34.638807135413408 ], [ -58.503754850453333, -34.639511899429841 ], [ -58.504403375694807, -34.640089927162755 ], [ -58.50453312213741, -34.640218123934922 ], [ -58.50472834440717, -34.640078619922797 ], [ -58.505690959672521, -34.639334127570017 ], [ -58.506505373514578, -34.640040819898381 ], [ -58.507267559192854, -34.640727595789492 ], [ -58.508439505267809, -34.639818497681084 ], [ -58.508468618579968, -34.639768838573943 ] ] ] } },
{ "type": "Feature", "properties": { "zona_id": "Z31", "nombre": "Villa Luro", "pieza": "Av. Rivadavia 10100-10400", "fuente_del_perimetro": "Bulevar Ramon L. Falcon 5400-5800, entre Albariños y Escalada, mas Av. Rivadavia 10100-10400.", "metodo": "manzanas frentistas del callejero sobre RIVADAVIA AV. 10100-10400 (frente minimo 20 m)", "ha": 8.25, "n_locales": 18 }, "geometry": { "type": "Polygon", "coordinates": [ [ [ -58.505704650735836, -34.639281235011993 ], [ -58.505978608999236, -34.639329590588346 ], [ -58.507120119318685, -34.639530948148661 ], [ -58.508468618579968, -34.639768838573943 ], [ -58.509820363651038, -34.640007276223322 ], [ -58.510050770406991, -34.639115701302352 ], [ -58.510313659819303, -34.638117351761004 ], [ -58.509764191950289, -34.638023285367794 ], [ -58.508956492964813, -34.637882513104671 ], [ -58.507794383229658, -34.637684137961031 ], [ -58.507605981536052, -34.637651318921641 ], [ -58.50635559779888, -34.637433243601762 ], [ -58.50618654042939, -34.637404570505382 ], [ -58.505931442840335, -34.638403471949104 ], [ -58.505704650735836, -34.639281235011993 ] ] ] } },
{ "type": "Feature", "properties": { "zona_id": "Z47", "nombre": "Monserrat y Congreso", "pieza": "eje Av. de Mayo 500-1300, ambas aceras", "fuente_del_perimetro": "El eje Av. de Mayo-Callao: Av. de Mayo de Peru/Bolivar a Lima/Salta, alturas 500 a 1300, ambas aceras, con frentes sobre H. Yrigoyen 1199-1201. Remates en Alsina 420, Peru 86 y 302, Av. Belgrano 599 y 1144, Defensa 695, Solis 475, la ochava de Entre Rios e Independencia, y Av. Callao 248 y 368.", "metodo": "manzanas frentistas del callejero sobre DE MAYO AV. 500-1300 (frente minimo 20 m)", "ha": 13.77, "n_locales": 133 }, "geometry": { "type": "Polygon", "coordinates": [ [ [ -58.381048451091687, -34.609628553602072 ], [ -58.381503476110403, -34.609656049320748 ], [ -58.381916896157186, -34.609677602242698 ], [ -58.382184243943293, -34.609693132604036 ], [ -58.383417676515883, -34.609761412127398 ], [ -58.383535977806176, -34.609767968488477 ], [ -58.384823903393794, -34.609858593657229 ], [ -58.384825805499148, -34.609738029860644 ], [ -58.384844542186343, -34.609287120263595 ], [ -58.38486955122417, -34.608687268949033 ], [ -58.384711226195755, -34.608673927450276 ], [ -58.383611462025947, -34.608588635469054 ], [ -58.38346795607184, -34.608576851352289 ], [ -58.383307757531973, -34.608563647653483 ], [ -58.382171971548409, -34.608474657052547 ], [ -58.381974301305242, -34.608457201270213 ], [ -58.381796219266356, -34.608441518842319 ], [ -58.381570494457385, -34.608426700878368 ], [ -58.381121960097452, -34.608399423626452 ], [ -58.380890882658491, -34.608385487398067 ], [ -58.38071671336651, -34.608375439917886 ], [ -58.38049526959616, -34.608368810865642 ], [ -58.379359292964828, -34.60830563938007 ], [ -58.379220980613447, -34.608296882052052 ], [ -58.377812987123015, -34.608210339078518 ], [ -58.376403291150872, -34.608125680079596 ], [ -58.376207064724092, -34.608114131556974 ], [ -58.374985600407719, -34.608032900303954 ], [ -58.374955987740947, -34.608030699078974 ], [ -58.374114343971989, -34.607975012231414 ], [ -58.373800579521614, -34.607918358214576 ], [ -58.373574982794992, -34.607939545870018 ], [ -58.373517655478096, -34.608024293600167 ], [ -58.373514684523172, -34.608173166704361 ], [ -58.3735081020926, -34.608512039754757 ], [ -58.373499898983439, -34.60893218030759 ], [ -58.37350286257913, -34.609027535901333 ], [ -58.373504839273544, -34.609090214266075 ], [ -58.374895281971654, -34.609191160629386 ], [ -58.375086483022457, -34.609205031603565 ], [ -58.376336825543689, -34.609298817813681 ], [ -58.376436982570858, -34.609306283629017 ], [ -58.377539819415141, -34.609387346599242 ], [ -58.377756573839903, -34.609401020077982 ], [ -58.379054631915245, -34.609482980736281 ], [ -58.379164413395976, -34.609491155193012 ], [ -58.379345565574212, -34.609504730868863 ], [ -58.38045819591499, -34.609592886972209 ], [ -58.380654852365183, -34.609604358525736 ], [ -58.381048451091687, -34.609628553602072 ] ] ] } },
{ "type": "Feature", "properties": { "zona_id": "Z37", "nombre": "Almagro", "pieza": "corredor Av. Corrientes 3500-4200", "fuente_del_perimetro": "Tres piezas: el nucleo de Guardia Vieja y Bulnes, el corredor de Av. Corrientes entre el 3500 y el 4200, y el nodo de Rivadavia y Medrano.", "metodo": "manzanas frentistas del callejero sobre CORRIENTES AV. 3500-4200 (frente minimo 20 m)", "ha": 25.79, "n_locales": 89 }, "geometry": { "type": "Polygon", "coordinates": [ [ [ -58.419645533896791, -34.60435967601132 ], [ -58.41973951784486, -34.605094016147177 ], [ -58.421189893514317, -34.604890226569317 ], [ -58.421371317743741, -34.60486472529405 ], [ -58.422804128147853, -34.604686474235429 ], [ -58.4243415263999, -34.604495211422162 ], [ -58.424131922340521, -34.603049277780251 ], [ -58.424104927026754, -34.602861871937996 ], [ -58.42392309388034, -34.601599399964513 ], [ -58.422383212736733, -34.601750515329378 ], [ -58.422214234299432, -34.601767078518719 ], [ -58.420784472856603, -34.601907576766777 ], [ -58.419341845767818, -34.602049321246795 ], [ -58.417905175785812, -34.60219048749282 ], [ -58.416671430609824, -34.602373616572564 ], [ -58.416523816817993, -34.602407856363513 ], [ -58.415471607431606, -34.602651536625324 ], [ -58.415339495230086, -34.602682119030142 ], [ -58.414319305239061, -34.602920238459262 ], [ -58.4143389154818, -34.603028416958907 ], [ -58.414516424559586, -34.60401469987832 ], [ -58.41454503345674, -34.604173798166457 ], [ -58.414735687979906, -34.604971843652166 ], [ -58.415862904475787, -34.604831299129209 ], [ -58.416926491179929, -34.604698677883668 ], [ -58.418218428893645, -34.604537610401522 ], [ -58.419645533896791, -34.60435967601132 ] ] ] } },
{ "type": "Feature", "properties": { "zona_id": "Z32", "nombre": "Liniers - Mercado Andino", "pieza": "eje Jose Leon Suarez, de Ramon Falcon a Ventura Bosch", "fuente_del_perimetro": "El eje de Jose Leon Suarez entre Ramon Falcon y Ventura Bosch, 285 metros medidos, con transversales sobre Ramon Falcon, Ibarrola y Ventura Bosch. No es un cuadrante: es un eje con transversales.", "metodo": "manzanas frentistas del callejero sobre SUAREZ, JOSE LEON entre FALCON, RAMON L.,CNEL. AV. y BOSCH, VENTURA (frente minimo 20 m)", "ha": 7.0, "n_locales": 63 }, "geometry": { "type": "Polygon", "coordinates": [ [ [ -58.526180366662672, -34.642862638809667 ], [ -58.527428287382293, -34.642918045780469 ], [ -58.528877732114402, -34.642978613514082 ], [ -58.528953527898445, -34.64173877367093 ], [ -58.52901423160403, -34.640488307766745 ], [ -58.527601844631896, -34.640362862355012 ], [ -58.526349403852258, -34.640251543472708 ], [ -58.526260802029498, -34.641620615083632 ], [ -58.526180366662672, -34.642862638809667 ] ] ] } },
{ "type": "Feature", "properties": { "zona_id": "Z44", "nombre": "Villa Ortuzar", "pieza": "corredor Av. Alvarez Thomas 600-1700", "fuente_del_perimetro": "Av. Alvarez Thomas, tramo 600-1700, con nucleo secundario en Plaza 25 de Agosto -Giribone, 14 de Julio, Charlone y Bauness.", "metodo": "manzanas frentistas del callejero sobre ALVAREZ THOMAS AV. 600-1700 (frente minimo 20 m)", "ha": 34.39, "n_locales": 69 }, "geometry": { "type": "MultiPolygon", "coordinates": [ [ [ [ -58.458902565248543, -34.579745653000764 ], [ -58.46022550143045, -34.578295384234117 ], [ -58.460102811004468, -34.578295662777514 ], [ -58.459904396278631, -34.577003097343855 ], [ -58.45990040062113, -34.576856192980891 ], [ -58.459792524626842, -34.576909571243924 ], [ -58.45869419648934, -34.577044889471878 ], [ -58.457593225385693, -34.577180549809434 ], [ -58.456755340645351, -34.57728374918792 ], [ -58.456399614975808, -34.577337040483236 ], [ -58.456189057179678, -34.577368578302142 ], [ -58.455290111688747, -34.57758148446861 ], [ -58.454242641382613, -34.578094167559058 ], [ -58.453328756590558, -34.578529668030889 ], [ -58.452529301247701, -34.578914959556847 ], [ -58.451602966040788, -34.579361361646768 ], [ -58.450759812725259, -34.579767694068103 ], [ -58.450556047988009, -34.579866125524646 ], [ -58.450953492066226, -34.580501600863968 ], [ -58.45147786533601, -34.581339907885216 ], [ -58.451713157502553, -34.581703247062904 ], [ -58.451962136401704, -34.581615451913692 ], [ -58.452948848771037, -34.581282575644522 ], [ -58.454274358603513, -34.580835418991683 ], [ -58.454471306333431, -34.580769023703532 ], [ -58.455581461752608, -34.580401627279755 ], [ -58.455760356110083, -34.580342411997165 ], [ -58.456580913731443, -34.580109427375547 ], [ -58.457627443744343, -34.579812221375356 ], [ -58.458902565248543, -34.579745653000764 ] ] ], [ [ [ -58.466315832934598, -34.578287639071078 ], [ -58.46616870374686, -34.578203979044766 ], [ -58.465205474644215, -34.577656945131316 ], [ -58.464717541935208, -34.578571053794526 ], [ -58.463512598872619, -34.577899781386947 ], [ -58.462567014810162, -34.577372938249425 ], [ -58.461605862038546, -34.576837425386053 ], [ -58.460547607312073, -34.577943061228851 ], [ -58.46022550143045, -34.578295384234117 ], [ -58.46052835350352, -34.578294757672104 ], [ -58.460529925693208, -34.579666896477505 ], [ -58.461815599994139, -34.579629171692687 ], [ -58.463250870919509, -34.57958706723678 ], [ -58.464673198542734, -34.579545368592342 ], [ -58.46608803209638, -34.579503794392011 ], [ -58.466023136767262, -34.579020335981419 ], [ -58.466315832934598, -34.578287639071078 ] ] ] ] } }
]
}
