{
"type": "FeatureCollection",
"name": "colegiales_cuna",
"crs": { "type": "name", "properties": { "name": "urn:ogc:def:crs:EPSG::5347" } },
"features": [
{ "type": "Feature", "properties": { "pieza": "cuña cerrada por ZABALA", "lectura": "A", "ha": 3.66 }, "geometry": { "type": "Polygon", "coordinates": [ [ [ 5641286.743553904816508, 6173078.384661038406193 ], [ 5641298.001882221549749, 6173078.1819904493168 ], [ 5641335.315221147611737, 6173074.886400455608964 ], [ 5641441.331477605737746, 6173065.511834688484669 ], [ 5641514.178692203946412, 6173059.072783188894391 ], [ 5641550.967054814100266, 6173046.446068291552365 ], [ 5641567.308903594501317, 6173040.843875790014863 ], [ 5641522.585018715821207, 6172906.455455105751753 ], [ 5641488.316340679302812, 6172802.269762899726629 ], [ 5641405.687183934263885, 6172915.628449518233538 ], [ 5641286.743553904816508, 6173078.384661038406193 ] ] ] } },
{ "type": "Feature", "properties": { "pieza": "cuña cerrada por AVILES, VIRREY", "lectura": "A", "ha": 3.34 }, "geometry": { "type": "Polygon", "coordinates": [ [ [ 5641258.953116097487509, 6173078.878111549653113 ], [ 5641234.530045419931412, 6173079.31247812975198 ], [ 5641219.6010258262977, 6173080.696416948921978 ], [ 5641145.621106300503016, 6173082.54176667984575 ], [ 5641012.781216020695865, 6173072.747778345830739 ], [ 5640880.54961467999965, 6173038.741052079945803 ], [ 5640878.1660429649055, 6173038.127838945016265 ], [ 5640874.062254807911813, 6173054.079345552250743 ], [ 5640985.768271440640092, 6173126.872527905739844 ], [ 5641073.431379524990916, 6173184.002953005023301 ], [ 5641162.538947256281972, 6173242.07268491294235 ], [ 5641257.781416452489793, 6173117.924807892180979 ], [ 5641286.743553904816508, 6173078.384661038406193 ], [ 5641258.953116097487509, 6173078.878111549653113 ] ] ] } },
{ "type": "Feature", "properties": { "pieza": "banda de las cuatro calles dentro de Colegiales", "lectura": "B", "ha": 137.78 }, "geometry": { "type": "Polygon", "coordinates": [ [ [ 5641107.702190077863634, 6173558.367999915964901 ], [ 5641187.265530679374933, 6173501.329794648103416 ], [ 5641199.926295781508088, 6173521.334980036132038 ], [ 5641199.935914644040167, 6173521.348645414225757 ], [ 5641199.944150986149907, 6173521.363185972906649 ], [ 5641216.999257574789226, 6173548.29857187718153 ], [ 5641175.849390000104904, 6173571.66509999986738 ], [ 5641175.84937, 6173571.665110000409186 ], [ 5641175.849349999800324, 6173571.66512 ], [ 5641162.215040000155568, 6173579.407220000401139 ], [ 5641149.786570000462234, 6173587.295219999738038 ], [ 5641138.19111, 6173596.36343 ], [ 5641137.268245324492455, 6173597.243864245712757 ], [ 5641156.703817901201546, 6173619.388327780179679 ], [ 5641189.529541163705289, 6173656.701023673638701 ], [ 5641235.872001170180738, 6173709.378140250220895 ], [ 5641293.886051456443965, 6173775.306754347868264 ], [ 5641337.344596391543746, 6173824.954136345535517 ], [ 5641380.387323371134698, 6173800.512763526290655 ], [ 5641381.167480032891035, 6173801.708048199303448 ], [ 5641457.355353204533458, 6173918.626936956308782 ], [ 5641457.447278341278434, 6173918.753917321562767 ], [ 5641457.526597046293318, 6173918.889131179079413 ], [ 5641517.756421204656363, 6174010.898062184453011 ], [ 5641542.505605529993773, 6174048.936060957610607 ], [ 5641544.533445763401687, 6174051.741297890432179 ], [ 5641546.412639815360308, 6174054.648206907324493 ], [ 5641548.842720593325794, 6174057.702584537677467 ], [ 5641551.129333424381912, 6174060.865797624923289 ], [ 5641553.422370358370245, 6174063.458763478323817 ], [ 5641555.577442483045161, 6174066.167481702752411 ], [ 5641578.099176597781479, 6174091.786778599955142 ], [ 5641580.32550445664674, 6174094.808732081204653 ], [ 5641586.743638700805604, 6174103.610106241889298 ], [ 5641603.145383292809129, 6174126.3332111639902 ], [ 5641637.966350388713181, 6174150.174775672145188 ], [ 5641662.365844704210758, 6174166.884294998832047 ], [ 5641721.37016249448061, 6174207.292337748222053 ], [ 5641803.881375087425113, 6174263.790503636933863 ], [ 5641845.637545767240226, 6174292.382055651396513 ], [ 5641853.024437992833555, 6174290.237079625017941 ], [ 5641866.690404817461967, 6174284.766371215693653 ], [ 5641879.754343083128333, 6174277.982506775297225 ], [ 5641892.090439922176301, 6174269.950818625278771 ], [ 5641903.579891977831721, 6174260.748656313866377 ], [ 5641914.112049547955394, 6174250.464641694910824 ], [ 5641923.585482195951045, 6174239.197815451771021 ], [ 5641931.908955587074161, 6174227.056683277711272 ], [ 5641939.002310123294592, 6174214.158170915208757 ], [ 5641944.797232922166586, 6174200.626498088240623 ], [ 5641949.237915709614754, 6174186.591982202604413 ], [ 5641952.28159228246659, 6174172.189783319830894 ], [ 5641953.89895037189126, 6174157.558602486737072 ], [ 5641954.074413935653865, 6174142.839345973916352 ], [ 5641952.80629316251725, 6174128.173768267966807 ], [ 5641950.106800749897957, 6174113.70310689881444 ], [ 5641946.001934284344316, 6174099.566722245886922 ], [ 5641940.531225875020027, 6174085.900755421258509 ], [ 5641933.747361434623599, 6174072.836817155592144 ], [ 5641925.715673284605145, 6174060.500720316544175 ], [ 5641879.967077730223536, 6173997.253948926925659 ], [ 5641870.135772311128676, 6173983.640195730142295 ], [ 5641829.781983701512218, 6173927.733742155134678 ], [ 5641829.354333830997348, 6173927.144293142482638 ], [ 5641822.50610323715955, 6173917.753115348517895 ], [ 5641822.276053165085614, 6173917.468141082674265 ], [ 5641822.073552222922444, 6173917.162974338978529 ], [ 5641815.793379337526858, 6173908.638448068872094 ], [ 5641807.685564265586436, 6173898.572039023041725 ], [ 5641788.051555539481342, 6173876.237635453231633 ], [ 5641769.101788507774472, 6173847.11299014557153 ], [ 5641768.979480616748333, 6173846.943794067949057 ], [ 5641768.873844680376351, 6173846.763717471621931 ], [ 5641708.61556454282254, 6173754.711316238157451 ], [ 5641638.740039449185133, 6173647.4794379202649 ], [ 5641689.425800000317395, 6173617.143969999626279 ], [ 5641689.425900000147521, 6173617.143899999558926 ], [ 5641689.42595, 6173617.143869999796152 ], [ 5641733.260901378467679, 6173590.908571461215615 ], [ 5641798.5077915340662, 6173688.904239841736853 ], [ 5641860.778779434971511, 6173782.433008429594338 ], [ 5641871.023851709440351, 6173797.797111764550209 ], [ 5641885.238495402038097, 6173819.117359954863787 ], [ 5641935.93326539453119, 6173895.639653569087386 ], [ 5641944.655397549271584, 6173907.497634443454444 ], [ 5641954.497815629467368, 6173918.443597448058426 ], [ 5641965.36573176831007, 6173928.37212697416544 ], [ 5641977.154481992125511, 6173937.187605855986476 ], [ 5641980.684571014717221, 6173939.322446189820766 ], [ 5641981.360158249735832, 6173943.863907152786851 ], [ 5641984.942821932956576, 6173958.141575754620135 ], [ 5641989.907690357416868, 6173971.999331030063331 ], [ 5641996.206949127838016, 6173985.303715220652521 ], [ 5642003.779932937584817, 6173997.926599834114313 ], [ 5642055.824694220907986, 6174075.747199196368456 ], [ 5642055.827080213464797, 6174075.750413548201323 ], [ 5642055.829139841720462, 6174075.753846185281873 ], [ 5642109.769443185068667, 6174156.399475052021444 ], [ 5642204.288109659217298, 6174302.205889322794974 ], [ 5642205.612472733482718, 6174304.044480941258371 ], [ 5642228.726720719598234, 6174288.272002489306033 ], [ 5642249.893650490790606, 6174274.148194703273475 ], [ 5642330.360771959647536, 6174220.475726725533605 ], [ 5642366.861419506371021, 6174196.12298340536654 ], [ 5642413.175916660577059, 6174166.517402997240424 ], [ 5642456.068483106791973, 6174139.09868517331779 ], [ 5642456.022571950219572, 6174139.019613874144852 ], [ 5642360.917472217231989, 6173992.308555750176311 ], [ 5642360.286819335073233, 6173991.433030656538904 ], [ 5642359.73166309017688, 6173990.507790799252689 ], [ 5642305.194203379563987, 6173908.969359190203249 ], [ 5642253.151668216101825, 6173831.152088461443782 ], [ 5642244.377891341224313, 6173819.332268703728914 ], [ 5642234.487817668356001, 6173808.429345128126442 ], [ 5642223.576694012619555, 6173798.5483188489452 ], [ 5642211.749600460752845, 6173789.784349550493062 ], [ 5642208.77500727865845, 6173788.003123523667455 ], [ 5642208.213868671096861, 6173784.114535131491721 ], [ 5642204.693522115238011, 6173769.821373834274709 ], [ 5642199.789152193814516, 6173755.942092317156494 ], [ 5642193.547990669496357, 6173742.610355649143457 ], [ 5642186.030143340118229, 6173729.954555742442608 ], [ 5642135.213648984208703, 6173653.248522711917758 ], [ 5642134.969660840928555, 6173652.881402396596968 ], [ 5642120.62992006726563, 6173631.373523698188365 ], [ 5642120.62678590696305, 6173631.369288850575686 ], [ 5642120.624081606976688, 6173631.36476737819612 ], [ 5642110.464728503488004, 6173616.129281228408217 ], [ 5642048.222742197103798, 6173522.644071985036135 ], [ 5642048.222154423594475, 6173522.643276725895703 ], [ 5642048.22164741717279, 6173522.642427688464522 ], [ 5641991.962392389774323, 6173438.145476402714849 ], [ 5642005.951120000332594, 6173430.018939999863505 ], [ 5642148.64905000012368, 6173352.676959999836981 ], [ 5642155.070410000160336, 6173348.98869 ], [ 5642168.547810000367463, 6173340.798659999854863 ], [ 5642168.551629999652505, 6173340.796339999884367 ], [ 5642168.551649999804795, 6173340.796330000273883 ], [ 5642251.920839999802411, 6173290.137430000118911 ], [ 5642251.923329999670386, 6173290.135750000365078 ], [ 5642251.925920000299811, 6173290.134340000338852 ], [ 5642332.534509999677539, 6173241.14854000043124 ], [ 5642332.971839999780059, 6173240.881760000251234 ], [ 5642357.77214, 6173225.69441 ], [ 5642357.77599, 6173225.69178 ], [ 5642357.78002000041306, 6173225.68958 ], [ 5642395.727610000409186, 6173202.447809999808669 ], [ 5642396.672039999626577, 6173201.864559999667108 ], [ 5642436.464030000381172, 6173177.086369999684393 ], [ 5642436.46519, 6173177.085570000112057 ], [ 5642436.466369999572635, 6173177.084909999743104 ], [ 5642459.133860000409186, 6173162.969440000131726 ], [ 5642459.306730000302196, 6173162.861630000174046 ], [ 5642500.28201000019908, 6173137.268260000273585 ], [ 5642500.284280000254512, 6173137.266680000349879 ], [ 5642500.286720000207424, 6173137.265320000238717 ], [ 5642588.693570000119507, 6173082.04141 ], [ 5642588.70318999979645, 6173082.034719999879599 ], [ 5642588.713469999842346, 6173082.02898 ], [ 5642598.661140000447631, 6173075.812939999625087 ], [ 5642610.55186, 6173067.559220000170171 ], [ 5642621.591690000146627, 6173058.197850000113249 ], [ 5642656.816089999862015, 6173025.278959999792278 ], [ 5642656.820879999548197, 6173025.274480000138283 ], [ 5642656.82845, 6173025.267409999854863 ], [ 5642696.576039999723434, 6172988.12978 ], [ 5642696.581899999640882, 6172988.123739999718964 ], [ 5642696.588290000334382, 6172988.11833 ], [ 5642810.24701, 6172881.899020000360906 ], [ 5642820.45380000025034, 6172872.372279999777675 ], [ 5642820.4561, 6172872.370129999704659 ], [ 5642820.46100000012666, 6172872.365559999831021 ], [ 5642904.711579999886453, 6172793.73874 ], [ 5642923.296210000291467, 6172776.638829999603331 ], [ 5642923.349001944065094, 6172776.585239667445421 ], [ 5642907.712651627138257, 6172759.530837521888316 ], [ 5642822.411692524328828, 6172666.490850862115622 ], [ 5642821.614600114524364, 6172665.621484168805182 ], [ 5642790.617612527683377, 6172618.300401967950165 ], [ 5642788.906391457654536, 6172615.688049621880054 ], [ 5642741.52105204667896, 6172539.625643260776997 ], [ 5642731.47463, 6172546.448049999773502 ], [ 5642720.166079999879003, 6172555.871639999561012 ], [ 5642701.191290000453591, 6172573.330540000461042 ], [ 5642700.41352, 6172574.05126 ], [ 5642615.768129999749362, 6172653.04655 ], [ 5642615.764689999632537, 6172653.05009 ], [ 5642615.760929999873042, 6172653.05327 ], [ 5642605.512570000253618, 6172662.618800000287592 ], [ 5642540.883570849895477, 6172723.017562262713909 ], [ 5642539.978410902433097, 6172718.557465911842883 ], [ 5642535.650746638886631, 6172704.487689020112157 ], [ 5642529.96484196651727, 6172690.909847225993872 ], [ 5642522.97545525431633, 6172677.954702566377819 ], [ 5642514.749898117035627, 6172665.747020168229938 ], [ 5642505.367387167178094, 6172654.404366686008871 ], [ 5642494.918281113728881, 6172644.035978072322905 ], [ 5642491.393109649419785, 6172641.165746392682195 ], [ 5642485.300396367907524, 6172644.452077352441847 ], [ 5642397.974527793936431, 6172691.556863561272621 ], [ 5642377.656775531359017, 6172702.516585023142397 ], [ 5642377.238773312419653, 6172702.742124899290502 ], [ 5642376.334066177718341, 6172703.1616395637393 ], [ 5642373.029521069489419, 6172704.693964417092502 ], [ 5642366.870899556204677, 6172707.549885747954249 ], [ 5642360.84120530821383, 6172710.345723925158381 ], [ 5642294.095396298915148, 6172741.294183074496686 ], [ 5642271.342353321611881, 6172751.839422925375402 ], [ 5642257.327312455512583, 6172758.336172671988606 ], [ 5642250.142211412079632, 6172761.91806451883167 ], [ 5642220.57094310503453, 6172776.659718521870673 ], [ 5642173.367607532069087, 6172800.193355706520379 ], [ 5642133.725341034121811, 6172819.957409702241421 ], [ 5642128.514411263167858, 6172822.555913520045578 ], [ 5642127.792061042971909, 6172822.916131540201604 ], [ 5642106.432018691673875, 6172831.578512408770621 ], [ 5642036.1482904413715, 6172860.081330622546375 ], [ 5642025.529253419488668, 6172864.383730439469218 ], [ 5642020.57530614733696, 6172866.390818940475583 ], [ 5641945.0872309114784, 6172897.003354188986123 ], [ 5641898.30618221219629, 6172915.971864148974419 ], [ 5641777.093392985872924, 6172965.122643468901515 ], [ 5641728.114355102181435, 6172984.984290048480034 ], [ 5641719.14004592038691, 6172988.06398275308311 ], [ 5641709.731753797270358, 6172993.827613640576601 ], [ 5641709.634338452480733, 6172993.47858688980341 ], [ 5641709.433101299218833, 6172992.873900081962347 ], [ 5641708.926433321088552, 6172991.568964314647019 ], [ 5641675.924883997999132, 6173002.894028856419027 ], [ 5641568.487300624139607, 6173039.765698229894042 ], [ 5641567.192350062541664, 6173040.210158733651042 ], [ 5641550.850474575534463, 6173045.81228940654546 ], [ 5641514.062060265801847, 6173058.439005745574832 ], [ 5641512.206062911078334, 6173058.603109935298562 ], [ 5641441.214918417856097, 6173064.878131579607725 ], [ 5641390.473138438537717, 6173069.365005070343614 ], [ 5641304.461078366264701, 6173083.522002057172358 ], [ 5641297.372656119987369, 6173085.049289305694401 ], [ 5641290.282017650082707, 6173086.566255139186978 ], [ 5641290.17787479236722, 6173086.59949291869998 ], [ 5641290.071008953265846, 6173086.62251847051084 ], [ 5641283.166419688612223, 6173088.837238303385675 ], [ 5641277.084796166978776, 6173090.778222701512277 ], [ 5641257.664810320362449, 6173117.291045730002224 ], [ 5641249.958049513399601, 6173127.337147801183164 ], [ 5641162.42230018787086, 6173241.438979378901422 ], [ 5641104.659828440286219, 6173316.734682941809297 ], [ 5641093.049960502423346, 6173331.869098679162562 ], [ 5641020.189742065034807, 6173435.824630535207689 ], [ 5641004.89582802914083, 6173446.788693146780133 ], [ 5641047.11696483194828, 6173492.263025887310505 ], [ 5641082.701718784868717, 6173535.071965146809816 ], [ 5641104.794275996275246, 6173560.243738482706249 ], [ 5641107.702190077863634, 6173558.367999915964901 ] ], [ [ 5641558.810405146330595, 6173345.691431702114642 ], [ 5641535.360980000346899, 6173359.725960000418127 ], [ 5641535.360919999890029, 6173359.7259900001809 ], [ 5641535.360810000449419, 6173359.726060000248253 ], [ 5641475.40191563218832, 6173395.611506901681423 ], [ 5641454.650396668352187, 6173362.838321436196566 ], [ 5641554.548614882864058, 6173346.392792449332774 ], [ 5641558.810405146330595, 6173345.691431702114642 ] ] ] } }
]
}
