{
"type": "FeatureCollection",
"name": "cinco_sin_ancla_versiones",
"crs": { "type": "name", "properties": { "name": "urn:ogc:def:crs:OGC:1.3:CRS84" } },
"features": [
{ "type": "Feature", "properties": { "zona_id": "Z32", "nombre": "Liniers · Mercado Andino", "version": "A · el borde de ahora", "ha": 7.0, "n_locales": 63 }, "geometry": { "type": "Polygon", "coordinates": [ [ [ -58.5261803666628, -34.642862638810222 ], [ -58.527428287382406, -34.642918045781016 ], [ -58.528877732114502, -34.642978613514643 ], [ -58.528953527898558, -34.641738773671463 ], [ -58.52901423160413, -34.640488307767306 ], [ -58.527601844632024, -34.64036286235558 ], [ -58.526349403852386, -34.640251543473255 ], [ -58.526260802029626, -34.641620615084165 ], [ -58.5261803666628, -34.642862638810222 ] ] ] } },
{ "type": "Feature", "properties": { "zona_id": "Z32", "nombre": "Liniers · Mercado Andino", "version": "B · extendido hasta contenerlos a todos", "ha": 8.07, "n_locales": 70 }, "geometry": { "type": "MultiPolygon", "coordinates": [ [ [ [ -58.527428287382406, -34.642918045781016 ], [ -58.528877732114502, -34.642978613514643 ], [ -58.528953527898558, -34.641738773671463 ], [ -58.52901423160413, -34.640488307767306 ], [ -58.527601844632024, -34.64036286235558 ], [ -58.526349403852386, -34.640251543473255 ], [ -58.526260802029626, -34.641620615084165 ], [ -58.5261803666628, -34.642862638810222 ], [ -58.527428287382406, -34.642918045781016 ] ] ], [ [ [ -58.523595158645712, -34.640178498998644 ], [ -58.523579418053686, -34.640327310893547 ], [ -58.523562570593825, -34.640477320523274 ], [ -58.524966558623674, -34.640542464326494 ], [ -58.524945011741927, -34.640786632258418 ], [ -58.524923380622347, -34.641032279105275 ], [ -58.524901664325739, -34.641278137250858 ], [ -58.524876991057063, -34.641558363364894 ], [ -58.52505772133393, -34.641566370637371 ], [ -58.525252852224973, -34.641575144981815 ], [ -58.525268014040932, -34.641453798219565 ], [ -58.525381060999962, -34.640165490194583 ], [ -58.525003992424274, -34.640120540316317 ], [ -58.523595158645712, -34.640178498998644 ] ] ] ] } },
{ "type": "Feature", "properties": { "zona_id": "Z35", "nombre": "Balvanera · Once", "version": "A · el borde de ahora", "ha": 19.18, "n_locales": 74 }, "geometry": { "type": "Polygon", "coordinates": [ [ [ -58.399712807475446, -34.603352380487941 ], [ -58.400900151933534, -34.603444825826166 ], [ -58.402220700912771, -34.603422747205819 ], [ -58.402363955522276, -34.603420354007831 ], [ -58.403625649056785, -34.603403160424548 ], [ -58.403774183766984, -34.603401120270931 ], [ -58.405158718202088, -34.603342279942872 ], [ -58.406321038552584, -34.603171558113154 ], [ -58.406262001474097, -34.602945400406583 ], [ -58.405931622420646, -34.601726635706669 ], [ -58.405897896922824, -34.601602251770707 ], [ -58.405634014688829, -34.600793241832413 ], [ -58.404498951195556, -34.600882701497611 ], [ -58.404182834832426, -34.599895350552238 ], [ -58.404138902186837, -34.59975793277907 ], [ -58.403724400784746, -34.598454471462823 ], [ -58.403085686980582, -34.598795430874638 ], [ -58.402539747400866, -34.599086854919683 ], [ -58.402477298066358, -34.5991202046065 ], [ -58.402432052520858, -34.600086464546358 ], [ -58.402380068704424, -34.600948564439811 ], [ -58.402373521909276, -34.601050182432445 ], [ -58.40098021191428, -34.601162015689688 ], [ -58.399925975856895, -34.601119711501546 ], [ -58.399810409050396, -34.601115496431525 ], [ -58.399720653193206, -34.602221381840657 ], [ -58.399712571446123, -34.602321167854235 ], [ -58.399553975227384, -34.603344198899514 ], [ -58.399712807475446, -34.603352380487941 ] ] ] } },
{ "type": "Feature", "properties": { "zona_id": "Z35", "nombre": "Balvanera · Once", "version": "B · extendido hasta contenerlos a todos", "ha": 51.3, "n_locales": 231 }, "geometry": { "type": "MultiPolygon", "coordinates": [ [ [ [ -58.397270445432, -34.610664567063438 ], [ -58.397475278840993, -34.610682072351061 ], [ -58.397791770140628, -34.610709003623057 ], [ -58.399068899587078, -34.610811303770532 ], [ -58.39907703424349, -34.610644897345963 ], [ -58.399105700633555, -34.609697998098625 ], [ -58.399216263266865, -34.608470715304072 ], [ -58.397729644111109, -34.60836745919265 ], [ -58.3976118559818, -34.608359297128715 ], [ -58.396382963898866, -34.608269402716395 ], [ -58.396267561114271, -34.608260958968849 ], [ -58.394945673971449, -34.608157688907369 ], [ -58.39486707281511, -34.60938695764704 ], [ -58.394820665866931, -34.610512228665549 ], [ -58.396225223229777, -34.610599559410076 ], [ -58.397270445432, -34.610664567063438 ] ] ], [ [ [ -58.391919644083508, -34.606768471789863 ], [ -58.392115437039955, -34.606787811803024 ], [ -58.392318383900928, -34.606807859899419 ], [ -58.393567755298882, -34.60692301858694 ], [ -58.393576437696659, -34.606827247545461 ], [ -58.393697505946783, -34.605759343705508 ], [ -58.393708488084521, -34.605663080983113 ], [ -58.393847009825116, -34.604598567071989 ], [ -58.393860835867294, -34.6044618828127 ], [ -58.393690500846937, -34.604457771611727 ], [ -58.393579526817305, -34.604456018084619 ], [ -58.393603710536226, -34.604359269928871 ], [ -58.393597872469599, -34.604313068737639 ], [ -58.393518721290718, -34.604246050688339 ], [ -58.393453954820082, -34.604189745203861 ], [ -58.393406808063247, -34.60414577390253 ], [ -58.39336238841134, -34.604099832286039 ], [ -58.39332078079547, -34.604052202100377 ], [ -58.393281985154218, -34.604002953771861 ], [ -58.393246171763039, -34.603952157824445 ], [ -58.393219208910992, -34.603909747354258 ], [ -58.393141754087821, -34.603750616004518 ], [ -58.393062228957852, -34.603623033168986 ], [ -58.393027858978321, -34.603577871871011 ], [ -58.392990506782624, -34.603534328586747 ], [ -58.392950427759104, -34.603492544307819 ], [ -58.392907707018068, -34.603452589504371 ], [ -58.392862429609721, -34.60341460506978 ], [ -58.392814680583399, -34.603378731897621 ], [ -58.392473432427145, -34.603153953514955 ], [ -58.392750996407941, -34.603151790338771 ], [ -58.393987163358247, -34.603205879892016 ], [ -58.393998842250411, -34.60309025101494 ], [ -58.394105130294903, -34.602065084828411 ], [ -58.394114832275363, -34.601970863568312 ], [ -58.394214110337629, -34.600871255374138 ], [ -58.394060817836667, -34.600864619090686 ], [ -58.392768905663338, -34.600806343082581 ], [ -58.391573136873028, -34.600759941115498 ], [ -58.391427336920714, -34.600756122871992 ], [ -58.391302337863166, -34.601912827152383 ], [ -58.391289288297514, -34.602033595904437 ], [ -58.391183776648006, -34.603105873451561 ], [ -58.390850700322503, -34.60308849278379 ], [ -58.390822876187919, -34.604333283232862 ], [ -58.39081844475777, -34.604532368001188 ], [ -58.390796887601404, -34.605425044144042 ], [ -58.390790321501463, -34.605532224880086 ], [ -58.390779522526479, -34.605707854783134 ], [ -58.390746548875413, -34.606701652150761 ], [ -58.390894997545395, -34.60670772633577 ], [ -58.391919644083508, -34.606768471789863 ] ] ], [ [ [ -58.402220700912771, -34.603422747205819 ], [ -58.402363955522276, -34.603420354007831 ], [ -58.403625649056785, -34.603403160424548 ], [ -58.403774183766984, -34.603401120270931 ], [ -58.405158718202088, -34.603342279942872 ], [ -58.406321038552584, -34.603171558113154 ], [ -58.406262001474097, -34.602945400406583 ], [ -58.405931622420646, -34.601726635706669 ], [ -58.405897896922824, -34.601602251770707 ], [ -58.405634014688829, -34.600793241832413 ], [ -58.404498951195556, -34.600882701497611 ], [ -58.404182834832426, -34.599895350552238 ], [ -58.404138902186837, -34.59975793277907 ], [ -58.403724400784746, -34.598454471462823 ], [ -58.403085686980582, -34.598795430874638 ], [ -58.402539747400866, -34.599086854919683 ], [ -58.402477298066358, -34.5991202046065 ], [ -58.402432052520858, -34.600086464546358 ], [ -58.402380068704424, -34.600948564439811 ], [ -58.402373521909276, -34.601050182432445 ], [ -58.40098021191428, -34.601162015689688 ], [ -58.399925975856895, -34.601119711501546 ], [ -58.399810409050396, -34.601115496431525 ], [ -58.399720653193206, -34.602221381840657 ], [ -58.399712571446123, -34.602321167854235 ], [ -58.399553975227384, -34.603344198899514 ], [ -58.399712807475446, -34.603352380487941 ], [ -58.400900151933534, -34.603444825826166 ], [ -58.402220700912771, -34.603422747205819 ] ] ], [ [ [ -58.408699280489834, -34.599507801203686 ], [ -58.409957204060028, -34.599431666270348 ], [ -58.410592808920121, -34.599391801007116 ], [ -58.410296752593233, -34.598092145444113 ], [ -58.409430735557549, -34.598087822477872 ], [ -58.408724146875748, -34.598077930883377 ], [ -58.408150667452126, -34.598068377123859 ], [ -58.406628995935272, -34.59804521476881 ], [ -58.407198030405397, -34.59959874134335 ], [ -58.408699280489834, -34.599507801203686 ] ] ] ] } },
{ "type": "Feature", "properties": { "zona_id": "Z40", "nombre": "Nueva Pompeya y Parque Patricios", "version": "A · el borde de ahora", "ha": 69.06, "n_locales": 112 }, "geometry": { "type": "MultiPolygon", "coordinates": [ [ [ [ -58.416699573339045, -34.658950842599438 ], [ -58.41684553286224, -34.658944465972283 ], [ -58.416790792857817, -34.658844735027394 ], [ -58.416776388693798, -34.658478888923547 ], [ -58.417821167667242, -34.657520263384455 ], [ -58.4171606937213, -34.657044449014798 ], [ -58.416731683469365, -34.656735622079481 ], [ -58.416593134495066, -34.656789888895197 ], [ -58.416580144611892, -34.656794976756373 ], [ -58.416574086114927, -34.657231229376279 ], [ -58.416598081523752, -34.65781049805733 ], [ -58.416652384751011, -34.658606761139943 ], [ -58.416699573339045, -34.658950842599438 ] ] ], [ [ [ -58.416422367439715, -34.657283076539322 ], [ -58.416262056768673, -34.657158275854215 ], [ -58.416164056280223, -34.657014988033396 ], [ -58.416086281464153, -34.656914586823177 ], [ -58.415911496962451, -34.656812784370985 ], [ -58.415577665222017, -34.656618344172998 ], [ -58.415186929528822, -34.657338899186776 ], [ -58.416315637713211, -34.657808607597204 ], [ -58.416345182217086, -34.658500942110386 ], [ -58.416363780908185, -34.658834904666321 ], [ -58.416448423876766, -34.658961814314608 ], [ -58.41655696150967, -34.658957072803652 ], [ -58.416499141021866, -34.658507172133724 ], [ -58.416444778217603, -34.657819487450155 ], [ -58.416422367439715, -34.657283076539322 ] ] ], [ [ [ -58.416338696404331, -34.654758456407798 ], [ -58.416316657757939, -34.654816655610361 ], [ -58.41625945151123, -34.654691648523368 ], [ -58.416354872291741, -34.65471573940043 ], [ -58.416348884366563, -34.6542163892614 ], [ -58.416335365453079, -34.653240040782364 ], [ -58.416322927665057, -34.652239540257433 ], [ -58.416320374814418, -34.652153024959695 ], [ -58.416214781510483, -34.652237034524298 ], [ -58.416048120871537, -34.652215418412538 ], [ -58.415463213790986, -34.652083208757922 ], [ -58.415213561695388, -34.653133531020927 ], [ -58.415038439179874, -34.65386438215225 ], [ -58.414794955542405, -34.654321894148012 ], [ -58.415507037594701, -34.654501683533432 ], [ -58.41521649535688, -34.655284461619651 ], [ -58.414436042610106, -34.654989079064727 ], [ -58.414264731527176, -34.655307533433955 ], [ -58.414180867281878, -34.655463134460092 ], [ -58.415068246553822, -34.655957787559558 ], [ -58.416365804345496, -34.656681005911324 ], [ -58.416524271870522, -34.656733599615471 ], [ -58.416580878331736, -34.656742143225273 ], [ -58.416731683469365, -34.656735622079481 ], [ -58.41759928794847, -34.655890733887475 ], [ -58.418080619620902, -34.65542203716835 ], [ -58.416546827456997, -34.6549085671816 ], [ -58.416385517713628, -34.654797929321319 ], [ -58.416338696404331, -34.654758456407798 ] ] ], [ [ [ -58.418930020042417, -34.653504026960256 ], [ -58.417864475936923, -34.65327659081396 ], [ -58.417802534336523, -34.651849586226369 ], [ -58.418068724302707, -34.650963552326743 ], [ -58.418159468814522, -34.650670062754095 ], [ -58.417715334934826, -34.65064384101035 ], [ -58.417649864246982, -34.649755711568559 ], [ -58.418427778059225, -34.649790578022767 ], [ -58.419420940759935, -34.649837559499581 ], [ -58.419686503234686, -34.649616385560591 ], [ -58.419697052244395, -34.649606677751422 ], [ -58.420847862624058, -34.648547616266988 ], [ -58.421686900084055, -34.649344265719925 ], [ -58.422682206008965, -34.648484172411322 ], [ -58.422802065246145, -34.648385408720578 ], [ -58.423146381867653, -34.648101788058874 ], [ -58.424592429165266, -34.646886330858855 ], [ -58.424839044624328, -34.646679717145219 ], [ -58.424452770159895, -34.64669410186039 ], [ -58.424175734987827, -34.646714647256402 ], [ -58.423963967313661, -34.646745987825177 ], [ -58.423702767105162, -34.646796537485891 ], [ -58.423531047217878, -34.64683148187676 ], [ -58.423149590004499, -34.646926639306557 ], [ -58.423093802352327, -34.646871479654621 ], [ -58.422378109170957, -34.64616285578785 ], [ -58.422273946214546, -34.646059017157057 ], [ -58.421179202693303, -34.646957172066557 ], [ -58.421652349930987, -34.647375436378169 ], [ -58.420181605285784, -34.647804646785943 ], [ -58.420006715181806, -34.647866064159196 ], [ -58.419891987710358, -34.64792355901983 ], [ -58.419208053331687, -34.648263527468686 ], [ -58.419135347200779, -34.648298571843213 ], [ -58.418767756111421, -34.648416255939146 ], [ -58.418533888182282, -34.648491170868212 ], [ -58.418399253659757, -34.648483797370645 ], [ -58.418355553893178, -34.648455752894399 ], [ -58.417646752998593, -34.647814146755309 ], [ -58.417429577808598, -34.647906882858159 ], [ -58.41628477460241, -34.648424295499225 ], [ -58.416081740002717, -34.648453632215215 ], [ -58.415028383020548, -34.648278282721215 ], [ -58.413645581988128, -34.648048007470528 ], [ -58.413605350920911, -34.648207851432886 ], [ -58.413451600452859, -34.648818286164328 ], [ -58.413362424189224, -34.649172266359216 ], [ -58.414755470639811, -34.64939959109708 ], [ -58.41470105741449, -34.649624359787069 ], [ -58.414481692825824, -34.650530968798947 ], [ -58.414196174566889, -34.651703598641291 ], [ -58.414294599581225, -34.65165398655207 ], [ -58.414465730630901, -34.651680271483748 ], [ -58.415317941263908, -34.651811163241213 ], [ -58.41551405474479, -34.651804452270781 ], [ -58.416048926553252, -34.651786147438337 ], [ -58.416200602334357, -34.651786254267719 ], [ -58.416311596864162, -34.651855542558465 ], [ -58.416300763238503, -34.650812695972533 ], [ -58.416301042524914, -34.649819180650717 ], [ -58.416266607919226, -34.649694106988051 ], [ -58.416446667651364, -34.649702127574393 ], [ -58.416402156298169, -34.649839328615322 ], [ -58.416409380134859, -34.650825704090629 ], [ -58.41641862625842, -34.6519323367474 ], [ -58.416512816459104, -34.65199991855134 ], [ -58.416418899339497, -34.652074639042723 ], [ -58.416417243941758, -34.652350719516043 ], [ -58.416429023976221, -34.652966067368588 ], [ -58.416439109811307, -34.653251073110823 ], [ -58.416450838495891, -34.654222520775534 ], [ -58.416473085324299, -34.654741913828502 ], [ -58.416577932922351, -34.654762169465997 ], [ -58.416779927637684, -34.654801192793464 ], [ -58.417297247597546, -34.654947845924063 ], [ -58.418278438320257, -34.655227461253332 ], [ -58.418993061505724, -34.654664339144112 ], [ -58.418930020042417, -34.653504026960256 ] ] ], [ [ [ -58.405377396511184, -34.638457309654164 ], [ -58.405147635053375, -34.639629816420303 ], [ -58.405240011019352, -34.639610353217861 ], [ -58.405355131414169, -34.639598506454895 ], [ -58.405484608089104, -34.639649131730508 ], [ -58.405567299061673, -34.639711565819972 ], [ -58.405682361982201, -34.639782958891708 ], [ -58.405876489519031, -34.639863332848009 ], [ -58.406149842182096, -34.639967546671727 ], [ -58.406536867420819, -34.640060615560287 ], [ -58.406878165834634, -34.64011267579874 ], [ -58.407080355245249, -34.64011805090805 ], [ -58.407301721254811, -34.640115547095803 ], [ -58.407533750354013, -34.640094526468815 ], [ -58.407789138574401, -34.640054149667669 ], [ -58.407881763226875, -34.639916796218309 ], [ -58.408091742568075, -34.639738298329661 ], [ -58.408286379027636, -34.639567469278106 ], [ -58.408443863680581, -34.63939915843946 ], [ -58.408581043299392, -34.639269923139452 ], [ -58.408647714642036, -34.639207135573038 ], [ -58.408786696420478, -34.638927054423199 ], [ -58.408891393986629, -34.638564281008996 ], [ -58.40903147296595, -34.637904900809311 ], [ -58.409056046827494, -34.637719839624424 ], [ -58.409144060343458, -34.636673319753363 ], [ -58.408917033644173, -34.636616598485979 ], [ -58.407836396518455, -34.636389208309851 ], [ -58.40767027791734, -34.636351737935705 ], [ -58.405750809558292, -34.63591887142605 ], [ -58.405430843290858, -34.635846747517178 ], [ -58.404054380487906, -34.635537633020874 ], [ -58.402446560796811, -34.635176626707832 ], [ -58.401220684673852, -34.635075303717883 ], [ -58.400916635440971, -34.635033387617256 ], [ -58.400654415617787, -34.634997196530769 ], [ -58.39929820833796, -34.634758250675681 ], [ -58.398908460349475, -34.635915591737643 ], [ -58.398881389351111, -34.635996000733236 ], [ -58.398483407494666, -34.636989320249519 ], [ -58.398785747565334, -34.637045466985057 ], [ -58.400094099542933, -34.63729375996089 ], [ -58.401557421884732, -34.637571413490249 ], [ -58.401851919104551, -34.637638886782923 ], [ -58.402096836887367, -34.637694996362086 ], [ -58.402713704814602, -34.637816502652065 ], [ -58.403528048205303, -34.637976905931751 ], [ -58.404960802652781, -34.638259151552269 ], [ -58.405398604856444, -34.638345417305224 ], [ -58.405377396511184, -34.638457309654164 ] ] ] ] } },
{ "type": "Feature", "properties": { "zona_id": "Z40", "nombre": "Nueva Pompeya y Parque Patricios", "version": "B · extendido hasta contenerlos a todos", "ha": 82.79, "n_locales": 117 }, "geometry": { "type": "MultiPolygon", "coordinates": [ [ [ [ -58.416790792857817, -34.658844735027394 ], [ -58.416776388693798, -34.658478888923547 ], [ -58.417821167667242, -34.657520263384455 ], [ -58.4171606937213, -34.657044449014798 ], [ -58.416731683469365, -34.656735622079481 ], [ -58.416593134495066, -34.656789888895197 ], [ -58.416580144611892, -34.656794976756373 ], [ -58.416574086114927, -34.657231229376279 ], [ -58.416598081523752, -34.65781049805733 ], [ -58.416652384751011, -34.658606761139943 ], [ -58.416699573339045, -34.658950842599438 ], [ -58.41684553286224, -34.658944465972283 ], [ -58.416790792857817, -34.658844735027394 ] ] ], [ [ [ -58.416086281464153, -34.656914586823177 ], [ -58.415911496962451, -34.656812784370985 ], [ -58.415577665222017, -34.656618344172998 ], [ -58.415186929528822, -34.657338899186776 ], [ -58.416315637713211, -34.657808607597204 ], [ -58.416345182217086, -34.658500942110386 ], [ -58.416363780908185, -34.658834904666321 ], [ -58.416448423876766, -34.658961814314608 ], [ -58.41655696150967, -34.658957072803652 ], [ -58.416499141021866, -34.658507172133724 ], [ -58.416444778217603, -34.657819487450155 ], [ -58.416422367439715, -34.657283076539322 ], [ -58.416262056768673, -34.657158275854215 ], [ -58.416164056280223, -34.657014988033396 ], [ -58.416086281464153, -34.656914586823177 ] ] ], [ [ [ -58.416354872291741, -34.65471573940043 ], [ -58.416348884366563, -34.6542163892614 ], [ -58.416335365453079, -34.653240040782364 ], [ -58.416322927665057, -34.652239540257433 ], [ -58.416320374814418, -34.652153024959695 ], [ -58.416214781510483, -34.652237034524298 ], [ -58.416048120871537, -34.652215418412538 ], [ -58.415463213790986, -34.652083208757922 ], [ -58.415213561695388, -34.653133531020927 ], [ -58.415038439179874, -34.65386438215225 ], [ -58.414794955542405, -34.654321894148012 ], [ -58.415507037594701, -34.654501683533432 ], [ -58.41521649535688, -34.655284461619651 ], [ -58.414436042610106, -34.654989079064727 ], [ -58.414264731527176, -34.655307533433955 ], [ -58.414180867281878, -34.655463134460092 ], [ -58.415068246553822, -34.655957787559558 ], [ -58.416365804345496, -34.656681005911324 ], [ -58.416524271870522, -34.656733599615471 ], [ -58.416580878331736, -34.656742143225273 ], [ -58.416731683469365, -34.656735622079481 ], [ -58.41759928794847, -34.655890733887475 ], [ -58.418080619620902, -34.65542203716835 ], [ -58.416546827456997, -34.6549085671816 ], [ -58.416385517713628, -34.654797929321319 ], [ -58.416338696404331, -34.654758456407798 ], [ -58.416316657757939, -34.654816655610361 ], [ -58.41625945151123, -34.654691648523368 ], [ -58.416354872291741, -34.65471573940043 ] ] ], [ [ [ -58.420579091588756, -34.653520531472736 ], [ -58.42141897776817, -34.652914551185084 ], [ -58.422244018527074, -34.652319193925138 ], [ -58.42306972946858, -34.651723338279929 ], [ -58.423463996734895, -34.651438817852501 ], [ -58.423820282542522, -34.651181715467132 ], [ -58.423271994770445, -34.650745228968823 ], [ -58.423146865229562, -34.650634130702599 ], [ -58.422483742192703, -34.650048765508842 ], [ -58.42128602880986, -34.651071816714541 ], [ -58.420496431628557, -34.650364987800742 ], [ -58.420355933510088, -34.650485009681361 ], [ -58.419287535377563, -34.651369987091712 ], [ -58.418468996424146, -34.650630317506412 ], [ -58.418068724302842, -34.650963552326282 ], [ -58.418159468814522, -34.650670062754095 ], [ -58.417715334934826, -34.65064384101035 ], [ -58.417649864246982, -34.649755711568559 ], [ -58.418427778059225, -34.649790578022767 ], [ -58.419420940759935, -34.649837559499581 ], [ -58.419686503234686, -34.649616385560591 ], [ -58.419697052244395, -34.649606677751422 ], [ -58.420847862624058, -34.648547616266988 ], [ -58.421686900084055, -34.649344265719925 ], [ -58.422682206008965, -34.648484172411322 ], [ -58.422802065246145, -34.648385408720578 ], [ -58.423146381867653, -34.648101788058874 ], [ -58.424592429165266, -34.646886330858855 ], [ -58.424839044624328, -34.646679717145219 ], [ -58.424452770159895, -34.64669410186039 ], [ -58.424175734987827, -34.646714647256402 ], [ -58.423963967313661, -34.646745987825177 ], [ -58.423702767105162, -34.646796537485891 ], [ -58.423531047217878, -34.64683148187676 ], [ -58.423149590004499, -34.646926639306557 ], [ -58.423093802352327, -34.646871479654621 ], [ -58.422378109170957, -34.64616285578785 ], [ -58.422273946214546, -34.646059017157057 ], [ -58.421179202693303, -34.646957172066557 ], [ -58.421652349930987, -34.647375436378169 ], [ -58.420181605285784, -34.647804646785943 ], [ -58.420006715181806, -34.647866064159196 ], [ -58.419891987710358, -34.64792355901983 ], [ -58.419208053331687, -34.648263527468686 ], [ -58.419135347200779, -34.648298571843213 ], [ -58.418767756111421, -34.648416255939146 ], [ -58.418533888182282, -34.648491170868212 ], [ -58.418399253659757, -34.648483797370645 ], [ -58.418355553893178, -34.648455752894399 ], [ -58.417646752998593, -34.647814146755309 ], [ -58.417429577808598, -34.647906882858159 ], [ -58.41628477460241, -34.648424295499225 ], [ -58.416081740002717, -34.648453632215215 ], [ -58.415028383020548, -34.648278282721215 ], [ -58.413645581988128, -34.648048007470528 ], [ -58.413605350920911, -34.648207851432886 ], [ -58.413451600452859, -34.648818286164328 ], [ -58.413362424189224, -34.649172266359216 ], [ -58.414755470639811, -34.64939959109708 ], [ -58.41470105741449, -34.649624359787069 ], [ -58.414481692825824, -34.650530968798947 ], [ -58.414196174566889, -34.651703598641291 ], [ -58.414294599581225, -34.65165398655207 ], [ -58.414465730630901, -34.651680271483748 ], [ -58.415317941263908, -34.651811163241213 ], [ -58.41551405474479, -34.651804452270781 ], [ -58.416048926553252, -34.651786147438337 ], [ -58.416200602334357, -34.651786254267719 ], [ -58.416311596864162, -34.651855542558465 ], [ -58.416300763238503, -34.650812695972533 ], [ -58.416301042524914, -34.649819180650717 ], [ -58.416266607919226, -34.649694106988051 ], [ -58.416446667651364, -34.649702127574393 ], [ -58.416402156298169, -34.649839328615322 ], [ -58.416409380134859, -34.650825704090629 ], [ -58.41641862625842, -34.6519323367474 ], [ -58.416512816459104, -34.65199991855134 ], [ -58.416418899339497, -34.652074639042723 ], [ -58.416417243941758, -34.652350719516043 ], [ -58.416429023976221, -34.652966067368588 ], [ -58.416439109811307, -34.653251073110823 ], [ -58.416450838495891, -34.654222520775534 ], [ -58.416473085324299, -34.654741913828502 ], [ -58.416577932922351, -34.654762169465997 ], [ -58.416779927637684, -34.654801192793464 ], [ -58.417297247597546, -34.654947845924063 ], [ -58.418278438320257, -34.655227461253332 ], [ -58.418993061505724, -34.654664339144112 ], [ -58.418993061505709, -34.6546643391438 ], [ -58.419708502376594, -34.654148678180739 ], [ -58.420579091588756, -34.653520531472736 ] ], [ [ -58.418930020042367, -34.653504026960263 ], [ -58.417864475936923, -34.65327659081396 ], [ -58.417864475936909, -34.653276590813682 ], [ -58.418930020042353, -34.65350402696 ], [ -58.418930020042367, -34.653504026960263 ] ] ], [ [ [ -58.405355131414169, -34.639598506454895 ], [ -58.405484608089104, -34.639649131730508 ], [ -58.405567299061673, -34.639711565819972 ], [ -58.405682361982201, -34.639782958891708 ], [ -58.405876489519031, -34.639863332848009 ], [ -58.406149842182096, -34.639967546671727 ], [ -58.406536867420819, -34.640060615560287 ], [ -58.406878165834634, -34.64011267579874 ], [ -58.407080355245249, -34.64011805090805 ], [ -58.407301721254811, -34.640115547095803 ], [ -58.407533750354013, -34.640094526468815 ], [ -58.407789138574401, -34.640054149667669 ], [ -58.407881763226875, -34.639916796218309 ], [ -58.408091742568075, -34.639738298329661 ], [ -58.408286379027636, -34.639567469278106 ], [ -58.408443863680581, -34.63939915843946 ], [ -58.408581043299392, -34.639269923139452 ], [ -58.408647714642036, -34.639207135573038 ], [ -58.408786696420478, -34.638927054423199 ], [ -58.408891393986629, -34.638564281008996 ], [ -58.40903147296595, -34.637904900809311 ], [ -58.409056046827494, -34.637719839624424 ], [ -58.409144060343458, -34.636673319753363 ], [ -58.408917033644173, -34.636616598485979 ], [ -58.407836396518455, -34.636389208309851 ], [ -58.40767027791734, -34.636351737935705 ], [ -58.405750809558292, -34.63591887142605 ], [ -58.405430843290858, -34.635846747517178 ], [ -58.404054380487906, -34.635537633020874 ], [ -58.402446560796811, -34.635176626707832 ], [ -58.401220684673852, -34.635075303717883 ], [ -58.400916635440971, -34.635033387617256 ], [ -58.400654415617787, -34.634997196530769 ], [ -58.39929820833796, -34.634758250675681 ], [ -58.398908460349475, -34.635915591737643 ], [ -58.398881389351111, -34.635996000733236 ], [ -58.398483407494666, -34.636989320249519 ], [ -58.398785747565334, -34.637045466985057 ], [ -58.400094099542933, -34.63729375996089 ], [ -58.401557421884732, -34.637571413490249 ], [ -58.401851919104551, -34.637638886782923 ], [ -58.402096836887367, -34.637694996362086 ], [ -58.402713704814602, -34.637816502652065 ], [ -58.403528048205303, -34.637976905931751 ], [ -58.404960802652781, -34.638259151552269 ], [ -58.405398604856444, -34.638345417305224 ], [ -58.405377396511184, -34.638457309654164 ], [ -58.405147635053375, -34.639629816420303 ], [ -58.405240011019352, -34.639610353217861 ], [ -58.405355131414169, -34.639598506454895 ] ] ] ] } },
{ "type": "Feature", "properties": { "zona_id": "Z52", "nombre": "La Boca · Almirante Brown y Necochea", "version": "A · el borde de ahora", "ha": 6.14, "n_locales": 3 }, "geometry": { "type": "Polygon", "coordinates": [ [ [ -58.356386061578661, -34.637328327196521 ], [ -58.356488838492027, -34.637405347122304 ], [ -58.356700495398819, -34.637233760480342 ], [ -58.356977183031653, -34.636967147162011 ], [ -58.357108720286504, -34.636806696726673 ], [ -58.357179382135882, -34.636661287983387 ], [ -58.357643910740357, -34.635849641755868 ], [ -58.357685093558551, -34.635782945904218 ], [ -58.358119299224157, -34.635012253550386 ], [ -58.358107616681416, -34.635007570117935 ], [ -58.357664373946839, -34.634829791028359 ], [ -58.357546686356095, -34.634783209739808 ], [ -58.35608181925582, -34.634203193049011 ], [ -58.355614088485872, -34.635048704263411 ], [ -58.355162232828476, -34.635865565403726 ], [ -58.35473795360079, -34.636632519280781 ], [ -58.35510371403597, -34.636838620776352 ], [ -58.35566360285415, -34.637083343693845 ], [ -58.355878309017967, -34.637152688530712 ], [ -58.356187817292422, -34.637230157190338 ], [ -58.356255520226199, -34.63724293706715 ], [ -58.356386061578661, -34.637328327196521 ] ] ] } },
{ "type": "Feature", "properties": { "zona_id": "Z52", "nombre": "La Boca · Almirante Brown y Necochea", "version": "B · extendido hasta contenerlos a todos", "ha": 58.81, "n_locales": 100 }, "geometry": { "type": "MultiPolygon", "coordinates": [ [ [ [ -58.355614088485872, -34.635048704263411 ], [ -58.355162232828476, -34.635865565403726 ], [ -58.35473795360079, -34.636632519280781 ], [ -58.35510371403597, -34.636838620776352 ], [ -58.35566360285415, -34.637083343693845 ], [ -58.355878309017967, -34.637152688530712 ], [ -58.356187817292422, -34.637230157190338 ], [ -58.356187817292842, -34.637230157190423 ], [ -58.356262326196543, -34.637315609434111 ], [ -58.356435924615766, -34.637448243325629 ], [ -58.356846718287152, -34.637762098189803 ], [ -58.356891791810114, -34.637821060736059 ], [ -58.356934640685957, -34.638014453574556 ], [ -58.356952969260135, -34.638125140145902 ], [ -58.356991294767823, -34.638244748583489 ], [ -58.357035849358795, -34.638307118951928 ], [ -58.357108099638076, -34.638375873668778 ], [ -58.357175752086427, -34.638429359443784 ], [ -58.357278807039542, -34.638480331634234 ], [ -58.357463477724338, -34.638571983564738 ], [ -58.357604891506028, -34.638642166798789 ], [ -58.35789099100618, -34.638779797277152 ], [ -58.357970974692364, -34.638819300362059 ], [ -58.358158652537107, -34.638893241823432 ], [ -58.358267885812786, -34.638927681475359 ], [ -58.358378659876415, -34.638960850270692 ], [ -58.358459947458257, -34.638965585703367 ], [ -58.358487458785589, -34.638967188371716 ], [ -58.358598388218617, -34.638969899130437 ], [ -58.358674161057571, -34.63897039864684 ], [ -58.358775163214567, -34.63897101987866 ], [ -58.35884037853797, -34.638971420952714 ], [ -58.360149566426649, -34.638969560573237 ], [ -58.360302579197523, -34.638981239287261 ], [ -58.360480760787929, -34.638995450946489 ], [ -58.360701821355732, -34.639038159843665 ], [ -58.360951569890823, -34.639110327336212 ], [ -58.361159251065438, -34.639184914174194 ], [ -58.361285555150225, -34.63925943301647 ], [ -58.361358195361049, -34.639325320945254 ], [ -58.361418722578797, -34.639385474637137 ], [ -58.361515500610039, -34.639535813495485 ], [ -58.361617449014183, -34.639706191028658 ], [ -58.361648512606195, -34.639790647749088 ], [ -58.361676113364609, -34.639875101592096 ], [ -58.361686370181587, -34.639983868632655 ], [ -58.361686201870071, -34.640122678738301 ], [ -58.361669713986139, -34.64021745178119 ], [ -58.362803077606337, -34.640886087888198 ], [ -58.362843077559944, -34.640783796053654 ], [ -58.363246378085591, -34.640058487736582 ], [ -58.363305965797359, -34.639963324539607 ], [ -58.361934211174464, -34.639429089012204 ], [ -58.361824519743848, -34.639385969257916 ], [ -58.362234184785954, -34.638683627362518 ], [ -58.36207961483769, -34.63862138596307 ], [ -58.360815296071891, -34.638116241215229 ], [ -58.361295473096085, -34.637305932437016 ], [ -58.361653038164945, -34.63670270447853 ], [ -58.361780671964091, -34.636492104673195 ], [ -58.362178936381312, -34.63583503522711 ], [ -58.362276174673738, -34.635674973507065 ], [ -58.36239245050163, -34.6354834482961 ], [ -58.362656257566165, -34.63503943684001 ], [ -58.362778576594565, -34.634851437385201 ], [ -58.363483948429625, -34.635136808063365 ], [ -58.364190347094173, -34.635422527603318 ], [ -58.364567916824456, -34.634809447893169 ], [ -58.364686316925876, -34.634617288373029 ], [ -58.364828874192938, -34.634386063364957 ], [ -58.36524419104439, -34.633761673782288 ], [ -58.364504410077423, -34.633471567002793 ], [ -58.363791118629571, -34.63319182955307 ], [ -58.362356715586778, -34.632629307443494 ], [ -58.361234856268652, -34.632189355498291 ], [ -58.361010459733855, -34.632099041942531 ], [ -58.360819298011997, -34.632022104022347 ], [ -58.360886221560023, -34.631920650290745 ], [ -58.362317832645118, -34.630965666120041 ], [ -58.361623201350753, -34.630291844279675 ], [ -58.361456090896375, -34.630116984802974 ], [ -58.36130829570611, -34.62996235271617 ], [ -58.360650490391365, -34.629281019377451 ], [ -58.359290754830901, -34.630178847553744 ], [ -58.359200656222363, -34.630238338094443 ], [ -58.358175402980685, -34.630914138909262 ], [ -58.359436319807905, -34.631450787789994 ], [ -58.359072430346288, -34.632143230588674 ], [ -58.358985599132566, -34.632291326800662 ], [ -58.357794055546897, -34.631796212629922 ], [ -58.357532722615673, -34.631688238768028 ], [ -58.356574763170414, -34.631292400458236 ], [ -58.356406247889261, -34.631223167707539 ], [ -58.356002493382121, -34.631891199973388 ], [ -58.355894316730122, -34.632071036075743 ], [ -58.355406618738314, -34.632882373962943 ], [ -58.354968092401371, -34.633611780868179 ], [ -58.354896792300693, -34.633733972183514 ], [ -58.354420400335052, -34.634549963864082 ], [ -58.355509774085355, -34.635005301861206 ], [ -58.355614088485773, -34.635048704262879 ], [ -58.355614088486107, -34.635048704263014 ], [ -58.355614088485872, -34.635048704263411 ] ], [ [ -58.358591303104781, -34.634174452573575 ], [ -58.358800392910865, -34.633803314538504 ], [ -58.358950769343153, -34.633716162943117 ], [ -58.359174193709784, -34.633672713717694 ], [ -58.359255548995279, -34.633568718117893 ], [ -58.359233592423912, -34.633413917228602 ], [ -58.359857505881401, -34.633668702222614 ], [ -58.359773929909004, -34.633827393943385 ], [ -58.359674737860054, -34.634015736167463 ], [ -58.359567463545375, -34.634179887519338 ], [ -58.359482427526736, -34.63431000925916 ], [ -58.35937535948235, -34.634492525406181 ], [ -58.358591303104781, -34.634174452573575 ] ], [ [ -58.358982673683265, -34.638167082287794 ], [ -58.358855302715675, -34.638364228502553 ], [ -58.357435489867001, -34.637772652610934 ], [ -58.357363364062373, -34.637742600176018 ], [ -58.357817781765689, -34.637026812501063 ], [ -58.357911923133024, -34.636951784902593 ], [ -58.359238964366988, -34.637486379800762 ], [ -58.35938705843553, -34.637545591095169 ], [ -58.359262323991011, -34.637748092162859 ], [ -58.358982673683265, -34.638167082287794 ] ] ], [ [ [ -58.366926899885257, -34.635212676450188 ], [ -58.36676643597341, -34.636122064926425 ], [ -58.367005907778228, -34.636147817845348 ], [ -58.368181430730019, -34.636299938853206 ], [ -58.36832460218384, -34.635374408154817 ], [ -58.368476267557547, -34.634394094501701 ], [ -58.36722388042412, -34.634277056962169 ], [ -58.366926899885257, -34.635212676450188 ] ] ] ] } },
{ "type": "Feature", "properties": { "zona_id": "Z52", "nombre": "La Boca · Almirante Brown y Necochea", "version": "C · sólo sobre calles que el perímetro escrito nombra", "ha": 16.17, "n_locales": 21 }, "geometry": { "type": "Polygon", "coordinates": [ [ [ -58.357911923133024, -34.636951784902593 ], [ -58.359238964366988, -34.637486379800762 ], [ -58.35938705843553, -34.637545591095169 ], [ -58.359515121757319, -34.63733781098874 ], [ -58.359750264229184, -34.6369403312871 ], [ -58.359877220532503, -34.636730577989525 ], [ -58.360227606052447, -34.636151925758085 ], [ -58.36037009485397, -34.635919297512537 ], [ -58.359085825719596, -34.635397779643114 ], [ -58.358889194603272, -34.635319934704896 ], [ -58.359003178444318, -34.635127495257265 ], [ -58.359270596290962, -34.634671099720791 ], [ -58.35937535948235, -34.634492525406181 ], [ -58.358591303104781, -34.634174452573575 ], [ -58.358575484819426, -34.634168035399291 ], [ -58.358017287918457, -34.633941566809916 ], [ -58.356554749719521, -34.633348247755379 ], [ -58.355406618738314, -34.632882373962943 ], [ -58.354968092401371, -34.633611780868179 ], [ -58.354896792300693, -34.633733972183514 ], [ -58.354420400335052, -34.634549963864082 ], [ -58.355509774085355, -34.635005301861206 ], [ -58.355614088485773, -34.635048704262879 ], [ -58.355614088486107, -34.635048704263014 ], [ -58.355614088485872, -34.635048704263411 ], [ -58.355162232828476, -34.635865565403726 ], [ -58.35473795360079, -34.636632519280781 ], [ -58.35510371403597, -34.636838620776352 ], [ -58.35566360285415, -34.637083343693845 ], [ -58.355878309017967, -34.637152688530712 ], [ -58.356187817292422, -34.637230157190338 ], [ -58.356255520226199, -34.63724293706715 ], [ -58.356386061578661, -34.637328327196521 ], [ -58.356488838492027, -34.637405347122304 ], [ -58.356700495398819, -34.637233760480342 ], [ -58.356977183031653, -34.636967147162011 ], [ -58.357108720286504, -34.636806696726673 ], [ -58.357179382135882, -34.636661287983387 ], [ -58.35717938213611, -34.636661287982982 ], [ -58.357718952972021, -34.636874082104953 ], [ -58.357911923133024, -34.636951784902593 ] ] ] } },
{ "type": "Feature", "properties": { "zona_id": "Z52", "nombre": "La Boca · Almirante Brown y Necochea", "version": "D · como B, sin los que ya están en otro polo", "ha": 51.59, "n_locales": 77 }, "geometry": { "type": "MultiPolygon", "coordinates": [ [ [ [ -58.359238964366988, -34.637486379800762 ], [ -58.35938705843553, -34.637545591095169 ], [ -58.360815296071891, -34.638116241215229 ], [ -58.361295473096085, -34.637305932437016 ], [ -58.361653038164945, -34.63670270447853 ], [ -58.361780671964091, -34.636492104673195 ], [ -58.362178936381312, -34.63583503522711 ], [ -58.362276174673738, -34.635674973507065 ], [ -58.36239245050163, -34.6354834482961 ], [ -58.362656257566165, -34.63503943684001 ], [ -58.362778576594565, -34.634851437385201 ], [ -58.363483948429625, -34.635136808063365 ], [ -58.364190347094173, -34.635422527603318 ], [ -58.364567916824456, -34.634809447893169 ], [ -58.364686316925876, -34.634617288373029 ], [ -58.364828874192938, -34.634386063364957 ], [ -58.36524419104439, -34.633761673782288 ], [ -58.364504410077423, -34.633471567002793 ], [ -58.363791118629571, -34.63319182955307 ], [ -58.362356715586778, -34.632629307443494 ], [ -58.361234856268652, -34.632189355498291 ], [ -58.361010459733855, -34.632099041942531 ], [ -58.360819298011997, -34.632022104022347 ], [ -58.360886221560023, -34.631920650290745 ], [ -58.362317832645118, -34.630965666120041 ], [ -58.361623201350753, -34.630291844279675 ], [ -58.361456090896375, -34.630116984802974 ], [ -58.36130829570611, -34.62996235271617 ], [ -58.360650490391365, -34.629281019377451 ], [ -58.359290754830901, -34.630178847553744 ], [ -58.359200656222363, -34.630238338094443 ], [ -58.358175402980685, -34.630914138909262 ], [ -58.359436319807905, -34.631450787789994 ], [ -58.359072430346288, -34.632143230588674 ], [ -58.358985599132566, -34.632291326800662 ], [ -58.357794055546897, -34.631796212629922 ], [ -58.357532722615673, -34.631688238768028 ], [ -58.356574763170414, -34.631292400458236 ], [ -58.356406247889261, -34.631223167707539 ], [ -58.356002493382121, -34.631891199973388 ], [ -58.355894316730122, -34.632071036075743 ], [ -58.355406618738314, -34.632882373962943 ], [ -58.354968092401371, -34.633611780868179 ], [ -58.354896792300693, -34.633733972183514 ], [ -58.354420400335052, -34.634549963864082 ], [ -58.355509774085355, -34.635005301861206 ], [ -58.355614088485773, -34.635048704262879 ], [ -58.355614088486107, -34.635048704263014 ], [ -58.355614088485872, -34.635048704263411 ], [ -58.355162232828476, -34.635865565403726 ], [ -58.35473795360079, -34.636632519280781 ], [ -58.35510371403597, -34.636838620776352 ], [ -58.35566360285415, -34.637083343693845 ], [ -58.355878309017967, -34.637152688530712 ], [ -58.356187817292422, -34.637230157190338 ], [ -58.356255520226199, -34.63724293706715 ], [ -58.356386061578661, -34.637328327196521 ], [ -58.356488838492027, -34.637405347122304 ], [ -58.356700495398819, -34.637233760480342 ], [ -58.356977183031653, -34.636967147162011 ], [ -58.357108720286504, -34.636806696726673 ], [ -58.357179382135882, -34.636661287983387 ], [ -58.35717938213611, -34.636661287982982 ], [ -58.357718952972021, -34.636874082104953 ], [ -58.357911923133024, -34.636951784902593 ], [ -58.359238964366988, -34.637486379800762 ] ], [ [ -58.358591303104781, -34.634174452573575 ], [ -58.358800392910865, -34.633803314538504 ], [ -58.358950769343153, -34.633716162943117 ], [ -58.359174193709784, -34.633672713717694 ], [ -58.359255548995279, -34.633568718117893 ], [ -58.359233592423912, -34.633413917228602 ], [ -58.359857505881401, -34.633668702222614 ], [ -58.359773929909004, -34.633827393943385 ], [ -58.359674737860054, -34.634015736167463 ], [ -58.359567463545375, -34.634179887519338 ], [ -58.359482427526736, -34.63431000925916 ], [ -58.35937535948235, -34.634492525406181 ], [ -58.358591303104781, -34.634174452573575 ] ] ], [ [ [ -58.36722388042412, -34.634277056962169 ], [ -58.366926899885257, -34.635212676450188 ], [ -58.36676643597341, -34.636122064926425 ], [ -58.367005907778228, -34.636147817845348 ], [ -58.368181430730019, -34.636299938853206 ], [ -58.36832460218384, -34.635374408154817 ], [ -58.368476267557547, -34.634394094501701 ], [ -58.36722388042412, -34.634277056962169 ] ] ] ] } },
{ "type": "Feature", "properties": { "zona_id": "Z54", "nombre": "Nueva Pompeya · eje Av. Saenz", "version": "A · el borde de ahora", "ha": 39.39, "n_locales": 52 }, "geometry": { "type": "MultiPolygon", "coordinates": [ [ [ [ -58.416699573339045, -34.658950842599438 ], [ -58.41684553286224, -34.658944465972283 ], [ -58.416790792857817, -34.658844735027394 ], [ -58.416776388693798, -34.658478888923547 ], [ -58.417821167667242, -34.657520263384455 ], [ -58.4171606937213, -34.657044449014798 ], [ -58.416731683469365, -34.656735622079481 ], [ -58.416593134495066, -34.656789888895197 ], [ -58.416580144611892, -34.656794976756373 ], [ -58.416574086114927, -34.657231229376279 ], [ -58.416598081523752, -34.65781049805733 ], [ -58.416652384751011, -34.658606761139943 ], [ -58.416699573339045, -34.658950842599438 ] ] ], [ [ [ -58.416422367439715, -34.657283076539322 ], [ -58.416262056768673, -34.657158275854215 ], [ -58.416164056280223, -34.657014988033396 ], [ -58.416086281464153, -34.656914586823177 ], [ -58.415911496962451, -34.656812784370985 ], [ -58.415577665222017, -34.656618344172998 ], [ -58.415186929528822, -34.657338899186776 ], [ -58.416315637713211, -34.657808607597204 ], [ -58.416345182217086, -34.658500942110386 ], [ -58.416363780908185, -34.658834904666321 ], [ -58.416448423876766, -34.658961814314608 ], [ -58.41655696150967, -34.658957072803652 ], [ -58.416499141021866, -34.658507172133724 ], [ -58.416444778217603, -34.657819487450155 ], [ -58.416422367439715, -34.657283076539322 ] ] ], [ [ [ -58.416338696404331, -34.654758456407798 ], [ -58.416316657757939, -34.654816655610361 ], [ -58.41625945151123, -34.654691648523368 ], [ -58.416354872291741, -34.65471573940043 ], [ -58.416348884366563, -34.6542163892614 ], [ -58.416335365453079, -34.653240040782364 ], [ -58.416322927665057, -34.652239540257433 ], [ -58.416320374814418, -34.652153024959695 ], [ -58.416214781510483, -34.652237034524298 ], [ -58.416048120871537, -34.652215418412538 ], [ -58.415463213790986, -34.652083208757922 ], [ -58.415213561695388, -34.653133531020927 ], [ -58.415038439179874, -34.65386438215225 ], [ -58.414794955542405, -34.654321894148012 ], [ -58.415507037594701, -34.654501683533432 ], [ -58.41521649535688, -34.655284461619651 ], [ -58.414436042610106, -34.654989079064727 ], [ -58.414264731527176, -34.655307533433955 ], [ -58.414180867281878, -34.655463134460092 ], [ -58.415068246553822, -34.655957787559558 ], [ -58.416365804345496, -34.656681005911324 ], [ -58.416524271870522, -34.656733599615471 ], [ -58.416580878331736, -34.656742143225273 ], [ -58.416731683469365, -34.656735622079481 ], [ -58.41759928794847, -34.655890733887475 ], [ -58.418080619620902, -34.65542203716835 ], [ -58.416546827456997, -34.6549085671816 ], [ -58.416385517713628, -34.654797929321319 ], [ -58.416338696404331, -34.654758456407798 ] ] ], [ [ [ -58.418993061505724, -34.654664339144112 ], [ -58.418930020042417, -34.653504026960256 ], [ -58.417864475936923, -34.65327659081396 ], [ -58.417802534336523, -34.651849586226369 ], [ -58.418068724302707, -34.650963552326743 ], [ -58.418159468814522, -34.650670062754095 ], [ -58.417715334934826, -34.65064384101035 ], [ -58.417649864246982, -34.649755711568559 ], [ -58.418427778059225, -34.649790578022767 ], [ -58.419420940759935, -34.649837559499581 ], [ -58.419686503234686, -34.649616385560591 ], [ -58.419697052244395, -34.649606677751422 ], [ -58.420847862624058, -34.648547616266988 ], [ -58.421686900084055, -34.649344265719925 ], [ -58.422682206008965, -34.648484172411322 ], [ -58.422802065246145, -34.648385408720578 ], [ -58.423146381867653, -34.648101788058874 ], [ -58.424592429165266, -34.646886330858855 ], [ -58.424839044624328, -34.646679717145219 ], [ -58.424452770159895, -34.64669410186039 ], [ -58.424175734987827, -34.646714647256402 ], [ -58.423963967313661, -34.646745987825177 ], [ -58.423702767105162, -34.646796537485891 ], [ -58.423531047217878, -34.64683148187676 ], [ -58.423149590004499, -34.646926639306557 ], [ -58.423093802352327, -34.646871479654621 ], [ -58.422378109170957, -34.64616285578785 ], [ -58.422273946214546, -34.646059017157057 ], [ -58.421179202693303, -34.646957172066557 ], [ -58.421652349930987, -34.647375436378169 ], [ -58.420181605285784, -34.647804646785943 ], [ -58.420006715181806, -34.647866064159196 ], [ -58.419891987710358, -34.64792355901983 ], [ -58.419208053331687, -34.648263527468686 ], [ -58.419135347200779, -34.648298571843213 ], [ -58.418767756111421, -34.648416255939146 ], [ -58.418533888182282, -34.648491170868212 ], [ -58.418399253659757, -34.648483797370645 ], [ -58.418355553893178, -34.648455752894399 ], [ -58.417646752998593, -34.647814146755309 ], [ -58.417429577808598, -34.647906882858159 ], [ -58.41628477460241, -34.648424295499225 ], [ -58.416081740002717, -34.648453632215215 ], [ -58.415028383020548, -34.648278282721215 ], [ -58.413645581988128, -34.648048007470528 ], [ -58.413605350920911, -34.648207851432886 ], [ -58.413451600452859, -34.648818286164328 ], [ -58.413362424189224, -34.649172266359216 ], [ -58.414755470639811, -34.64939959109708 ], [ -58.41470105741449, -34.649624359787069 ], [ -58.414481692825824, -34.650530968798947 ], [ -58.414196174566889, -34.651703598641291 ], [ -58.414294599581225, -34.65165398655207 ], [ -58.414465730630901, -34.651680271483748 ], [ -58.415317941263908, -34.651811163241213 ], [ -58.41551405474479, -34.651804452270781 ], [ -58.416048926553252, -34.651786147438337 ], [ -58.416200602334357, -34.651786254267719 ], [ -58.416311596864162, -34.651855542558465 ], [ -58.416300763238503, -34.650812695972533 ], [ -58.416301042524914, -34.649819180650717 ], [ -58.416266607919226, -34.649694106988051 ], [ -58.416446667651364, -34.649702127574393 ], [ -58.416402156298169, -34.649839328615322 ], [ -58.416409380134859, -34.650825704090629 ], [ -58.41641862625842, -34.6519323367474 ], [ -58.416512816459104, -34.65199991855134 ], [ -58.416418899339497, -34.652074639042723 ], [ -58.416417243941758, -34.652350719516043 ], [ -58.416429023976221, -34.652966067368588 ], [ -58.416439109811307, -34.653251073110823 ], [ -58.416450838495891, -34.654222520775534 ], [ -58.416473085324299, -34.654741913828502 ], [ -58.416577932922351, -34.654762169465997 ], [ -58.416779927637684, -34.654801192793464 ], [ -58.417297247597546, -34.654947845924063 ], [ -58.418278438320257, -34.655227461253332 ], [ -58.418993061505724, -34.654664339144112 ] ] ] ] } },
{ "type": "Feature", "properties": { "zona_id": "Z54", "nombre": "Nueva Pompeya · eje Av. Saenz", "version": "B · extendido hasta contenerlos a todos", "ha": 53.12, "n_locales": 57 }, "geometry": { "type": "MultiPolygon", "coordinates": [ [ [ [ -58.416790792857817, -34.658844735027394 ], [ -58.416776388693798, -34.658478888923547 ], [ -58.417821167667242, -34.657520263384455 ], [ -58.4171606937213, -34.657044449014798 ], [ -58.416731683469365, -34.656735622079481 ], [ -58.416593134495066, -34.656789888895197 ], [ -58.416580144611892, -34.656794976756373 ], [ -58.416574086114927, -34.657231229376279 ], [ -58.416598081523752, -34.65781049805733 ], [ -58.416652384751011, -34.658606761139943 ], [ -58.416699573339045, -34.658950842599438 ], [ -58.41684553286224, -34.658944465972283 ], [ -58.416790792857817, -34.658844735027394 ] ] ], [ [ [ -58.416164056280223, -34.657014988033396 ], [ -58.416086281464153, -34.656914586823177 ], [ -58.415911496962451, -34.656812784370985 ], [ -58.415577665222017, -34.656618344172998 ], [ -58.415186929528822, -34.657338899186776 ], [ -58.416315637713211, -34.657808607597204 ], [ -58.416345182217086, -34.658500942110386 ], [ -58.416363780908185, -34.658834904666321 ], [ -58.416448423876766, -34.658961814314608 ], [ -58.41655696150967, -34.658957072803652 ], [ -58.416499141021866, -34.658507172133724 ], [ -58.416444778217603, -34.657819487450155 ], [ -58.416422367439715, -34.657283076539322 ], [ -58.416262056768673, -34.657158275854215 ], [ -58.416164056280223, -34.657014988033396 ] ] ], [ [ [ -58.41625945151123, -34.654691648523368 ], [ -58.416354872291741, -34.65471573940043 ], [ -58.416348884366563, -34.6542163892614 ], [ -58.416335365453079, -34.653240040782364 ], [ -58.416322927665057, -34.652239540257433 ], [ -58.416320374814418, -34.652153024959695 ], [ -58.416214781510483, -34.652237034524298 ], [ -58.416048120871537, -34.652215418412538 ], [ -58.415463213790986, -34.652083208757922 ], [ -58.415213561695388, -34.653133531020927 ], [ -58.415038439179874, -34.65386438215225 ], [ -58.414794955542405, -34.654321894148012 ], [ -58.415507037594701, -34.654501683533432 ], [ -58.41521649535688, -34.655284461619651 ], [ -58.414436042610106, -34.654989079064727 ], [ -58.414264731527176, -34.655307533433955 ], [ -58.414180867281878, -34.655463134460092 ], [ -58.415068246553822, -34.655957787559558 ], [ -58.416365804345496, -34.656681005911324 ], [ -58.416524271870522, -34.656733599615471 ], [ -58.416580878331736, -34.656742143225273 ], [ -58.416731683469365, -34.656735622079481 ], [ -58.41759928794847, -34.655890733887475 ], [ -58.418080619620902, -34.65542203716835 ], [ -58.416546827456997, -34.6549085671816 ], [ -58.416385517713628, -34.654797929321319 ], [ -58.416338696404331, -34.654758456407798 ], [ -58.416316657757939, -34.654816655610361 ], [ -58.41625945151123, -34.654691648523368 ] ] ], [ [ [ -58.42141897776817, -34.652914551185084 ], [ -58.422244018527074, -34.652319193925138 ], [ -58.42306972946858, -34.651723338279929 ], [ -58.423463996734895, -34.651438817852501 ], [ -58.423820282542522, -34.651181715467132 ], [ -58.423271994770445, -34.650745228968823 ], [ -58.423146865229562, -34.650634130702599 ], [ -58.422483742192703, -34.650048765508842 ], [ -58.42128602880986, -34.651071816714541 ], [ -58.420496431628557, -34.650364987800742 ], [ -58.420355933510088, -34.650485009681361 ], [ -58.419287535377563, -34.651369987091712 ], [ -58.418468996424146, -34.650630317506412 ], [ -58.418068724302842, -34.650963552326282 ], [ -58.418159468814522, -34.650670062754095 ], [ -58.417715334934826, -34.65064384101035 ], [ -58.417649864246982, -34.649755711568559 ], [ -58.418427778059225, -34.649790578022767 ], [ -58.419420940759935, -34.649837559499581 ], [ -58.419686503234686, -34.649616385560591 ], [ -58.419697052244395, -34.649606677751422 ], [ -58.420847862624058, -34.648547616266988 ], [ -58.421686900084055, -34.649344265719925 ], [ -58.422682206008965, -34.648484172411322 ], [ -58.422802065246145, -34.648385408720578 ], [ -58.423146381867653, -34.648101788058874 ], [ -58.424592429165266, -34.646886330858855 ], [ -58.424839044624328, -34.646679717145219 ], [ -58.424452770159895, -34.64669410186039 ], [ -58.424175734987827, -34.646714647256402 ], [ -58.423963967313661, -34.646745987825177 ], [ -58.423702767105162, -34.646796537485891 ], [ -58.423531047217878, -34.64683148187676 ], [ -58.423149590004499, -34.646926639306557 ], [ -58.423093802352327, -34.646871479654621 ], [ -58.422378109170957, -34.64616285578785 ], [ -58.422273946214546, -34.646059017157057 ], [ -58.421179202693303, -34.646957172066557 ], [ -58.421652349930987, -34.647375436378169 ], [ -58.420181605285784, -34.647804646785943 ], [ -58.420006715181806, -34.647866064159196 ], [ -58.419891987710358, -34.64792355901983 ], [ -58.419208053331687, -34.648263527468686 ], [ -58.419135347200779, -34.648298571843213 ], [ -58.418767756111421, -34.648416255939146 ], [ -58.418533888182282, -34.648491170868212 ], [ -58.418399253659757, -34.648483797370645 ], [ -58.418355553893178, -34.648455752894399 ], [ -58.417646752998593, -34.647814146755309 ], [ -58.417429577808598, -34.647906882858159 ], [ -58.41628477460241, -34.648424295499225 ], [ -58.416081740002717, -34.648453632215215 ], [ -58.415028383020548, -34.648278282721215 ], [ -58.413645581988128, -34.648048007470528 ], [ -58.413605350920911, -34.648207851432886 ], [ -58.413451600452859, -34.648818286164328 ], [ -58.413362424189224, -34.649172266359216 ], [ -58.414755470639811, -34.64939959109708 ], [ -58.41470105741449, -34.649624359787069 ], [ -58.414481692825824, -34.650530968798947 ], [ -58.414196174566889, -34.651703598641291 ], [ -58.414294599581225, -34.65165398655207 ], [ -58.414465730630901, -34.651680271483748 ], [ -58.415317941263908, -34.651811163241213 ], [ -58.41551405474479, -34.651804452270781 ], [ -58.416048926553252, -34.651786147438337 ], [ -58.416200602334357, -34.651786254267719 ], [ -58.416311596864162, -34.651855542558465 ], [ -58.416300763238503, -34.650812695972533 ], [ -58.416301042524914, -34.649819180650717 ], [ -58.416266607919226, -34.649694106988051 ], [ -58.416446667651364, -34.649702127574393 ], [ -58.416402156298169, -34.649839328615322 ], [ -58.416409380134859, -34.650825704090629 ], [ -58.41641862625842, -34.6519323367474 ], [ -58.416512816459104, -34.65199991855134 ], [ -58.416418899339497, -34.652074639042723 ], [ -58.416417243941758, -34.652350719516043 ], [ -58.416429023976221, -34.652966067368588 ], [ -58.416439109811307, -34.653251073110823 ], [ -58.416450838495891, -34.654222520775534 ], [ -58.416473085324299, -34.654741913828502 ], [ -58.416577932922351, -34.654762169465997 ], [ -58.416779927637684, -34.654801192793464 ], [ -58.417297247597546, -34.654947845924063 ], [ -58.418278438320257, -34.655227461253332 ], [ -58.418993061505724, -34.654664339144112 ], [ -58.418993061505709, -34.6546643391438 ], [ -58.419708502376594, -34.654148678180739 ], [ -58.420579091588756, -34.653520531472736 ], [ -58.42141897776817, -34.652914551185084 ] ], [ [ -58.417864475936923, -34.65327659081396 ], [ -58.417864475936909, -34.653276590813682 ], [ -58.418930020042353, -34.65350402696 ], [ -58.418930020042367, -34.653504026960263 ], [ -58.417864475936923, -34.65327659081396 ] ] ] ] } }
]
}
