{
"type": "FeatureCollection",
"name": "perimetros_ronda_18",
"crs": { "type": "name", "properties": { "name": "urn:ogc:def:crs:OGC:1.3:CRS84" } },
"features": [
{ "type": "Feature", "properties": { "zona_id": "Z35", "nombre": "Balvanera · Once", "pieza": "la zona entera · lectura_1_enclave", "caracter": "lectura medida, decisión abierta", "fuente_del_perimetro": "Eje Tucumán 2379-2755 y transversal Paso 700-799, del enclave que la ficha lista", "de_donde_sale_la_extension": "las cinco puertas del enclave, del padrón oficial de 2015", "metodo": "manzanas frentistas del callejero (frente mínimo 20 m)", "ha": 19.18, "n_locales": 74 }, "geometry": { "type": "Polygon", "coordinates": [ [ [ -58.399712807475382, -34.603352380487664 ], [ -58.40090015193347, -34.603444825825889 ], [ -58.402220700912707, -34.603422747205549 ], [ -58.402363955522219, -34.603420354007547 ], [ -58.403625649056735, -34.603403160424286 ], [ -58.403774183766934, -34.603401120270654 ], [ -58.405158718202053, -34.603342279942609 ], [ -58.40632103855252, -34.603171558112884 ], [ -58.40626200147404, -34.602945400406306 ], [ -58.405931622420582, -34.601726635706399 ], [ -58.405897896922774, -34.601602251770437 ], [ -58.405634014688772, -34.600793241832157 ], [ -58.404498951195492, -34.600882701497333 ], [ -58.404182834832362, -34.599895350551975 ], [ -58.404138902186773, -34.599757932778815 ], [ -58.403724400784697, -34.598454471462532 ], [ -58.403085686980525, -34.598795430874368 ], [ -58.402539747400816, -34.599086854919406 ], [ -58.402477298066295, -34.599120204606223 ], [ -58.402432052520794, -34.600086464546095 ], [ -58.402380068704375, -34.600948564439548 ], [ -58.402373521909212, -34.601050182432182 ], [ -58.400980211914224, -34.601162015689418 ], [ -58.399925975856839, -34.601119711501276 ], [ -58.399810409050332, -34.601115496431255 ], [ -58.399720653193143, -34.602221381840387 ], [ -58.399712571446074, -34.602321167853944 ], [ -58.399553975227334, -34.603344198899251 ], [ -58.399712807475382, -34.603352380487664 ] ] ] } },
{ "type": "Feature", "properties": { "zona_id": "Z35", "nombre": "Balvanera · Once", "pieza": "la zona entera · lectura_2_extendida", "caracter": "lectura medida, decisión abierta", "fuente_del_perimetro": "Eje Tucumán 2379-2755, transversal Paso 700-799, transversal Pasteur entre Tucumán y Av. Rivadavia, y Av. Rivadavia 2001-2200 para contener el Café de los Angelitos", "de_donde_sale_la_extension": "las cinco puertas del enclave más el Café de los Angelitos, Av. Rivadavia 2100, Bar Notable", "metodo": "manzanas frentistas del callejero (frente mínimo 20 m)", "ha": 44.75, "n_locales": 154 }, "geometry": { "type": "Polygon", "coordinates": [ [ [ -58.397270445432, -34.610664567063438 ], [ -58.397475278840993, -34.610682072351061 ], [ -58.397486648270998, -34.610522076313821 ], [ -58.397592751885433, -34.609580712193903 ], [ -58.399105700633555, -34.609697998098625 ], [ -58.400076122723341, -34.609773224171377 ], [ -58.40047361394722, -34.609798289002192 ], [ -58.40050711011434, -34.609288925458578 ], [ -58.400555293935021, -34.608556201188364 ], [ -58.400636739588059, -34.60739601550911 ], [ -58.400717494554932, -34.606245195529162 ], [ -58.400724973797153, -34.606152733252706 ], [ -58.400827796254553, -34.604873542131493 ], [ -58.400838846662701, -34.604674953349672 ], [ -58.400900829163511, -34.603564194131508 ], [ -58.40090015193347, -34.603444825825889 ], [ -58.402220700912707, -34.603422747205549 ], [ -58.402363955522219, -34.603420354007547 ], [ -58.403625649056735, -34.603403160424286 ], [ -58.403774183766934, -34.603401120270654 ], [ -58.405158718202053, -34.603342279942609 ], [ -58.40632103855252, -34.603171558112884 ], [ -58.40626200147404, -34.602945400406306 ], [ -58.405931622420582, -34.601726635706399 ], [ -58.405897896922774, -34.601602251770437 ], [ -58.405634014688772, -34.600793241832157 ], [ -58.404498951195492, -34.600882701497333 ], [ -58.404182834832362, -34.599895350551975 ], [ -58.404138902186773, -34.599757932778815 ], [ -58.403724400784697, -34.598454471462532 ], [ -58.403085686980525, -34.598795430874368 ], [ -58.402539747400816, -34.599086854919406 ], [ -58.402477298066295, -34.599120204606223 ], [ -58.402432052520794, -34.600086464546095 ], [ -58.402380068704375, -34.600948564439548 ], [ -58.402373521909212, -34.601050182432182 ], [ -58.400980211914224, -34.601162015689418 ], [ -58.399925975856839, -34.601119711501276 ], [ -58.399810409050332, -34.601115496431255 ], [ -58.399720653193143, -34.602221381840387 ], [ -58.399597416301098, -34.602221810528533 ], [ -58.398500225369148, -34.602202781796528 ], [ -58.398489159952028, -34.602304326733638 ], [ -58.398373321425211, -34.603303857468212 ], [ -58.398241959664617, -34.604437818233016 ], [ -58.398221919489018, -34.604579570175865 ], [ -58.398200080409346, -34.604734490357835 ], [ -58.397994073388475, -34.60590820003867 ], [ -58.397980532106374, -34.606015870390088 ], [ -58.397964591276832, -34.60614234253908 ], [ -58.397852924067479, -34.607238213763544 ], [ -58.397842624673125, -34.607338561767747 ], [ -58.397739956224818, -34.60825126593047 ], [ -58.397729644111109, -34.60836745919265 ], [ -58.3976118559818, -34.608359297128715 ], [ -58.396382963898866, -34.608269402716395 ], [ -58.396267561114271, -34.608260958968849 ], [ -58.394945673971449, -34.608157688907369 ], [ -58.39486707281511, -34.60938695764704 ], [ -58.394820665866931, -34.610512228665549 ], [ -58.396225223229777, -34.610599559410076 ], [ -58.397270445432, -34.610664567063438 ] ] ] } },
{ "type": "Feature", "properties": { "zona_id": "Z53", "nombre": "La Boca · Caminito y Vuelta de Rocha", "pieza": "la zona entera, como se adopta", "caracter": "borde cerrado", "fuente_del_perimetro": "Caminito entero más las dos cuadras de Av. Don Pedro de Mendoza que toca, 1871-1939. El polo se extiende sobre la avenida lo mínimo necesario para contener La Perla de Caminito, que es el establecimiento sobre el que la zona se apoya.", "de_donde_sale_la_extension": "La Perla de Caminito, Av. Don Pedro de Mendoza 1899", "metodo": "manzanas frentistas del callejero (frente mínimo 20 m)", "ha": 4.15, "n_locales": 37 }, "geometry": { "type": "Polygon", "coordinates": [ [ [ -58.36207961483769, -34.63862138596307 ], [ -58.360815296071891, -34.638116241215229 ], [ -58.360302579197523, -34.638981239287261 ], [ -58.360480760787929, -34.638995450946489 ], [ -58.360701821355732, -34.639038159843665 ], [ -58.360951569890823, -34.639110327336212 ], [ -58.361159251065438, -34.639184914174194 ], [ -58.361285555150225, -34.63925943301647 ], [ -58.361358195361049, -34.639325320945254 ], [ -58.361418722578797, -34.639385474637137 ], [ -58.361515500610039, -34.639535813495485 ], [ -58.361617449014183, -34.639706191028658 ], [ -58.361648512606195, -34.639790647749088 ], [ -58.361676113364609, -34.639875101592096 ], [ -58.361686370181587, -34.639983868632655 ], [ -58.361686201870071, -34.640122678738301 ], [ -58.361669713986139, -34.64021745178119 ], [ -58.362803077606337, -34.640886087888198 ], [ -58.362843077559944, -34.640783796053654 ], [ -58.363246378085591, -34.640058487736582 ], [ -58.363305965797359, -34.639963324539607 ], [ -58.363340113439875, -34.639908774608465 ], [ -58.363678162888782, -34.639305665817467 ], [ -58.363236542068641, -34.639096429254757 ], [ -58.363174468691298, -34.639062504780007 ], [ -58.362234184785954, -34.638683627362518 ], [ -58.36207961483769, -34.63862138596307 ] ] ] } },
{ "type": "Feature", "properties": { "zona_id": "Z33", "nombre": "Mataderos", "pieza": "la zona entera, como se adopta", "caracter": "BORDE TENTATIVO · no es un borde cerrado", "fuente_del_perimetro": "Manzanas frentistas del cruce de Av. Lisandro de la Torre y Av. de los Corrales, el entorno mínimo que cierra una figura sobre el callejero. TENTATIVO: el texto de la ficha da el cruce y ninguna extensión, y el perímetro de ocupación de la Feria es un dato administrativo que el repositorio no tiene.", "de_donde_sale_la_extension": "el cruce de las dos avenidas que nombra el perímetro escrito", "metodo": "manzanas frentistas del callejero (frente mínimo 20 m), radio de 150 m sobre las dos avenidas desde el cruce", "ha": 43.99, "n_locales": 17 }, "geometry": { "type": "Polygon", "coordinates": [ [ [ -58.502852183480464, -34.659957062332346 ], [ -58.502741878496131, -34.659909421742626 ], [ -58.502602083526973, -34.659857635609342 ], [ -58.5025205090733, -34.659829422282527 ], [ -58.502385573832434, -34.659781014637545 ], [ -58.502303317688096, -34.659752730960598 ], [ -58.502142811108932, -34.659696021317814 ], [ -58.502000204915042, -34.65964529173197 ], [ -58.501853251345963, -34.659592309819672 ], [ -58.501678254704196, -34.659530533693342 ], [ -58.501556702681505, -34.659486135022242 ], [ -58.501486804315839, -34.659456790570708 ], [ -58.50142508886546, -34.659430119592052 ], [ -58.501244623597373, -34.659335738732217 ], [ -58.501098508311735, -34.659249727289101 ], [ -58.501051789487406, -34.659215797907912 ], [ -58.500583957914642, -34.658840768774539 ], [ -58.498696213830328, -34.660376757809409 ], [ -58.498662027246276, -34.66038872079961 ], [ -58.498621257493021, -34.660382212760851 ], [ -58.498592315489631, -34.66035722835862 ], [ -58.49792403946384, -34.659819531779306 ], [ -58.497837221482577, -34.659760877688484 ], [ -58.496596579454874, -34.660766118720034 ], [ -58.496488263761876, -34.660854188551511 ], [ -58.495514709227052, -34.661644090166938 ], [ -58.494425488730407, -34.662527969293727 ], [ -58.493203411031537, -34.663519688669837 ], [ -58.493040073205428, -34.663652264498523 ], [ -58.491963487443961, -34.664501047675721 ], [ -58.490998759359201, -34.665261696862046 ], [ -58.49113380817667, -34.665388075154105 ], [ -58.491760385976811, -34.666005750282231 ], [ -58.491934065486411, -34.666184724523035 ], [ -58.492596731631195, -34.666867316655456 ], [ -58.492907959832522, -34.667204006529396 ], [ -58.493457326200911, -34.66779830808823 ], [ -58.49360722666065, -34.667960525135079 ], [ -58.495064954781867, -34.66676021919146 ], [ -58.496085795867252, -34.665919669886677 ], [ -58.497312728719535, -34.664909392976703 ], [ -58.498251053774155, -34.664136659060922 ], [ -58.499192173006819, -34.663361663475385 ], [ -58.499957900013079, -34.664000171219051 ], [ -58.500890642963334, -34.663223695991647 ], [ -58.500975766601421, -34.66315283381001 ], [ -58.501081575429247, -34.66306475308717 ], [ -58.502414295979243, -34.661959890493904 ], [ -58.501654370165014, -34.661333931416358 ], [ -58.503110417922358, -34.66013472575581 ], [ -58.502936066649703, -34.660000767730139 ], [ -58.502852183480464, -34.659957062332346 ] ] ] } },
{ "type": "Feature", "properties": { "zona_id": "Z33", "nombre": "Mataderos", "pieza": "eje comercial Av. Alberdi 5501-6299", "caracter": "lectura medida, NO adoptada como perímetro", "fuente_del_perimetro": "el eje comercial que releva la Ciudad (IDECBA). No es el perímetro del polo: mide otro objeto y se publica aparte.", "de_donde_sale_la_extension": "IDECBA · eje comercial de Mataderos", "metodo": "manzanas frentistas del callejero (frente mínimo 20 m)", "ha": 24.27, "n_locales": 55 }, "geometry": { "type": "Polygon", "coordinates": [ [ [ -58.503382360163506, -34.65390896513356 ], [ -58.503928756546621, -34.654365547845572 ], [ -58.504882684005757, -34.655162625752808 ], [ -58.505616067091069, -34.65577547589961 ], [ -58.506498244019795, -34.65504509152165 ], [ -58.507424066119306, -34.654367361291087 ], [ -58.507568630196886, -34.654264491323929 ], [ -58.506882431840793, -34.653602269389715 ], [ -58.506017707915419, -34.652767851509104 ], [ -58.505953472641572, -34.65280604326712 ], [ -58.505208302909622, -34.652093339052264 ], [ -58.50511178987734, -34.652001047606113 ], [ -58.504285737888772, -34.651236252319094 ], [ -58.503360635680117, -34.650379793118695 ], [ -58.503221671627834, -34.650251105375922 ], [ -58.502493269265301, -34.649578590322378 ], [ -58.501737598375293, -34.64888093840613 ], [ -58.500991829104017, -34.648192433660704 ], [ -58.499794377598455, -34.649107100494383 ], [ -58.49865193137736, -34.649979767371114 ], [ -58.499448645193333, -34.650641580802194 ], [ -58.500246650397749, -34.65130444490557 ], [ -58.501269813766243, -34.652154277348238 ], [ -58.50222351769844, -34.652946446826725 ], [ -58.503199320425672, -34.653756911486965 ], [ -58.503382360163506, -34.65390896513356 ] ] ] } },
{ "type": "Feature", "properties": { "zona_id": "Z44", "nombre": "Villa Ortúzar", "pieza": "la zona entera, como se adopta", "caracter": "borde cerrado", "fuente_del_perimetro": "Av. Álvarez Thomas, tramo 600-1700, las dos aceras. El corredor cruce tres barrios y el reparto se declara.", "de_donde_sale_la_extension": "la primera pieza del perímetro escrito", "metodo": "manzanas frentistas del callejero (frente mínimo 20 m)", "ha": 34.39, "n_locales": 69 }, "geometry": { "type": "MultiPolygon", "coordinates": [ [ [ [ -58.4602255014305, -34.578295384234387 ], [ -58.460102811004525, -34.578295662777776 ], [ -58.459904396278681, -34.577003097344111 ], [ -58.45990040062118, -34.576856192981161 ], [ -58.459792524626906, -34.576909571244194 ], [ -58.45869419648939, -34.577044889472134 ], [ -58.45759322538575, -34.577180549809704 ], [ -58.456755340645401, -34.577283749188183 ], [ -58.456399614975872, -34.577337040483506 ], [ -58.456189057179742, -34.577368578302412 ], [ -58.455290111688797, -34.577581484468887 ], [ -58.454242641382663, -34.578094167559314 ], [ -58.453328756590622, -34.578529668031166 ], [ -58.45252930124775, -34.578914959557117 ], [ -58.451602966040845, -34.579361361647059 ], [ -58.450759812725309, -34.579767694068387 ], [ -58.450556047988059, -34.579866125524923 ], [ -58.45095349206629, -34.580501600864238 ], [ -58.451477865336059, -34.5813399078855 ], [ -58.451713157502603, -34.581703247063182 ], [ -58.451962136401754, -34.581615451913954 ], [ -58.452948848771086, -34.581282575644785 ], [ -58.454274358603577, -34.580835418991938 ], [ -58.454471306333481, -34.580769023703809 ], [ -58.455581461752672, -34.58040162728004 ], [ -58.455760356110133, -34.580342411997435 ], [ -58.456580913731493, -34.580109427375817 ], [ -58.457627443744407, -34.579812221375633 ], [ -58.458902565248607, -34.579745653001048 ], [ -58.4602255014305, -34.578295384234387 ] ] ], [ [ [ -58.466168703746924, -34.578203979045043 ], [ -58.465205474644264, -34.577656945131594 ], [ -58.464717541935265, -34.578571053794803 ], [ -58.463512598872683, -34.577899781387238 ], [ -58.462567014810226, -34.577372938249695 ], [ -58.46160586203861, -34.57683742538633 ], [ -58.460547607312137, -34.577943061229121 ], [ -58.4602255014305, -34.578295384234387 ], [ -58.46052835350357, -34.578294757672396 ], [ -58.460529925693272, -34.579666896477782 ], [ -58.461815599994189, -34.579629171692972 ], [ -58.463250870919559, -34.57958706723705 ], [ -58.464673198542783, -34.579545368592619 ], [ -58.466088032096444, -34.579503794392302 ], [ -58.466023136767326, -34.579020335981689 ], [ -58.466315832934647, -34.578287639071355 ], [ -58.466168703746924, -34.578203979045043 ] ] ] ] } }
]
}
