{"type": "FeatureCollection", "features": [{"type": "Feature", "geometry": {"type": "Point", "coordinates": [-58.447479, -34.570725]}, "properties": {"nombre_original": "Gusmar Hnos S.R.L.", "fuente": "F02", "categoria_pastas": "pastas_frescas", "patron_detectado": "elaboracion_pastas_frescas", "comuna_efectiva": "13", "barrio_efectivo": "Colegiales", "calidad_geo": "cache_usig_exacta", "confianza_categoria": 0.9}}, {"type": "Feature", "geometry": {"type": "Point", "coordinates": [-58.477981, -34.671957]}, "properties": {"nombre_original": "Friends Food S.A.", "fuente": "F02", "categoria_pastas": "pastas_frescas", "patron_detectado": "elaboracion_pastas_frescas", "comuna_efectiva": "8", "barrio_efectivo": "Villa Lugano", "calidad_geo": "cache_usig_exacta", "confianza_categoria": 0.9}}, {"type": "Feature", "geometry": {"type": "Point", "coordinates": [-58.474706, -34.63799]}, "properties": {"nombre_original": "Rodolfo Andres D´Antonio Y Maria Del Carmen Diaz S.H.", "fuente": "F02", "categoria_pastas": "pastas_frescas", "patron_detectado": "elaboracion_pastas_frescas", "comuna_efectiva": "10", "barrio_efectivo": "Floresta", "calidad_geo": "cache_usig_exacta", "confianza_categoria": 0.9}}, {"type": "Feature", "geometry": {"type": "Point", "coordinates": [-58.449554, -34.631104]}, "properties": {"nombre_original": "Alimentos Caseros S.A.", "fuente": "F02", "categoria_pastas": "pastas_frescas", "patron_detectado": "elaboracion_pastas_frescas", "comuna_efectiva": "7", "barrio_efectivo": "Parque Chacabuco", "calidad_geo": "cache_usig_exacta", "confianza_categoria": 0.9}}, {"type": "Feature", "geometry": {"type": "Point", "coordinates": [-58.519945, -34.610781]}, "properties": {"nombre_original": "Manuel  Abraldes  S.R.L.", "fuente": "F02", "categoria_pastas": "pastas_frescas", "patron_detectado": "elaboracion_pastas_frescas", "comuna_efectiva": "11", "barrio_efectivo": "Villa Devoto", "calidad_geo": "cache_usig_exacta", "confianza_categoria": 0.9}}, {"type": "Feature", "geometry": {"type": "Point", "coordinates": [-58.453642, -34.56037]}, "properties": {"nombre_original": "Carlos Alberto Vidal, Josefina Gutierrez Y Manuel Vidal", "fuente": "F02", "categoria_pastas": "pastas_frescas", "patron_detectado": "elaboracion_pastas_frescas", "comuna_efectiva": "13", "barrio_efectivo": "Belgrano", "calidad_geo": "cache_usig_exacta", "confianza_categoria": 0.9}}, {"type": "Feature", "geometry": {"type": "Point", "coordinates": [-58.49012, -34.663018]}, "properties": {"nombre_original": "Friends Food S.A.", "fuente": "F02", "categoria_pastas": "pastas_frescas", "patron_detectado": "elaboracion_pastas_frescas", "comuna_efectiva": "9", "barrio_efectivo": "Mataderos", "calidad_geo": "cache_usig_exacta", "confianza_categoria": 0.9}}, {"type": "Feature", "geometry": {"type": "Point", "coordinates": [-58.368294, -34.64711]}, "properties": {"nombre_original": "Leonardo Pedro Vergara, Sergio Palacios Y Claudio Daniel Abalo Sociedad De Hech", "fuente": "F02", "categoria_pastas": "pastas_frescas", "patron_detectado": "elaboracion_pastas_frescas", "comuna_efectiva": "4", "barrio_efectivo": "Barracas", "calidad_geo": "cache_usig_exacta", "confianza_categoria": 0.9}}, {"type": "Feature", "geometry": {"type": "Point", "coordinates": [-58.392675, -34.588914]}, "properties": {"nombre_original": "Gea 8 S.A.", "fuente": "F02", "categoria_pastas": "pastas_frescas", "patron_detectado": "elaboracion_pastas_frescas", "comuna_efectiva": "2", "barrio_efectivo": "Recoleta", "calidad_geo": "cache_usig_exacta", "confianza_categoria": 0.9}}]}