{"type": "FeatureCollection", "features": [{"type": "Feature", "geometry": {"type": "Point", "coordinates": [-58.4526593, -34.5512452]}, "properties": {"nombre_original": "La Juvenil", "shop": "pasta", "nivel_universo": "A", "categoria_pastas": "casa_pastas_osm"}}, {"type": "Feature", "geometry": {"type": "Point", "coordinates": [-58.4126215, -34.5866712]}, "properties": {"nombre_original": "Pasta", "shop": "pastry", "nivel_universo": "B", "categoria_pastas": "probable_nombre_pastas"}}, {"type": "Feature", "geometry": {"type": "Point", "coordinates": [-58.4692671, -34.5479501]}, "properties": {"nombre_original": "La Juvenil", "shop": "pasta", "nivel_universo": "A", "categoria_pastas": "casa_pastas_osm"}}, {"type": "Feature", "geometry": {"type": "Point", "coordinates": [-58.4622623, -34.556123]}, "properties": {"nombre_original": "La Soberana", "shop": "pasta", "nivel_universo": "A", "categoria_pastas": "casa_pastas_osm"}}, {"type": "Feature", "geometry": {"type": "Point", "coordinates": [-58.4536247, -34.5604198]}, "properties": {"nombre_original": "Bayo", "shop": "pasta", "nivel_universo": "A", "categoria_pastas": "casa_pastas_osm"}}, {"type": "Feature", "geometry": {"type": "Point", "coordinates": [-58.4450386, -34.5706415]}, "properties": {"nombre_original": "La Juvenil", "shop": "pasta", "nivel_universo": "A", "categoria_pastas": "casa_pastas_osm"}}, {"type": "Feature", "geometry": {"type": "Point", "coordinates": [-58.4849617, -34.6320285]}, "properties": {"nombre_original": "Fabrica de Pastas El Aguila", "shop": "food", "nivel_universo": "A", "categoria_pastas": "fabrica_pastas"}}, {"type": "Feature", "geometry": {"type": "Point", "coordinates": [-58.4163217, -34.5979997]}, "properties": {"nombre_original": "San José", "shop": "pasta", "nivel_universo": "A", "categoria_pastas": "casa_pastas_osm"}}, {"type": "Feature", "geometry": {"type": "Point", "coordinates": [-58.4478334, -34.5583046]}, "properties": {"nombre_original": "La Princesa", "shop": "pasta", "nivel_universo": "A", "categoria_pastas": "casa_pastas_osm"}}, {"type": "Feature", "geometry": {"type": "Point", "coordinates": [-58.4115424, -34.5905072]}, "properties": {"nombre_original": "Stella Maris", "shop": "pasta", "nivel_universo": "A", "categoria_pastas": "casa_pastas_osm"}}, {"type": "Feature", "geometry": {"type": "Point", "coordinates": [-58.4952939, -34.6452031]}, "properties": {"nombre_original": "", "shop": "pasta", "nivel_universo": "A", "categoria_pastas": "casa_pastas_osm"}}, {"type": "Feature", "geometry": {"type": "Point", "coordinates": [-58.444643, -34.61271]}, "properties": {"nombre_original": "Il Bruno Pasta & Pizza Napoletana", "shop": "", "nivel_universo": "C", "categoria_pastas": "ambiguo_gastronomico"}}, {"type": "Feature", "geometry": {"type": "Point", "coordinates": [-58.4113152, -34.588375]}, "properties": {"nombre_original": "La Juvenil", "shop": "pasta", "nivel_universo": "A", "categoria_pastas": "casa_pastas_osm"}}, {"type": "Feature", "geometry": {"type": "Point", "coordinates": [-58.4141455, -34.5939727]}, "properties": {"nombre_original": "D'Ippo", "shop": "pasta", "nivel_universo": "A", "categoria_pastas": "casa_pastas_osm"}}, {"type": "Feature", "geometry": {"type": "Point", "coordinates": [-58.3922339, -34.5887651]}, "properties": {"nombre_original": "Pasta Recoleta Bodegon", "shop": "", "nivel_universo": "B", "categoria_pastas": "probable_nombre_pastas"}}, {"type": "Feature", "geometry": {"type": "Point", "coordinates": [-58.4302227, -34.6226057]}, "properties": {"nombre_original": "Pastas Frescas", "shop": "yes", "nivel_universo": "A", "categoria_pastas": "pastas_frescas"}}, {"type": "Feature", "geometry": {"type": "Point", "coordinates": [-58.4257929, -34.6267189]}, "properties": {"nombre_original": "Andrea Doria", "shop": "pasta", "nivel_universo": "A", "categoria_pastas": "casa_pastas_osm"}}, {"type": "Feature", "geometry": {"type": "Point", "coordinates": [-58.4044972, -34.5865018]}, "properties": {"nombre_original": "Raviolón", "shop": "pasta", "nivel_universo": "A", "categoria_pastas": "casa_pastas_osm"}}, {"type": "Feature", "geometry": {"type": "Point", "coordinates": [-58.45439, -34.5644027]}, "properties": {"nombre_original": "La Juvenil", "shop": "pasta", "nivel_universo": "A", "categoria_pastas": "casa_pastas_osm"}}, {"type": "Feature", "geometry": {"type": "Point", "coordinates": [-58.3801326, -34.6166216]}, "properties": {"nombre_original": "La Nieves", "shop": "pasta", "nivel_universo": "A", "categoria_pastas": "casa_pastas_osm"}}, {"type": "Feature", "geometry": {"type": "Point", "coordinates": [-58.4610441, -34.6231056]}, "properties": {"nombre_original": "Fabrica de Pastas", "shop": "health_food", "nivel_universo": "A", "categoria_pastas": "fabrica_pastas"}}, {"type": "Feature", "geometry": {"type": "Point", "coordinates": [-58.4359366, -34.5698366]}, "properties": {"nombre_original": "Jockey Club", "shop": "pasta", "nivel_universo": "A", "categoria_pastas": "casa_pastas_osm"}}, {"type": "Feature", "geometry": {"type": "Point", "coordinates": [-58.4715444, -34.5421288]}, "properties": {"nombre_original": "San Cayetano", "shop": "pasta", "nivel_universo": "A", "categoria_pastas": "casa_pastas_osm"}}, {"type": "Feature", "geometry": {"type": "Point", "coordinates": [-58.4739582, -34.5422298]}, "properties": {"nombre_original": "Carpi", "shop": "pasta", "nivel_universo": "A", "categoria_pastas": "casa_pastas_osm"}}, {"type": "Feature", "geometry": {"type": "Point", "coordinates": [-58.5230058, -34.6275758]}, "properties": {"nombre_original": "Santa Paula", "shop": "pasta", "nivel_universo": "A", "categoria_pastas": "casa_pastas_osm"}}, {"type": "Feature", "geometry": {"type": "Point", "coordinates": [-58.3760477, -34.6331394]}, "properties": {"nombre_original": "Farbica de Pastas", "shop": "pasta", "nivel_universo": "A", "categoria_pastas": "casa_pastas_osm"}}, {"type": "Feature", "geometry": {"type": "Point", "coordinates": [-58.3704208, -34.630856]}, "properties": {"nombre_original": "Fábrica de Pasta", "shop": "food", "nivel_universo": "B", "categoria_pastas": "probable_pastas_produccion_venta"}}, {"type": "Feature", "geometry": {"type": "Point", "coordinates": [-58.3628757, -34.6378195]}, "properties": {"nombre_original": "Pastas Frescas", "shop": "pasta", "nivel_universo": "A", "categoria_pastas": "pastas_frescas"}}, {"type": "Feature", "geometry": {"type": "Point", "coordinates": [-58.5076259, -34.6275174]}, "properties": {"nombre_original": "La Reina de Villa Luro", "shop": "pasta", "nivel_universo": "A", "categoria_pastas": "casa_pastas_osm"}}, {"type": "Feature", "geometry": {"type": "Point", "coordinates": [-58.5079524, -34.5704605]}, "properties": {"nombre_original": "Constituyentes", "shop": "pasta", "nivel_universo": "A", "categoria_pastas": "casa_pastas_osm"}}, {"type": "Feature", "geometry": {"type": "Point", "coordinates": [-58.4387703, -34.564821]}, "properties": {"nombre_original": "Farfalla", "shop": "pasta", "nivel_universo": "A", "categoria_pastas": "casa_pastas_osm"}}, {"type": "Feature", "geometry": {"type": "Point", "coordinates": [-58.4365446, -34.5676988]}, "properties": {"nombre_original": "Milena", "shop": "pasta", "nivel_universo": "A", "categoria_pastas": "casa_pastas_osm"}}, {"type": "Feature", "geometry": {"type": "Point", "coordinates": [-58.4803476, -34.5780493]}, "properties": {"nombre_original": "La Juvenil", "shop": "pasta", "nivel_universo": "A", "categoria_pastas": "casa_pastas_osm"}}, {"type": "Feature", "geometry": {"type": "Point", "coordinates": [-58.4695839, -34.5644795]}, "properties": {"nombre_original": "Sensación", "shop": "pasta", "nivel_universo": "A", "categoria_pastas": "casa_pastas_osm"}}, {"type": "Feature", "geometry": {"type": "Point", "coordinates": [-58.4808003, -34.5737723]}, "properties": {"nombre_original": "Morena", "shop": "pasta", "nivel_universo": "A", "categoria_pastas": "casa_pastas_osm"}}, {"type": "Feature", "geometry": {"type": "Point", "coordinates": [-58.4359863, -34.5806069]}, "properties": {"nombre_original": "Impacto", "shop": "pasta", "nivel_universo": "A", "categoria_pastas": "casa_pastas_osm"}}, {"type": "Feature", "geometry": {"type": "Point", "coordinates": [-58.511794, -34.6060195]}, "properties": {"nombre_original": "Pastas Devoto", "shop": "pasta", "nivel_universo": "A", "categoria_pastas": "casa_pastas_osm"}}, {"type": "Feature", "geometry": {"type": "Point", "coordinates": [-58.4493447, -34.5775458]}, "properties": {"nombre_original": "La Castellana", "shop": "pasta", "nivel_universo": "A", "categoria_pastas": "casa_pastas_osm"}}, {"type": "Feature", "geometry": {"type": "Point", "coordinates": [-58.5105245, -34.6234914]}, "properties": {"nombre_original": "Pastas Frescas Artesanales", "shop": "", "nivel_universo": "A", "categoria_pastas": "pastas_frescas"}}, {"type": "Feature", "geometry": {"type": "Point", "coordinates": [-58.5161927, -34.6284445]}, "properties": {"nombre_original": "La Veronese", "shop": "pasta", "nivel_universo": "A", "categoria_pastas": "casa_pastas_osm"}}, {"type": "Feature", "geometry": {"type": "Point", "coordinates": [-58.4844813, -34.5730954]}, "properties": {"nombre_original": "Romanea", "shop": "pasta", "nivel_universo": "A", "categoria_pastas": "casa_pastas_osm"}}, {"type": "Feature", "geometry": {"type": "Point", "coordinates": [-58.4582773, -34.5721855]}, "properties": {"nombre_original": "La Enqueta", "shop": "pasta", "nivel_universo": "A", "categoria_pastas": "casa_pastas_osm"}}, {"type": "Feature", "geometry": {"type": "Point", "coordinates": [-58.4852255, -34.613266]}, "properties": {"nombre_original": "Fabrica de Pastas", "shop": "pasta", "nivel_universo": "A", "categoria_pastas": "fabrica_pastas"}}, {"type": "Feature", "geometry": {"type": "Point", "coordinates": [-58.4799842, -34.570735]}, "properties": {"nombre_original": "Paccheri", "shop": "pasta", "nivel_universo": "A", "categoria_pastas": "casa_pastas_osm"}}, {"type": "Feature", "geometry": {"type": "Point", "coordinates": [-58.4625207, -34.5667684]}, "properties": {"nombre_original": "Farfalla Pastas Frescas", "shop": "pasta", "nivel_universo": "A", "categoria_pastas": "pastas_frescas"}}, {"type": "Feature", "geometry": {"type": "Point", "coordinates": [-58.4955656, -34.6145023]}, "properties": {"nombre_original": "La Cumbre", "shop": "pasta", "nivel_universo": "A", "categoria_pastas": "casa_pastas_osm"}}, {"type": "Feature", "geometry": {"type": "Point", "coordinates": [-58.4953966, -34.6028296]}, "properties": {"nombre_original": "Sette Bellezze", "shop": "pasta", "nivel_universo": "A", "categoria_pastas": "casa_pastas_osm"}}, {"type": "Feature", "geometry": {"type": "Point", "coordinates": [-58.4088135, -34.5808598]}, "properties": {"nombre_original": "La Juvenil", "shop": "pasta", "nivel_universo": "A", "categoria_pastas": "casa_pastas_osm"}}, {"type": "Feature", "geometry": {"type": "Point", "coordinates": [-58.3859754, -34.6038323]}, "properties": {"nombre_original": "La Pasta Frola", "shop": "pastry", "nivel_universo": "B", "categoria_pastas": "probable_nombre_pastas"}}, {"type": "Feature", "geometry": {"type": "Point", "coordinates": [-58.3726628, -34.6137468]}, "properties": {"nombre_original": "M Pastereria", "shop": "pasta", "nivel_universo": "A", "categoria_pastas": "casa_pastas_osm"}}, {"type": "Feature", "geometry": {"type": "Point", "coordinates": [-58.3723107, -34.6185441]}, "properties": {"nombre_original": "La Hispano Americana - Pastas Artesanales", "shop": "pasta", "nivel_universo": "A", "categoria_pastas": "casa_pastas_osm"}}, {"type": "Feature", "geometry": {"type": "Point", "coordinates": [-58.5250647, -34.6406939]}, "properties": {"nombre_original": "La Confianza", "shop": "pasta", "nivel_universo": "A", "categoria_pastas": "casa_pastas_osm"}}, {"type": "Feature", "geometry": {"type": "Point", "coordinates": [-58.4284194, -34.6145698]}, "properties": {"nombre_original": "Todo Pasta", "shop": "", "nivel_universo": "B", "categoria_pastas": "probable_nombre_pastas"}}, {"type": "Feature", "geometry": {"type": "Point", "coordinates": [-58.4486355, -34.623342]}, "properties": {"nombre_original": "Pastas Savori", "shop": "", "nivel_universo": "B", "categoria_pastas": "probable_nombre_pastas"}}, {"type": "Feature", "geometry": {"type": "Point", "coordinates": [-58.4207983, -34.6086692]}, "properties": {"nombre_original": "Pastas Quintela", "shop": "food", "nivel_universo": "B", "categoria_pastas": "probable_nombre_pastas"}}, {"type": "Feature", "geometry": {"type": "Point", "coordinates": [-58.4384894, -34.6129466]}, "properties": {"nombre_original": "La Porteñita", "shop": "pasta", "nivel_universo": "A", "categoria_pastas": "casa_pastas_osm"}}, {"type": "Feature", "geometry": {"type": "Point", "coordinates": [-58.4354476, -34.6200975]}, "properties": {"nombre_original": "La Juvenil", "shop": "pasta", "nivel_universo": "A", "categoria_pastas": "casa_pastas_osm"}}, {"type": "Feature", "geometry": {"type": "Point", "coordinates": [-58.4349109, -34.6215782]}, "properties": {"nombre_original": "Santa María", "shop": "pasta", "nivel_universo": "A", "categoria_pastas": "casa_pastas_osm"}}, {"type": "Feature", "geometry": {"type": "Point", "coordinates": [-58.4666023, -34.6458312]}, "properties": {"nombre_original": "Fabrica de Pastas Frescas", "shop": "yes", "nivel_universo": "A", "categoria_pastas": "fabrica_pastas"}}, {"type": "Feature", "geometry": {"type": "Point", "coordinates": [-58.3726186, -34.6196356]}, "properties": {"nombre_original": "La Leonesa", "shop": "pasta", "nivel_universo": "A", "categoria_pastas": "casa_pastas_osm"}}, {"type": "Feature", "geometry": {"type": "Point", "coordinates": [-58.412688, -34.6152826]}, "properties": {"nombre_original": "Pastas Artesanales", "shop": "bakery", "nivel_universo": "B", "categoria_pastas": "probable_pastas_produccion_venta"}}, {"type": "Feature", "geometry": {"type": "Point", "coordinates": [-58.4280666, -34.6198184]}, "properties": {"nombre_original": "La Magistral", "shop": "pasta", "nivel_universo": "A", "categoria_pastas": "casa_pastas_osm"}}, {"type": "Feature", "geometry": {"type": "Point", "coordinates": [-58.4861196, -34.6397608]}, "properties": {"nombre_original": "Mar & Sol", "shop": "pasta", "nivel_universo": "A", "categoria_pastas": "casa_pastas_osm"}}, {"type": "Feature", "geometry": {"type": "Point", "coordinates": [-58.4617748, -34.631396]}, "properties": {"nombre_original": "La Juvenil", "shop": "pasta", "nivel_universo": "A", "categoria_pastas": "casa_pastas_osm"}}, {"type": "Feature", "geometry": {"type": "Point", "coordinates": [-58.3833303, -34.6130804]}, "properties": {"nombre_original": "Belgrano", "shop": "pasta", "nivel_universo": "A", "categoria_pastas": "casa_pastas_osm"}}, {"type": "Feature", "geometry": {"type": "Point", "coordinates": [-58.4797203, -34.5784692]}, "properties": {"nombre_original": "Cacique Catriel", "shop": "pasta", "nivel_universo": "A", "categoria_pastas": "casa_pastas_osm"}}, {"type": "Feature", "geometry": {"type": "Point", "coordinates": [-58.4040477, -34.600009]}, "properties": {"nombre_original": "Master", "shop": "pasta", "nivel_universo": "A", "categoria_pastas": "casa_pastas_osm"}}, {"type": "Feature", "geometry": {"type": "Point", "coordinates": [-58.521094, -34.6399666]}, "properties": {"nombre_original": "Stella Maris", "shop": "pasta", "nivel_universo": "A", "categoria_pastas": "casa_pastas_osm"}}, {"type": "Feature", "geometry": {"type": "Point", "coordinates": [-58.4527754, -34.563077]}, "properties": {"nombre_original": "Ieri", "shop": "pasta", "nivel_universo": "A", "categoria_pastas": "casa_pastas_osm"}}, {"type": "Feature", "geometry": {"type": "Point", "coordinates": [-58.4643534, -34.5705911]}, "properties": {"nombre_original": "La Juvenil", "shop": "pasta", "nivel_universo": "A", "categoria_pastas": "casa_pastas_osm"}}, {"type": "Feature", "geometry": {"type": "Point", "coordinates": [-58.4376359, -34.5769855]}, "properties": {"nombre_original": "La Pilar", "shop": "pasta", "nivel_universo": "A", "categoria_pastas": "casa_pastas_osm"}}, {"type": "Feature", "geometry": {"type": "Point", "coordinates": [-58.4304854, -34.5771045]}, "properties": {"nombre_original": "Lourdes", "shop": "pasta", "nivel_universo": "A", "categoria_pastas": "casa_pastas_osm"}}, {"type": "Feature", "geometry": {"type": "Point", "coordinates": [-58.3760771, -34.615415]}, "properties": {"nombre_original": "La Pastalinda de Don Chiquillo", "shop": "confectionery", "nivel_universo": "C", "categoria_pastas": "sin_senial_pastas"}}, {"type": "Feature", "geometry": {"type": "Point", "coordinates": [-58.4708053, -34.5694486]}, "properties": {"nombre_original": "La Leonesa", "shop": "pasta", "nivel_universo": "A", "categoria_pastas": "casa_pastas_osm"}}, {"type": "Feature", "geometry": {"type": "Point", "coordinates": [-58.4372757, -34.600541]}, "properties": {"nombre_original": "La Juvenil", "shop": "pasta", "nivel_universo": "A", "categoria_pastas": "casa_pastas_osm"}}, {"type": "Feature", "geometry": {"type": "Point", "coordinates": [-58.4547483, -34.626064]}, "properties": {"nombre_original": "La Juvenil", "shop": "pasta", "nivel_universo": "A", "categoria_pastas": "casa_pastas_osm"}}, {"type": "Feature", "geometry": {"type": "Point", "coordinates": [-58.4000708, -34.5900217]}, "properties": {"nombre_original": "La Juvenil", "shop": "pasta", "nivel_universo": "A", "categoria_pastas": "casa_pastas_osm"}}, {"type": "Feature", "geometry": {"type": "Point", "coordinates": [-58.4240457, -34.5771614]}, "properties": {"nombre_original": "La Juvenil", "shop": "pasta", "nivel_universo": "A", "categoria_pastas": "casa_pastas_osm"}}, {"type": "Feature", "geometry": {"type": "Point", "coordinates": [-58.4932172, -34.6038316]}, "properties": {"nombre_original": "La Juvenil", "shop": "pasta", "nivel_universo": "A", "categoria_pastas": "casa_pastas_osm"}}, {"type": "Feature", "geometry": {"type": "Point", "coordinates": [-58.4961703, -34.6003632]}, "properties": {"nombre_original": "La Juvenil", "shop": "pasta", "nivel_universo": "A", "categoria_pastas": "casa_pastas_osm"}}, {"type": "Feature", "geometry": {"type": "Point", "coordinates": [-58.4466897, -34.6099376]}, "properties": {"nombre_original": "La Confianza", "shop": "pasta", "nivel_universo": "A", "categoria_pastas": "casa_pastas_osm"}}, {"type": "Feature", "geometry": {"type": "Point", "coordinates": [-58.5261827, -34.6406964]}, "properties": {"nombre_original": "Salsamendi", "shop": "pasta", "nivel_universo": "A", "categoria_pastas": "casa_pastas_osm"}}, {"type": "Feature", "geometry": {"type": "Point", "coordinates": [-58.4414329, -34.5714873]}, "properties": {"nombre_original": "Quique", "shop": "pasta", "nivel_universo": "A", "categoria_pastas": "casa_pastas_osm"}}, {"type": "Feature", "geometry": {"type": "Point", "coordinates": [-58.4583974, -34.6042077]}, "properties": {"nombre_original": "Caprizzi", "shop": "pasta", "nivel_universo": "A", "categoria_pastas": "casa_pastas_osm"}}, {"type": "Feature", "geometry": {"type": "Point", "coordinates": [-58.4548373, -34.5672629]}, "properties": {"nombre_original": "La Nueva Belgrano", "shop": "pasta", "nivel_universo": "A", "categoria_pastas": "casa_pastas_osm"}}, {"type": "Feature", "geometry": {"type": "Point", "coordinates": [-58.4294758, -34.5940898]}, "properties": {"nombre_original": "Fideo Fresh", "shop": "pasta", "nivel_universo": "A", "categoria_pastas": "casa_pastas_osm"}}, {"type": "Feature", "geometry": {"type": "Point", "coordinates": [-58.4568744, -34.5582492]}, "properties": {"nombre_original": "Viva la Pasta", "shop": "pasta", "nivel_universo": "A", "categoria_pastas": "casa_pastas_osm"}}, {"type": "Feature", "geometry": {"type": "Point", "coordinates": [-58.4455209, -34.5574972]}, "properties": {"nombre_original": "La Reina de Junin", "shop": "pasta", "nivel_universo": "A", "categoria_pastas": "casa_pastas_osm"}}, {"type": "Feature", "geometry": {"type": "Point", "coordinates": [-58.4479204, -34.6158176]}, "properties": {"nombre_original": "La Victoria", "shop": "pasta", "nivel_universo": "A", "categoria_pastas": "casa_pastas_osm"}}, {"type": "Feature", "geometry": {"type": "Point", "coordinates": [-58.4427443, -34.5625187]}, "properties": {"nombre_original": "Rochino", "shop": "pasta", "nivel_universo": "A", "categoria_pastas": "casa_pastas_osm"}}, {"type": "Feature", "geometry": {"type": "Point", "coordinates": [-58.4600235, -34.5742949]}, "properties": {"nombre_original": "Ricapasta", "shop": "pasta", "nivel_universo": "A", "categoria_pastas": "casa_pastas_osm"}}, {"type": "Feature", "geometry": {"type": "Point", "coordinates": [-58.5266231, -34.6149526]}, "properties": {"nombre_original": "La Praderita", "shop": "pasta", "nivel_universo": "A", "categoria_pastas": "casa_pastas_osm"}}, {"type": "Feature", "geometry": {"type": "Point", "coordinates": [-58.4561276, -34.5544872]}, "properties": {"nombre_original": "Dante", "shop": "pasta", "nivel_universo": "A", "categoria_pastas": "casa_pastas_osm"}}, {"type": "Feature", "geometry": {"type": "Point", "coordinates": [-58.4214228, -34.6100002]}, "properties": {"nombre_original": "Florencia", "shop": "pasta", "nivel_universo": "A", "categoria_pastas": "casa_pastas_osm"}}, {"type": "Feature", "geometry": {"type": "Point", "coordinates": [-58.4367637, -34.5659295]}, "properties": {"nombre_original": "La Juvenil", "shop": "pasta", "nivel_universo": "A", "categoria_pastas": "casa_pastas_osm"}}, {"type": "Feature", "geometry": {"type": "Point", "coordinates": [-58.479404, -34.5569155]}, "properties": {"nombre_original": "La Reina de Saavedra", "shop": "pasta", "nivel_universo": "A", "categoria_pastas": "casa_pastas_osm"}}, {"type": "Feature", "geometry": {"type": "Point", "coordinates": [-58.4331024, -34.6015771]}, "properties": {"nombre_original": "Multipasta", "shop": "pasta", "nivel_universo": "A", "categoria_pastas": "casa_pastas_osm"}}, {"type": "Feature", "geometry": {"type": "Point", "coordinates": [-58.4437741, -34.5690414]}, "properties": {"nombre_original": "Farfalla", "shop": "pasta", "nivel_universo": "A", "categoria_pastas": "casa_pastas_osm"}}, {"type": "Feature", "geometry": {"type": "Point", "coordinates": [-58.4753182, -34.5796571]}, "properties": {"nombre_original": "La Nueva Alfa", "shop": "pasta", "nivel_universo": "A", "categoria_pastas": "casa_pastas_osm"}}, {"type": "Feature", "geometry": {"type": "Point", "coordinates": [-58.4596657, -34.554155]}, "properties": {"nombre_original": "L'Artisan", "shop": "pasta", "nivel_universo": "A", "categoria_pastas": "casa_pastas_osm"}}, {"type": "Feature", "geometry": {"type": "Point", "coordinates": [-58.5085279, -34.6400621]}, "properties": {"nombre_original": "La Juvenil", "shop": "pasta", "nivel_universo": "A", "categoria_pastas": "casa_pastas_osm"}}, {"type": "Feature", "geometry": {"type": "Point", "coordinates": [-58.4523232, -34.5823161]}, "properties": {"nombre_original": "Lacroze", "shop": "pasta", "nivel_universo": "A", "categoria_pastas": "casa_pastas_osm"}}, {"type": "Feature", "geometry": {"type": "Point", "coordinates": [-58.3938965, -34.5890404]}, "properties": {"nombre_original": "Quotidiano - Bar de Pasta", "shop": "", "nivel_universo": "C", "categoria_pastas": "ambiguo_gastronomico"}}, {"type": "Feature", "geometry": {"type": "Point", "coordinates": [-58.414323, -34.5807387]}, "properties": {"nombre_original": "Salvatore", "shop": "pasta", "nivel_universo": "A", "categoria_pastas": "casa_pastas_osm"}}, {"type": "Feature", "geometry": {"type": "Point", "coordinates": [-58.4128801, -34.5895914]}, "properties": {"nombre_original": "Multipasta", "shop": "pasta", "nivel_universo": "A", "categoria_pastas": "casa_pastas_osm"}}, {"type": "Feature", "geometry": {"type": "Point", "coordinates": [-58.4137105, -34.5927629]}, "properties": {"nombre_original": "Del Pratello", "shop": "pasta", "nivel_universo": "A", "categoria_pastas": "casa_pastas_osm"}}, {"type": "Feature", "geometry": {"type": "Point", "coordinates": [-58.3892188, -34.6054964]}, "properties": {"nombre_original": "Nueva Familia", "shop": "pasta", "nivel_universo": "A", "categoria_pastas": "casa_pastas_osm"}}, {"type": "Feature", "geometry": {"type": "Point", "coordinates": [-58.4098601, -34.588122]}, "properties": {"nombre_original": "Quotidiano Bar De Pastas", "shop": "", "nivel_universo": "C", "categoria_pastas": "ambiguo_gastronomico"}}, {"type": "Feature", "geometry": {"type": "Point", "coordinates": [-58.423272, -34.5964052]}, "properties": {"nombre_original": "La Alacena Pastificio", "shop": "bakery", "nivel_universo": "A", "categoria_pastas": "pastificio"}}, {"type": "Feature", "geometry": {"type": "Point", "coordinates": [-58.4074417, -34.6242695]}, "properties": {"nombre_original": "Fábrica de Pastas Santa Elena", "shop": "pasta", "nivel_universo": "A", "categoria_pastas": "fabrica_pastas"}}, {"type": "Feature", "geometry": {"type": "Point", "coordinates": [-58.4166306, -34.6222872]}, "properties": {"nombre_original": "Monti Bar de Pastas - Boedo", "shop": "", "nivel_universo": "C", "categoria_pastas": "ambiguo_gastronomico"}}, {"type": "Feature", "geometry": {"type": "Point", "coordinates": [-58.4542212, -34.6234037]}, "properties": {"nombre_original": "Pastificio", "shop": "pasta", "nivel_universo": "A", "categoria_pastas": "pastificio"}}, {"type": "Feature", "geometry": {"type": "Point", "coordinates": [-58.4615667, -34.5629862]}, "properties": {"nombre_original": "Pasta", "shop": "", "nivel_universo": "B", "categoria_pastas": "probable_nombre_pastas"}}, {"type": "Feature", "geometry": {"type": "Point", "coordinates": [-58.3763432, -34.6000104]}, "properties": {"nombre_original": "Otra Pasta", "shop": "", "nivel_universo": "B", "categoria_pastas": "probable_nombre_pastas"}}, {"type": "Feature", "geometry": {"type": "Point", "coordinates": [-58.4388201, -34.5729524]}, "properties": {"nombre_original": "La Duquesa", "shop": "pasta", "nivel_universo": "A", "categoria_pastas": "casa_pastas_osm"}}, {"type": "Feature", "geometry": {"type": "Point", "coordinates": [-58.4042417, -34.5911763]}, "properties": {"nombre_original": "Pastas Frescas Dani", "shop": "pasta", "nivel_universo": "A", "categoria_pastas": "pastas_frescas"}}, {"type": "Feature", "geometry": {"type": "Point", "coordinates": [-58.4765649, -34.5827565]}, "properties": {"nombre_original": "Allora", "shop": "pasta", "nivel_universo": "A", "categoria_pastas": "casa_pastas_osm"}}, {"type": "Feature", "geometry": {"type": "Point", "coordinates": [-58.3991019, -34.5870023]}, "properties": {"nombre_original": "Rochino", "shop": "pasta", "nivel_universo": "A", "categoria_pastas": "casa_pastas_osm"}}, {"type": "Feature", "geometry": {"type": "Point", "coordinates": [-58.4816635, -34.6336211]}, "properties": {"nombre_original": "El Cóndor", "shop": "pasta", "nivel_universo": "A", "categoria_pastas": "casa_pastas_osm"}}, {"type": "Feature", "geometry": {"type": "Point", "coordinates": [-58.4007164, -34.5873226]}, "properties": {"nombre_original": "La Nueva Estrella", "shop": "pasta", "nivel_universo": "A", "categoria_pastas": "casa_pastas_osm"}}, {"type": "Feature", "geometry": {"type": "Point", "coordinates": [-58.405052, -34.58593]}, "properties": {"nombre_original": "Salzamendi", "shop": "pasta", "nivel_universo": "A", "categoria_pastas": "casa_pastas_osm"}}, {"type": "Feature", "geometry": {"type": "Point", "coordinates": [-58.4691447, -34.61805]}, "properties": {"nombre_original": "Raviolandia", "shop": "pasta", "nivel_universo": "A", "categoria_pastas": "casa_pastas_osm"}}, {"type": "Feature", "geometry": {"type": "Point", "coordinates": [-58.4634167, -34.5464059]}, "properties": {"nombre_original": "La Moderna", "shop": "pasta", "nivel_universo": "A", "categoria_pastas": "casa_pastas_osm"}}, {"type": "Feature", "geometry": {"type": "Point", "coordinates": [-58.4046391, -34.5959414]}, "properties": {"nombre_original": "Piatto Rosso", "shop": "pasta", "nivel_universo": "A", "categoria_pastas": "casa_pastas_osm"}}, {"type": "Feature", "geometry": {"type": "Point", "coordinates": [-58.4752482, -34.582192]}, "properties": {"nombre_original": "", "shop": "pasta", "nivel_universo": "A", "categoria_pastas": "casa_pastas_osm"}}, {"type": "Feature", "geometry": {"type": "Point", "coordinates": [-58.3983134, -34.5912622]}, "properties": {"nombre_original": "Caprizzi", "shop": "pasta", "nivel_universo": "A", "categoria_pastas": "casa_pastas_osm"}}, {"type": "Feature", "geometry": {"type": "Point", "coordinates": [-58.4561498, -34.5642465]}, "properties": {"nombre_original": "Biasatti", "shop": "pasta", "nivel_universo": "A", "categoria_pastas": "casa_pastas_osm"}}, {"type": "Feature", "geometry": {"type": "Point", "coordinates": [-58.4064296, -34.5817708]}, "properties": {"nombre_original": "Hoy Pasta", "shop": "pasta", "nivel_universo": "A", "categoria_pastas": "casa_pastas_osm"}}, {"type": "Feature", "geometry": {"type": "Point", "coordinates": [-58.4593812, -34.5726611]}, "properties": {"nombre_original": "L'Artisan", "shop": "pasta", "nivel_universo": "A", "categoria_pastas": "casa_pastas_osm"}}, {"type": "Feature", "geometry": {"type": "Point", "coordinates": [-58.4751547, -34.6190252]}, "properties": {"nombre_original": "La Juventud Argentina", "shop": "pasta", "nivel_universo": "A", "categoria_pastas": "casa_pastas_osm"}}, {"type": "Feature", "geometry": {"type": "Point", "coordinates": [-58.431857, -34.6088759]}, "properties": {"nombre_original": "La Maldita", "shop": "pasta", "nivel_universo": "A", "categoria_pastas": "casa_pastas_osm"}}, {"type": "Feature", "geometry": {"type": "Point", "coordinates": [-58.3925682, -34.5948152]}, "properties": {"nombre_original": "La Juvenil", "shop": "pasta", "nivel_universo": "A", "categoria_pastas": "casa_pastas_osm"}}, {"type": "Feature", "geometry": {"type": "Point", "coordinates": [-58.520938, -34.6234837]}, "properties": {"nombre_original": "Raviolandia", "shop": "pasta", "nivel_universo": "A", "categoria_pastas": "casa_pastas_osm"}}, {"type": "Feature", "geometry": {"type": "Point", "coordinates": [-58.464547, -34.6159451]}, "properties": {"nombre_original": "Dippo", "shop": "pasta", "nivel_universo": "A", "categoria_pastas": "casa_pastas_osm"}}, {"type": "Feature", "geometry": {"type": "Point", "coordinates": [-58.3731026, -34.6149446]}, "properties": {"nombre_original": "Natale", "shop": "pasta", "nivel_universo": "A", "categoria_pastas": "casa_pastas_osm"}}, {"type": "Feature", "geometry": {"type": "Point", "coordinates": [-58.4341546, -34.6155815]}, "properties": {"nombre_original": "Jardín de Infantes Común 02/07° Prof. Marina Margarita Ravioli", "shop": "", "nivel_universo": "B", "categoria_pastas": "probable_nombre_pastas"}}, {"type": "Feature", "geometry": {"type": "Point", "coordinates": [-58.4873321, -34.5514673]}, "properties": {"nombre_original": "La Esmeralda", "shop": "pasta", "nivel_universo": "A", "categoria_pastas": "casa_pastas_osm"}}, {"type": "Feature", "geometry": {"type": "Point", "coordinates": [-58.357609, -34.6369598]}, "properties": {"nombre_original": "Pastas Natale", "shop": "pasta", "nivel_universo": "A", "categoria_pastas": "casa_pastas_osm"}}, {"type": "Feature", "geometry": {"type": "Point", "coordinates": [-58.4368042, -34.6350513]}, "properties": {"nombre_original": "5 Estrellas", "shop": "pasta", "nivel_universo": "A", "categoria_pastas": "casa_pastas_osm"}}, {"type": "Feature", "geometry": {"type": "Point", "coordinates": [-58.4899669, -34.5552212]}, "properties": {"nombre_original": "Amanda", "shop": "pasta", "nivel_universo": "A", "categoria_pastas": "casa_pastas_osm"}}, {"type": "Feature", "geometry": {"type": "Point", "coordinates": [-58.5195982, -34.6184194]}, "properties": {"nombre_original": "Don Leon", "shop": "pasta", "nivel_universo": "A", "categoria_pastas": "casa_pastas_osm"}}, {"type": "Feature", "geometry": {"type": "Point", "coordinates": [-58.5119858, -34.600502]}, "properties": {"nombre_original": "Milena", "shop": "pasta", "nivel_universo": "A", "categoria_pastas": "casa_pastas_osm"}}, {"type": "Feature", "geometry": {"type": "Point", "coordinates": [-58.5078737, -34.6125284]}, "properties": {"nombre_original": "Ananda Pastas", "shop": "pasta", "nivel_universo": "A", "categoria_pastas": "casa_pastas_osm"}}, {"type": "Feature", "geometry": {"type": "Point", "coordinates": [-58.5097241, -34.5910875]}, "properties": {"nombre_original": "Casa America", "shop": "pasta", "nivel_universo": "A", "categoria_pastas": "casa_pastas_osm"}}, {"type": "Feature", "geometry": {"type": "Point", "coordinates": [-58.4853599, -34.60923]}, "properties": {"nombre_original": "La Candela Pastas Frescas", "shop": "pasta", "nivel_universo": "A", "categoria_pastas": "pastas_frescas"}}, {"type": "Feature", "geometry": {"type": "Point", "coordinates": [-58.4771318, -34.6073071]}, "properties": {"nombre_original": "La Estrella", "shop": "pasta", "nivel_universo": "A", "categoria_pastas": "casa_pastas_osm"}}, {"type": "Feature", "geometry": {"type": "Point", "coordinates": [-58.5127174, -34.6395371]}, "properties": {"nombre_original": "Fábrica de Pastas Frescas \"La Nueva Autora\"", "shop": "pasta", "nivel_universo": "A", "categoria_pastas": "fabrica_pastas"}}, {"type": "Feature", "geometry": {"type": "Point", "coordinates": [-58.5020496, -34.6316254]}, "properties": {"nombre_original": "Pastas Al Paso y Algo Más", "shop": "", "nivel_universo": "B", "categoria_pastas": "probable_nombre_pastas"}}, {"type": "Feature", "geometry": {"type": "Point", "coordinates": [-58.502011, -34.6458761]}, "properties": {"nombre_original": "La Genovesa", "shop": "pasta", "nivel_universo": "A", "categoria_pastas": "casa_pastas_osm"}}, {"type": "Feature", "geometry": {"type": "Point", "coordinates": [-58.4159157, -34.6106883]}, "properties": {"nombre_original": "Caprizzi", "shop": "pasta", "nivel_universo": "A", "categoria_pastas": "casa_pastas_osm"}}, {"type": "Feature", "geometry": {"type": "Point", "coordinates": [-58.4411414, -34.6085252]}, "properties": {"nombre_original": "La Matildita", "shop": "pasta", "nivel_universo": "A", "categoria_pastas": "casa_pastas_osm"}}, {"type": "Feature", "geometry": {"type": "Point", "coordinates": [-58.4344596, -34.6282657]}, "properties": {"nombre_original": "Pastas Artesanales Casa Vázquez", "shop": "", "nivel_universo": "B", "categoria_pastas": "probable_pastas_produccion_venta"}}, {"type": "Feature", "geometry": {"type": "Point", "coordinates": [-58.4920523, -34.6514242]}, "properties": {"nombre_original": "Fábrica de Pasta", "shop": "yes", "nivel_universo": "B", "categoria_pastas": "probable_pastas_produccion_venta"}}, {"type": "Feature", "geometry": {"type": "Point", "coordinates": [-58.43754, -34.6146822]}, "properties": {"nombre_original": "Multipasta", "shop": "pasta", "nivel_universo": "A", "categoria_pastas": "casa_pastas_osm"}}, {"type": "Feature", "geometry": {"type": "Point", "coordinates": [-58.4216871, -34.597933]}, "properties": {"nombre_original": "Parrilla & Pastas Libre", "shop": "", "nivel_universo": "C", "categoria_pastas": "ambiguo_gastronomico"}}, {"type": "Feature", "geometry": {"type": "Point", "coordinates": [-58.4278647, -34.6249911]}, "properties": {"nombre_original": "Santa Teresita", "shop": "pasta", "nivel_universo": "A", "categoria_pastas": "casa_pastas_osm"}}, {"type": "Feature", "geometry": {"type": "Point", "coordinates": [-58.4007931, -34.5936088]}, "properties": {"nombre_original": "Mas Pastas", "shop": "", "nivel_universo": "B", "categoria_pastas": "probable_nombre_pastas"}}, {"type": "Feature", "geometry": {"type": "Point", "coordinates": [-58.4425309, -34.596676]}, "properties": {"nombre_original": "El Sembrador", "shop": "pasta", "nivel_universo": "A", "categoria_pastas": "casa_pastas_osm"}}, {"type": "Feature", "geometry": {"type": "Point", "coordinates": [-58.4422767, -34.6645314]}, "properties": {"nombre_original": "La Fiorentina", "shop": "pasta", "nivel_universo": "A", "categoria_pastas": "casa_pastas_osm"}}]}