{
"type": "FeatureCollection",
"name": "patrimonio_normativo",
"crs": { "type": "name", "properties": { "name": "urn:ogc:def:crs:OGC:1.3:CRS84" } },
"features": [
{ "type": "Feature", "properties": { "nombre": "Esquina Homero Manzi", "direccion": "Av. San Juan 3601", "barrio": "Boedo", "comuna": 5, "declaratoria": "Sitio Historico Nacional", "norma": "-", "anio": "-", "organismo": "Nacion", "url_fuente": "https://turismo.buenosaires.gob.ar/es/gastronomico/esquina-homero-manzi", "nota": "HOY SOLO FIGURA COMO BAR NOTABLE EN LA CAPA", "latitud": -34.625385, "longitud": -58.416337, "clave_nombre": "ESQUINA HOMERO MANZI", "clave_dom": "JUAN SAN|3601", "calle_tokens": "frozenset({'SAN', 'JUAN'})" }, "geometry": { "type": "Point", "coordinates": [ -58.416337, -34.625385 ] } },
{ "type": "Feature", "properties": { "nombre": "Pena Los Amigos / Bar El Chino", "direccion": "Beazley 3566", "barrio": "Nueva Pompeya", "comuna": 4, "declaratoria": "Sitio de Interes Cultural", "norma": "norma 421/99", "anio": "1999", "organismo": "CPPHC-GCBA", "url_fuente": "https://buenosaires.gob.ar/areas/cultura/cpphc/sitios/detalle.php?id=41", "nota": "1944. VIGENCIA DUDOSA: sin cobertura posterior a 2017", "latitud": -34.65314, "longitud": -58.409913, "clave_nombre": "AMIGOS CHINO PENA", "clave_dom": "BEAZLEY|3566", "calle_tokens": "frozenset({'BEAZLEY'})" }, "geometry": { "type": "Point", "coordinates": [ -58.409913, -34.65314 ] } },
{ "type": "Feature", "properties": { "nombre": "Pizzeria Banchero", "direccion": "Suarez 396", "barrio": "La Boca", "comuna": 4, "declaratoria": "Sitio de Interes Cultural", "norma": "Norma 143/02", "anio": "2002", "organismo": "CPPHC-GCBA", "url_fuente": "https://buenosaires.gob.ar/areas/cultura/cpphc/sitios/detalle.php?id=74", "nota": "1932", "latitud": -34.635258, "longitud": -58.358632, "clave_nombre": "BANCHERO", "clave_dom": "SUAREZ|396", "calle_tokens": "frozenset({'SUAREZ'})" }, "geometry": { "type": "Point", "coordinates": [ -58.358632, -34.635258 ] } },
{ "type": "Feature", "properties": { "nombre": "Bar Oviedo", "direccion": "Av. Lisandro de la Torre 2407", "barrio": "Mataderos", "comuna": 9, "declaratoria": "Sitio de Interes Cultural + APH 21 proteccion Estructural", "norma": "-", "anio": "2004", "organismo": "CPPHC-GCBA", "url_fuente": "https://buenosaires.gob.ar/areas/cultura/cpphc/sitios/detalle.php?id=102", "nota": "1898/1900. VIGENCIA DUDOSA: no participo de la Noche de los Bares Notables 2025", "latitud": -34.662711, "longitud": -58.500062, "clave_nombre": "OVIEDO", "clave_dom": "DE LA LISANDRO TORRE|2407", "calle_tokens": "frozenset({'LA', 'DE', 'LISANDRO', 'TORRE'})" }, "geometry": { "type": "Point", "coordinates": [ -58.500062, -34.662711 ] } },
{ "type": "Feature", "properties": { "nombre": "Bar Catedral Tango", "direccion": "Timoteo Gordillo 2498", "barrio": "Mataderos", "comuna": 9, "declaratoria": "Sitio de Interes Cultural", "norma": "-", "anio": "2015-10-21", "organismo": "GCBA", "url_fuente": "https://buenosaires.gob.ar/noticias/reconocimiento-uno-de-los-lugares-mas-emblematicos-de-mataderos", "nota": "almacen de abril de 1914", "latitud": -34.662959, "longitud": -58.501138, "clave_nombre": "CATEDRAL TANGO", "clave_dom": "GORDILLO TIMOTEO|2498", "calle_tokens": "frozenset({'TIMOTEO', 'GORDILLO'})" }, "geometry": { "type": "Point", "coordinates": [ -58.501138, -34.662959 ] } },
{ "type": "Feature", "properties": { "nombre": "Pizzeria El Cedron", "direccion": "Av. Juan B. Alberdi 6101", "barrio": "Mataderos", "comuna": 9, "declaratoria": "Sitio de Interes Cultural", "norma": "-", "anio": "2013-06", "organismo": "Legislatura CABA", "url_fuente": "https://turismo.buenosaires.gob.ar/es/otros-establecimientos/el-cedron", "nota": "placa 03/06/2013", "latitud": -34.65369, "longitud": -58.504823, "clave_nombre": "CEDRON", "clave_dom": "ALBERDI B JUAN|6101", "calle_tokens": "frozenset({'ALBERDI', 'JUAN', 'B'})" }, "geometry": { "type": "Point", "coordinates": [ -58.504823, -34.65369 ] } },
{ "type": "Feature", "properties": { "nombre": "El Puentecito", "direccion": "Vieytes 1895", "barrio": "Barracas", "comuna": 4, "declaratoria": "Declarado de Interes Cultural", "norma": "-", "anio": "2018", "organismo": "Legislatura CABA", "url_fuente": "https://turismo.buenosaires.gob.ar/es/gastronomico/el-puentecito", "nota": "origen 1750 como pulperia y posta", "latitud": -34.655471, "longitud": -58.37473, "clave_nombre": "PUENTECITO", "clave_dom": "VIEYTES|1895", "calle_tokens": "frozenset({'VIEYTES'})" }, "geometry": { "type": "Point", "coordinates": [ -58.37473, -34.655471 ] } },
{ "type": "Feature", "properties": { "nombre": "Edificios Administrativos del Antiguo Matadero", "direccion": "Av. Lisandro de la Torre y Av. de los Corrales", "barrio": "Mataderos", "comuna": 9, "declaratoria": "Monumento Historico Nacional + APH 21", "norma": "Decreto 1021/1979", "anio": "1979", "organismo": "Nacion", "url_fuente": "https://aquimataderosonline.com.ar/patrimonio-historico-arquitectonico-del-barrio-de-mataderos/", "nota": "FALTA confirmar el decreto contra el registro nacional", "latitud": -34.662558, "longitud": -58.500164, "clave_nombre": "ADMINISTRATIVOS ANTIGUO EDIFICIOS MATADERO", "clave_dom": "", "calle_tokens": "frozenset()" }, "geometry": { "type": "Point", "coordinates": [ -58.500164, -34.662558 ] } },
{ "type": "Feature", "properties": { "nombre": "Mercado de San Telmo", "direccion": "Bolivar 954", "barrio": "San Telmo", "comuna": 1, "declaratoria": "Monumento Historico Nacional", "norma": "Decreto 12/2001", "anio": "2001", "organismo": "Nacion", "url_fuente": "https://www.argentina.gob.ar/capital-humano/cultura/monumentos/mercado-de-san-telmo", "nota": "QUEDA 64 m AFUERA de la envolvente R03", "latitud": -34.619088, "longitud": -58.372937, "clave_nombre": "MERCADO SAN TELMO", "clave_dom": "BOLIVAR|954", "calle_tokens": "frozenset({'BOLIVAR'})" }, "geometry": { "type": "Point", "coordinates": [ -58.372937, -34.619088 ] } },
{ "type": "Feature", "properties": { "nombre": "Yiyo el Zeneize", "direccion": "Av. Eva Peron 4402", "barrio": "Parque Avellaneda", "comuna": 9, "declaratoria": "Patrimonio historico y patrimonio cultural inmaterial de su carta gastronomica", "norma": "Ley CABA 6.533", "anio": "2021", "organismo": "Legislatura CABA", "url_fuente": "https://boletinoficialpdf.buenosaires.gob.ar/util/imagen.php?idn=602315&idf=1", "nota": "EL CASO MAS NITIDO: la ley declara patrimonio la CARTA, no solo el edificio", "latitud": -34.653726, "longitud": -58.474119, "clave_nombre": "YIYO ZENEIZE", "clave_dom": "EVA PERON|4402", "calle_tokens": "frozenset({'EVA', 'PERON'})" }, "geometry": { "type": "Point", "coordinates": [ -58.474119, -34.653726 ] } }
]
}
