{
"type": "FeatureCollection",
"name": "enclaves_comunitarios_r4",
"crs": { "type": "name", "properties": { "name": "urn:ogc:def:crs:EPSG::5347" } },
"features": [
{ "type": "Feature", "properties": { "enclave_id": "E01", "colectividad": "peruana", "barrios_declarados": "Balvanera (sector Abasto), derrame sobre borde de Almagro", "estado_via_D": "abierta", "nivel_precision": "alta sobre Aguero (calle + altura + cabeceras); media sobre Jean Jaures y Zelaya (calle sin cabecera)", "n_grupos_fuentes": "3", "es_normativa": "no", "designacion_oficial": "Acto de instalacion del 02/06/2012 con placa conmemorativa. Impulsores: Santiago Vargas (Prensa 10) y el Consulado del Peru. En 2016 la Junta Comunal 3 coorganizo la feria.", "advertencia": "«Corredor Peruano» NO es normativo: es una placa del 02/06/2012 puesta por vecinos, comerciantes y el Consulado del Perú. No hay ley, ordenanza, resolución ni declaración de interés. Y la cuadra 400 de Agüero está en recambio asiático desde 2024, así que la delimitación de 2012 y la de 2025 describen realidades distintas. || La cuadra 400 de Aguero esta en RECAMBIO ASIATICO: Jua Jua Ramen (Aguero 436, 2024), OI Argentina (Aguero 449, 2024), Bu Fu Shi Guang (Anchorena 628, 2019). La nota de 2025 se titula 'Peru y Asia unidos por la calle Aguero'. La delimitacion de 2012 y la de 2025 describen realidades distintas.", "metodo_geometria": "eje+buffer", "computa_via_D": "si", "n_tramos": 3, "largo_eje_m": 505.9, "motivo_no_computa": "", "buffer_m": 150, "ha": 28.8, "delimitacion_textual": null, "desde": null, "reescrita_en": null }, "geometry": { "type": "MultiPolygon", "coordinates": [ [ [ [ 5645714.075292215682566, 6170313.727017539553344 ], [ 5645700.276145082898438, 6170318.852526115253568 ], [ 5645687.045832308940589, 6170325.305906908586621 ], [ 5645674.511769037693739, 6170333.025010332465172 ], [ 5645662.794665151275694, 6170341.93549720197916 ], [ 5645652.007362763397396, 6170351.95155465696007 ], [ 5645642.253749495372176, 6170362.976722590625286 ], [ 5645633.62775797303766, 6170374.904822607524693 ], [ 5645626.212461210787296, 6170387.620980584062636 ], [ 5645620.079272570088506, 6170401.002732967026532 ], [ 5645615.287258010357618, 6170414.92120616696775 ], [ 5645611.882567251101136, 6170429.242357676848769 ], [ 5645609.897989326156676, 6170443.828266981057823 ], [ 5645609.352636804804206, 6170458.538463797420263 ], [ 5645610.251761730760336, 6170473.231280890293419 ], [ 5645612.586705039255321, 6170487.765218398533762 ], [ 5645616.334979950450361, 6170502.000306558795273 ], [ 5645621.460488526150584, 6170515.799453691579401 ], [ 5645627.913869319483638, 6170529.02976646553725 ], [ 5645635.632972743362188, 6170541.563829736784101 ], [ 5645644.543459612876177, 6170553.280933623202145 ], [ 5645654.559517067857087, 6170564.068236011080444 ], [ 5645665.584685001522303, 6170573.821849279105663 ], [ 5645677.51278501842171, 6170582.447840801440179 ], [ 5645690.228942994959652, 6170589.863137563690543 ], [ 5645703.610695377923548, 6170595.996326204389334 ], [ 5645717.529168577864766, 6170600.788340764120221 ], [ 5645731.850320087745786, 6170604.193031523376703 ], [ 5645746.436229391954839, 6170606.177609448321164 ], [ 5645761.14642620831728, 6170606.722961969673634 ], [ 5645775.839243301190436, 6170605.823837043717504 ], [ 5645790.373180809430778, 6170603.488893735222518 ], [ 5645804.60826896969229, 6170599.740618824027479 ], [ 5645947.60491812415421, 6170554.477343736216426 ], [ 5646072.720954140648246, 6170514.878971112892032 ], [ 5646073.890491408295929, 6170514.444611295126379 ], [ 5646075.091525977477431, 6170514.106969715096056 ], [ 5646080.787820142693818, 6170511.88298069499433 ], [ 5646086.520290561020374, 6170509.753972175531089 ], [ 5646087.641621479764581, 6170509.207069220021367 ], [ 5646088.803778077475727, 6170508.753331502899528 ], [ 5646094.254653982818127, 6170505.981717133894563 ], [ 5646099.75084166508168, 6170503.301080013625324 ], [ 5646100.813167207874358, 6170502.646900894120336 ], [ 5646101.925253626890481, 6170502.081436783075333 ], [ 5646107.07821636274457, 6170498.788889225572348 ], [ 5646112.285190012305975, 6170495.582439507357776 ], [ 5646113.278279394842684, 6170494.827284331433475 ], [ 5646114.329585644416511, 6170494.155539550818503 ], [ 5646119.135009377263486, 6170490.373767824843526 ], [ 5646124.002622975967824, 6170486.672385384328663 ], [ 5646124.91691221203655, 6170485.8235267046839 ], [ 5646125.897313632071018, 6170485.051970526576042 ], [ 5646130.308919477276504, 6170480.817395181395113 ], [ 5646134.790295273065567, 6170476.656726336106658 ], [ 5646135.616979257203639, 6170475.72233912628144 ], [ 5646136.517034044489264, 6170474.858402059413493 ], [ 5646140.492335835471749, 6170470.211804362013936 ], [ 5646144.544315719977021, 6170465.631918634288013 ], [ 5646145.275433032773435, 6170464.621001553721726 ], [ 5646146.086473169736564, 6170463.673003783449531 ], [ 5646149.587186576798558, 6170458.659133012406528 ], [ 5646153.170747769065201, 6170453.704137204214931 ], [ 5646153.799257351085544, 6170452.626425937749445 ], [ 5646154.513472077436745, 6170451.603497200645506 ], [ 5646157.505883309990168, 6170446.270639684051275 ], [ 5646160.586514164693654, 6170440.988253100775182 ], [ 5646161.106363126076758, 6170439.854126592166722 ], [ 5646161.716874161735177, 6170438.766118256375194 ], [ 5646164.172164678573608, 6170433.165632301941514 ], [ 5646166.720197020098567, 6170427.60672723967582 ], [ 5646167.126378926448524, 6170426.427107759751379 ], [ 5646167.627306723035872, 6170425.284497926943004 ], [ 5646169.521830731071532, 6170419.470319274812937 ], [ 5646171.512725618667901, 6170413.688431030139327 ], [ 5646171.80132872145623, 6170412.474678947590292 ], [ 5646172.187849063426256, 6170411.2884715879336 ], [ 5646173.503361249342561, 6170405.316594001837075 ], [ 5646174.917945289984345, 6170399.367405272088945 ], [ 5646175.086190182715654, 6170398.131209679879248 ], [ 5646175.354580668732524, 6170396.912828621454537 ], [ 5646176.078411936759949, 6170390.840764539316297 ], [ 5646176.903061905875802, 6170384.781569274142385 ], [ 5646176.949328296817839, 6170383.53483541496098 ], [ 5646177.097004181705415, 6170382.29601432941854 ], [ 5646177.222183647565544, 6170376.182241013273597 ], [ 5646177.448957708664238, 6170370.071392608806491 ], [ 5646177.372800027020276, 6170368.82612722273916 ], [ 5646177.39833911228925, 6170367.578796623274684 ], [ 5646176.923661226406693, 6170361.482193040661514 ], [ 5646176.550375423394144, 6170355.378542318940163 ], [ 5646176.352527109906077, 6170354.146737984381616 ], [ 5646176.255683438852429, 6170352.902910354547203 ], [ 5646175.185719610191882, 6170346.882190168835223 ], [ 5646174.215968889184296, 6170340.844518586061895 ], [ 5646173.898335329256952, 6170339.638038246892393 ], [ 5646173.680041560903192, 6170338.409692331217229 ], [ 5646172.025096123106778, 6170332.522838346660137 ], [ 5646170.468219716101885, 6170326.609292002394795 ], [ 5646170.033859898336232, 6170325.439754734747112 ], [ 5646169.69621831830591, 6170324.23872016556561 ], [ 5646135.447436418384314, 6170221.966119511984289 ], [ 5646130.093798206187785, 6170208.253867411985993 ], [ 5646123.42190348636359, 6170195.132391862571239 ], [ 5646115.49600625410676, 6170182.728059845045209 ], [ 5646106.392437229864299, 6170171.160331857390702 ], [ 5646096.19886876270175, 6170160.540611444972456 ], [ 5646085.013470486737788, 6170150.971172319725156 ], [ 5646072.943963903933764, 6170142.544173412024975 ], [ 5646060.106584959663451, 6170135.340771327726543 ], [ 5646046.624964630231261, 6170129.430338766425848 ], [ 5646032.628938291221857, 6170124.869796426035464 ], [ 5646018.253295324742794, 6170121.703064820729196 ], [ 5646003.636481032706797, 6170119.960641307756305 ], [ 5645988.919263326562941, 6170119.65930637717247 ], [ 5645974.24337705783546, 6170120.801962050609291 ], [ 5645959.750159034505486, 6170123.377603928558528 ], [ 5645945.579186868853867, 6170127.36142717115581 ], [ 5645931.866934768855572, 6170132.715065383352339 ], [ 5645918.745459219440818, 6170139.386960103176534 ], [ 5645906.341127201914787, 6170147.312857335433364 ], [ 5645894.77339921426028, 6170156.416426359675825 ], [ 5645884.153678801842034, 6170166.609994826838374 ], [ 5645874.584239676594734, 6170177.795393102802336 ], [ 5645866.157240768894553, 6170189.86489968560636 ], [ 5645858.953838684596121, 6170202.702278629876673 ], [ 5645853.043406123295426, 6170216.183898959308863 ], [ 5645848.482863782905042, 6170230.179925298318267 ], [ 5645845.316132177598774, 6170244.55556826479733 ], [ 5645843.573708664625883, 6170259.172382556833327 ], [ 5645843.29417404346168, 6170272.82487172447145 ], [ 5645714.075292215682566, 6170313.727017539553344 ] ] ], [ [ [ 5645545.230734784156084, 6170185.345484003424644 ], [ 5645549.553033000789583, 6170199.416910295374691 ], [ 5645555.233759135939181, 6170212.996919511817396 ], [ 5645562.218204690143466, 6170225.954728742130101 ], [ 5645570.439105636440217, 6170238.165547199547291 ], [ 5645579.817290202714503, 6170249.511778025887907 ], [ 5645590.26244134735316, 6170259.884150817990303 ], [ 5645601.673966553062201, 6170269.182773953303695 ], [ 5645613.941966595128179, 6170277.318096609786153 ], [ 5645626.94829392619431, 6170284.211771182715893 ], [ 5645640.567690503783524, 6170289.797407817095518 ], [ 5645654.668994094245136, 6170294.021213778294623 ], [ 5645669.116401434876025, 6170296.84251150675118 ], [ 5645683.770776096731424, 6170298.234130362980068 ], [ 5645698.490988438948989, 6170298.18266829662025 ], [ 5645713.135274770669639, 6170296.688620914705098 ], [ 5645727.562602609395981, 6170293.766376711428165 ], [ 5645741.634028901346028, 6170289.444078494794667 ], [ 5645755.214038117788732, 6170283.763352359645069 ], [ 5645768.171847348101437, 6170276.778906805440784 ], [ 5645780.382665805518627, 6170268.558005859144032 ], [ 5645791.728896631859243, 6170259.179821292869747 ], [ 5645802.101269423961639, 6170248.734670148231089 ], [ 5645811.399892559275031, 6170237.323144942522049 ], [ 5645819.535215215757489, 6170225.055144900456071 ], [ 5645826.428889788687229, 6170212.048817569389939 ], [ 5645832.014526423066854, 6170198.429420991800725 ], [ 5645836.238332384265959, 6170184.328117401339114 ], [ 5645839.059630112722516, 6170169.880710060708225 ], [ 5645840.451248968951404, 6170155.226335398852825 ], [ 5645840.399786902591586, 6170140.506123056635261 ], [ 5645838.905739520676434, 6170125.86183672491461 ], [ 5645835.983495317399502, 6170111.434508886188269 ], [ 5645807.20259655546397, 6169998.215521417558193 ], [ 5645802.880298338830471, 6169984.144095125608146 ], [ 5645797.199572203680873, 6169970.564085909165442 ], [ 5645790.215126649476588, 6169957.606276678852737 ], [ 5645781.994225703179836, 6169945.395458221435547 ], [ 5645772.616041136905551, 6169934.049227395094931 ], [ 5645762.170889992266893, 6169923.676854602992535 ], [ 5645750.759364786557853, 6169914.378231467679143 ], [ 5645738.491364744491875, 6169906.242908811196685 ], [ 5645725.485037413425744, 6169899.349234238266945 ], [ 5645711.86564083583653, 6169893.76359760388732 ], [ 5645697.764337245374918, 6169889.539791642688215 ], [ 5645683.316929904744029, 6169886.718493914231658 ], [ 5645668.662555242888629, 6169885.32687505800277 ], [ 5645653.942342900671065, 6169885.378337124362588 ], [ 5645639.298056568950415, 6169886.87238450627774 ], [ 5645624.870728730224073, 6169889.794628709554672 ], [ 5645610.799302438274026, 6169894.116926926188171 ], [ 5645597.219293221831322, 6169899.797653061337769 ], [ 5645584.261483991518617, 6169906.782098615542054 ], [ 5645572.050665534101427, 6169915.002999561838806 ], [ 5645560.704434707760811, 6169924.381184128113091 ], [ 5645550.332061915658414, 6169934.826335272751749 ], [ 5645541.033438780345023, 6169946.237860478460789 ], [ 5645532.898116123862565, 6169958.505860520526767 ], [ 5645526.004441550932825, 6169971.512187851592898 ], [ 5645520.418804916553199, 6169985.131584429182112 ], [ 5645516.194998955354095, 6169999.232888019643724 ], [ 5645513.373701226897538, 6170013.680295360274613 ], [ 5645511.98208237066865, 6170028.334670022130013 ], [ 5645512.033544437028468, 6170043.054882364347577 ], [ 5645513.52759181894362, 6170057.699168696068227 ], [ 5645516.449836022220552, 6170072.126496534794569 ], [ 5645545.230734784156084, 6170185.345484003424644 ] ] ] ] } },
{ "type": "Feature", "properties": { "enclave_id": "E02", "colectividad": "china (con presencia taiwanesa fundacional)", "barrios_declarados": "Belgrano", "estado_via_D": "abierta", "nivel_precision": "alta en el nucleo (medida metrica), media en el corredor (alturas si, cabeceras no).", "n_grupos_fuentes": "15", "es_normativa": "no", "designacion_oficial": "ninguna norma localizada. La peatonalizacion de 2015 y el arco de 2009 presumiblemente tienen acto administrativo detras, sin numero localizado.", "advertencia": "El poligono real de consumo son DOS CUADRAS, no el barrio. Un poligono de cuatro manzanas sobredimensiona la via D. Vacio llamativo de establecimientos: recomienda una segunda pasada especifica.", "metodo_geometria": "nucleo(eje+buffer) + corredor(traza ffcc+buffer)", "computa_via_D": "si", "n_tramos": 7, "largo_eje_m": 975.1, "motivo_no_computa": "", "buffer_m": 150, "ha": 30.66, "delimitacion_textual": "NUCLEO: Arribenos entre Juramento y Olazabal, 256 m medidos por geocodificacion publica del GCBA (USIG). Son DOS CUADRAS, con Mendoza en el medio. CORREDOR: banda longitudinal a lo largo del viaducto del Mitre — complejo Mendoza 1730, Pasaje Echeverria 1677, bajo la estacion Belgrano C — PERPENDICULAR al eje historico. Desborde documentado sobre ocho calles: Mendoza 1583-1750, Montaneses 2149-2221, Blanco Encalada 1661-1820, Olazabal 1673-1780, Av. Juramento 1698, Echeverria 1677, Monroe 1625-1799, Arribenos hasta 2382.", "desde": "oleada inmigratoria de la decada de 1980, con presencia taiwanesa fundacional. Arco de acceso en Arribenos y Juramento (2009); peatonalizacion de las dos cuadras (2015); Templo Chong Kuan sobre Montaneses (1988); extension Via Viva (2023).", "reescrita_en": "ronda 4 · 2026-08-07" }, "geometry": { "type": "Polygon", "coordinates": [ [ [ 5642050.088633148930967, 6175653.207150680013001 ], [ 5642063.862867100164294, 6175658.399238777346909 ], [ 5642078.079687977209687, 6175662.216214529238641 ], [ 5642092.60218002460897, 6175664.621318371966481 ], [ 5642107.290483703836799, 6175665.591387841850519 ], [ 5642122.00314262136817, 6175665.117080639116466 ], [ 5642136.598465829156339, 6175663.202964601106942 ], [ 5642150.935892386361957, 6175659.867473712190986 ], [ 5642164.877345037646592, 6175655.142730573192239 ], [ 5642178.288559972308576, 6175649.074237042106688 ], [ 5642191.040379859507084, 6175641.720436030998826 ], [ 5642203.009997702203691, 6175633.152148661203682 ], [ 5642214.082139538601041, 6175623.45189222600311 ], [ 5642224.150174588896334, 6175612.713085496798158 ], [ 5642233.117142172530293, 6175601.039149052463472 ], [ 5642304.471954199485481, 6175498.051312809810042 ], [ 5642304.473204184323549, 6175498.049304900690913 ], [ 5642304.474644898436964, 6175498.047429138794541 ], [ 5642378.429334812797606, 6175391.299954476766288 ], [ 5642386.208484507165849, 6175378.803069674409926 ], [ 5642387.791694985702634, 6175375.596408804878592 ], [ 5642427.878391809761524, 6175355.553890421055257 ], [ 5642440.70587239600718, 6175348.332876533269882 ], [ 5642452.763802024535835, 6175339.889320836402476 ], [ 5642463.936056243255734, 6175330.304539387114346 ], [ 5642474.11504013556987, 6175319.67083887103945 ], [ 5642483.202724522911012, 6175308.090627636760473 ], [ 5642491.111590036191046, 6175295.675429449416697 ], [ 5642497.765469977632165, 6175282.544809453189373 ], [ 5642503.100283845327795, 6175268.825222697108984 ], [ 5642507.064654465764761, 6175254.648796302266419 ], [ 5642509.620402783155441, 6175240.152057004161179 ], [ 5642510.742915543727577, 6175225.474616326391697 ], [ 5642510.421382335014641, 6175210.757826046086848 ], [ 5642508.65889969933778, 6175196.143416899256408 ], [ 5642505.472441307269037, 6175181.7721336344257 ], [ 5642500.892694494687021, 6175167.782379566691816 ], [ 5642494.963764726184309, 6175154.308883674442768 ], [ 5642487.742750838398933, 6175141.481403088197112 ], [ 5642479.299195141531527, 6175129.423473459668458 ], [ 5642469.714413692243397, 6175118.251219240948558 ], [ 5642459.080713176168501, 6175108.072235348634422 ], [ 5642447.500501941889524, 6175098.98455096129328 ], [ 5642435.085303754545748, 6175091.075685448013246 ], [ 5642421.954683758318424, 6175084.421805506572127 ], [ 5642408.235097002238035, 6175079.086991638876498 ], [ 5642394.05867060739547, 6175075.122621018439531 ], [ 5642379.56193130929023, 6175072.566872701048851 ], [ 5642364.884490631520748, 6175071.444359940476716 ], [ 5642350.167700351215899, 6175071.765893149189651 ], [ 5642335.553291204385459, 6175073.528375784866512 ], [ 5642321.182007939554751, 6175076.714834176935256 ], [ 5642307.192253871820867, 6175081.294580989517272 ], [ 5642293.718757979571819, 6175087.223510758019984 ], [ 5642163.034890520386398, 6175152.562738570384681 ], [ 5642151.759590683504939, 6175158.819853289984167 ], [ 5642141.063366052694619, 6175166.022259115241468 ], [ 5642131.025265944190323, 6175174.11672742664814 ], [ 5642029.621990475803614, 6175263.344032033346593 ], [ 5642016.752549691125751, 6175276.129341178573668 ], [ 5642005.520627659745514, 6175290.374711076729 ], [ 5641957.50398322660476, 6175359.49334828928113 ], [ 5641859.985511773265898, 6175403.707087724469602 ], [ 5641845.512802405282855, 6175411.24331820756197 ], [ 5641831.944316929206252, 6175420.306997826322913 ], [ 5641786.512560973875225, 6175454.369340267032385 ], [ 5641777.244323987513781, 6175454.663927167654037 ], [ 5641762.648135176859796, 6175456.571431283839047 ], [ 5641748.309199103154242, 6175459.900426932610571 ], [ 5641734.365607559680939, 6175464.618854067288339 ], [ 5641720.951644955202937, 6175470.681271654553711 ], [ 5641708.196495083160698, 6175478.029295299202204 ], [ 5641696.222997007891536, 6175486.592159516178071 ], [ 5641685.146462062373757, 6175496.287399242632091 ], [ 5641675.07356333360076, 6175507.021644019521773 ], [ 5641666.101308341138065, 6175518.691517203114927 ], [ 5641658.316104806959629, 6175531.184631533920765 ], [ 5641651.792928495444357, 6175544.380671491846442 ], [ 5641646.594601161777973, 6175558.152551997452974 ], [ 5641642.771185539662838, 6175572.367642315104604 ], [ 5641640.359503210522234, 6175586.889043352566659 ], [ 5641639.382779994048178, 6175601.57690608035773 ], [ 5641639.850422269664705, 6175616.28977835085243 ], [ 5641641.757926385849714, 6175630.885967161506414 ], [ 5641645.086922034621239, 6175645.224903235211968 ], [ 5641649.805349169299006, 6175659.168494778685272 ], [ 5641655.867766756564379, 6175672.582457383163273 ], [ 5641663.215790401212871, 6175685.337607255205512 ], [ 5641671.778654618188739, 6175697.311105330474675 ], [ 5641681.473894344642758, 6175708.387640275992453 ], [ 5641692.20813912153244, 6175718.460539004765451 ], [ 5641703.878012305125594, 6175727.432793997228146 ], [ 5641728.501156216487288, 6175744.509379111230373 ], [ 5641740.726584671996534, 6175752.145127976313233 ], [ 5641753.628469433635473, 6175758.572190389037132 ], [ 5641767.087674060836434, 6175763.731218636035919 ], [ 5641780.979915803298354, 6175767.574574077501893 ], [ 5641795.176913228817284, 6175770.066767036914825 ], [ 5641809.547570783644915, 6175771.184784522280097 ], [ 5641823.95918932929635, 6175770.918302721343935 ], [ 5641838.278691492043436, 6175769.269782335497439 ], [ 5641852.373850504867733, 6175766.254445859231055 ], [ 5641866.11451119184494, 6175761.900137010961771 ], [ 5641879.373791826888919, 6175756.247063624672592 ], [ 5641892.029255763627589, 6175749.347426373511553 ], [ 5641903.96404202003032, 6175741.264936740510166 ], [ 5641998.791833133436739, 6175670.168043699115515 ], [ 5642043.44083908572793, 6175649.924704301171005 ], [ 5642050.088633148930967, 6175653.207150680013001 ] ] ] } },
{ "type": "Feature", "properties": { "enclave_id": "E03", "colectividad": "coreana", "barrios_declarados": "Bajo Flores (Flores)", "estado_via_D": "abierta", "nivel_precision": "media-alta (eje, cabeceras y cantidad de cuadras; sin alturas)", "n_grupos_fuentes": "3", "es_normativa": "no", "designacion_oficial": "ninguna norma. El GCBA lo reconoce como producto turistico (Barrio Coreano, Circuito 2): reconocimiento administrativo blando, no designacion territorial.", "advertencia": "DOS CORRECCIONES. Primera: la adjudicacion a Parque Chacabuco es erronea pero tiene raiz real, porque Av. Carabobo ES el limite entre Flores y Parque Chacabuco y la vereda impar puede caer del otro lado. Territorialmente el enclave es Bajo Flores, Comuna 7. Segunda: 'Baek-ku' (blanco-nueve) NO es un nombre de barrio, significa literalmente 'ciento nueve', por la linea de colectivo 109. Cargarlo como toponimo coreano seria un error de traduccion.", "metodo_geometria": "eje+buffer", "computa_via_D": "si", "n_tramos": 1, "largo_eje_m": 767.9, "motivo_no_computa": "", "buffer_m": 150, "ha": 30.05, "delimitacion_textual": null, "desde": null, "reescrita_en": null }, "geometry": { "type": "Polygon", "coordinates": [ [ [ 5641986.509772447869182, 6166295.123797978274524 ], [ 5641900.206882427446544, 6166365.591620575636625 ], [ 5641889.15724020358175, 6166375.567528914660215 ], [ 5641879.150849500671029, 6166386.589574350044131 ], [ 5641870.286268084309995, 6166398.549195447005332 ], [ 5641862.650807484984398, 6166411.328596133738756 ], [ 5641856.319673035293818, 6166424.801905936561525 ], [ 5641851.861994538456202, 6166435.657566864043474 ], [ 5641847.231297786347568, 6166448.590515601448715 ], [ 5641843.803174623288214, 6166461.892864529974759 ], [ 5641841.606376264244318, 6166475.453048614785075 ], [ 5641840.659326965920627, 6166489.157340390607715 ], [ 5641840.969969503581524, 6166502.890803780406713 ], [ 5641842.535698561929166, 6166516.538258046843112 ], [ 5641843.924383932724595, 6166525.141527819447219 ], [ 5641846.980316698551178, 6166539.541131101548672 ], [ 5641851.432942247949541, 6166553.571862567216158 ], [ 5641857.239379364065826, 6166567.098598602227867 ], [ 5641864.343708883039653, 6166579.991069344803691 ], [ 5641872.677512226626277, 6166592.125113253481686 ], [ 5641882.160530313849449, 6166603.383872852660716 ], [ 5641892.701436497271061, 6166613.658920131623745 ], [ 5641904.19871608633548, 6166622.851300769485533 ], [ 5641916.541643995791674, 6166630.872487114742398 ], [ 5641929.611351080238819, 6166637.645230758935213 ], [ 5641943.281968917697668, 6166643.104306477122009 ], [ 5641957.421841983683407, 6166647.197140387259424 ], [ 5641971.894795572385192, 6166649.884316260926425 ], [ 5641986.561447228305042, 6166651.139955125749111 ], [ 5642001.280549078248441, 6166650.951964491978288 ], [ 5642015.910348125733435, 6166649.322154812514782 ], [ 5642030.309951407834888, 6166646.266222046688199 ], [ 5642044.340682873502374, 6166641.813596497289836 ], [ 5642057.867418908514082, 6166636.007159381173551 ], [ 5642070.759889651089907, 6166628.902829862199724 ], [ 5642082.893933559767902, 6166620.5690265186131 ], [ 5642094.152693158946931, 6166611.086008431389928 ], [ 5642104.427740437909961, 6166600.545102247968316 ], [ 5642113.620121075771749, 6166589.047822658903897 ], [ 5642121.641307421028614, 6166576.704894749447703 ], [ 5642125.787837019190192, 6166568.703126174397767 ], [ 5642177.657544748857617, 6166526.350600533187389 ], [ 5642179.008445559069514, 6166525.132332534529269 ], [ 5642180.445647648535669, 6166524.017182298004627 ], [ 5642263.406653894111514, 6166452.858208782970905 ], [ 5642265.526125232689083, 6166450.851574815809727 ], [ 5642267.760745154693723, 6166448.974019908346236 ], [ 5642384.785205138847232, 6166340.418765700422227 ], [ 5642385.794313959777355, 6166339.386050650849938 ], [ 5642386.881715950556099, 6166338.436125447042286 ], [ 5642474.003956041298807, 6166254.443827917799354 ], [ 5642560.205953042022884, 6166172.578105917200446 ], [ 5642618.191792738623917, 6166119.556275227107108 ], [ 5642629.496339173987508, 6166113.440695372410119 ], [ 5642641.694606401026249, 6166105.201182254590094 ], [ 5642653.026522123254836, 6166095.805705374106765 ], [ 5642663.382953797467053, 6166085.344748308882117 ], [ 5642672.664163326844573, 6166073.919055794365704 ], [ 5642680.780767588876188, 6166061.638663495890796 ], [ 5642687.6545992475003, 6166048.62183830421418 ], [ 5642693.2194595457986, 6166034.99393936060369 ], [ 5642697.421755838207901, 6166020.886210782453418 ], [ 5642700.221017713658512, 6166006.434517708607018 ], [ 5642701.5902867494151, 6165991.778037843294442 ], [ 5642701.516376137733459, 6165977.057921098545194 ], [ 5642699.999997676350176, 6165962.415930246002972 ], [ 5642697.055754920467734, 6165947.99307566229254 ], [ 5642692.712002535350621, 6165933.92825732100755 ], [ 5642687.010573233477771, 6165920.356927111744881 ], [ 5642680.006374893710017, 6165907.409784362651408 ], [ 5642671.766861775889993, 6165895.211517135612667 ], [ 5642662.371384895406663, 6165883.87960141338408 ], [ 5642651.910427830182016, 6165873.523169739171863 ], [ 5642640.484735315665603, 6165864.241960209794343 ], [ 5642628.204343017190695, 6165856.125355947762728 ], [ 5642615.187517825514078, 6165849.251524289138615 ], [ 5642601.559618881903589, 6165843.686663990840316 ], [ 5642587.451890303753316, 6165839.484367698431015 ], [ 5642573.000197229906917, 6165836.685105822980404 ], [ 5642558.34371736459434, 6165835.315836787223816 ], [ 5642543.623600619845092, 6165835.389747398905456 ], [ 5642528.981609767302871, 6165836.906125860288739 ], [ 5642514.558755183592439, 6165839.850368616171181 ], [ 5642500.493936842307448, 6165844.194121001288295 ], [ 5642485.78727016877383, 6165849.539697229862213 ], [ 5642472.236961568705738, 6165855.231056589633226 ], [ 5642459.308665802702308, 6165862.221164108254015 ], [ 5642447.126495908945799, 6165870.4429139951244 ], [ 5642435.807402037084103, 6165879.817376563325524 ], [ 5642356.716549049131572, 6165952.137478129938245 ], [ 5642355.718249855563045, 6165953.14460012037307 ], [ 5642354.64332358725369, 6165954.069494443014264 ], [ 5642267.005660542286932, 6166037.298663246445358 ], [ 5642266.616597155109048, 6166037.706286696717143 ], [ 5642266.192223626188934, 6166038.077008025720716 ], [ 5642179.703445613384247, 6166121.458601156249642 ], [ 5642065.876042347401381, 6166227.048173618502915 ], [ 5641986.509772447869182, 6166295.123797978274524 ] ] ] } },
{ "type": "Feature", "properties": { "enclave_id": "E04", "colectividad": "coreana (extension comercial, no nucleo residencial)", "barrios_declarados": "Floresta / Flores — en disputa", "estado_via_D": "abierta", "nivel_precision": "alta — el enclave mejor documentado por altura de puerta de todo el relevamiento", "n_grupos_fuentes": "4", "es_normativa": "no", "designacion_oficial": "ninguna. Circula la etiqueta periodistica 'Corea Soho' (La Nacion 2020), sin respaldo normativo.", "advertencia": "CONTRADICCION DE BARRIO SIN RESOLVER: La Nacion y Nueva Ciudad lo ubican en Floresta; Diario de Flores y el GCBA en Flores. Las alturas caen sobre la franja limitrofe, ninguna fuente es obviamente falsa. PARA POLIGONIZAR: usar las alturas, no el nombre del barrio. Segunda advertencia: el iman primario de Av. Avellaneda es la ropa, no la comida.", "metodo_geometria": "eje+buffer", "computa_via_D": "si", "n_tramos": 1, "largo_eje_m": 118.3, "motivo_no_computa": "", "buffer_m": 150, "ha": 10.61, "delimitacion_textual": null, "desde": null, "reescrita_en": null }, "geometry": { "type": "Polygon", "coordinates": [ [ [ 5639545.149124510586262, 6168083.652827479876578 ], [ 5639540.930130165070295, 6168097.755571413785219 ], [ 5639538.113762061111629, 6168112.203940541483462 ], [ 5639536.727143364958465, 6168126.858789171092212 ], [ 5639536.783627970144153, 6168141.578983097337186 ], [ 5639538.282671901397407, 6168156.222758807241917 ], [ 5639541.209838544018567, 6168170.649088735692203 ], [ 5639545.536937684752047, 6168184.719039438292384 ], [ 5639551.222296993248165, 6168198.297109599225223 ], [ 5639558.211163350380957, 6168211.252534979954362 ], [ 5639566.436230153776705, 6168223.460547751747072 ], [ 5639575.81828551273793, 6168234.803578077815473 ], [ 5639586.266975106671453, 6168245.172386376187205 ], [ 5639597.681672342121601, 6168254.467115353792906 ], [ 5639609.952447445131838, 6168262.598251690156758 ], [ 5639622.961126143112779, 6168269.487488098442554 ], [ 5639636.582427749410272, 6168275.068477463908494 ], [ 5639650.685171683318913, 6168279.28747180942446 ], [ 5639665.133540811017156, 6168282.103839913383126 ], [ 5639679.788389440625906, 6168283.49045860953629 ], [ 5639694.50858336687088, 6168283.433974004350603 ], [ 5639709.15235907677561, 6168281.934930073097348 ], [ 5639723.578689005225897, 6168279.007763430476189 ], [ 5639737.648639707826078, 6168274.680664289742708 ], [ 5639751.226709868758917, 6168268.995304981246591 ], [ 5639764.182135249488056, 6168262.006438624113798 ], [ 5639776.390148021280766, 6168253.78137182071805 ], [ 5639787.733178347349167, 6168244.399316461756825 ], [ 5639798.101986645720899, 6168233.950626867823303 ], [ 5639807.3967156233266, 6168222.535929632373154 ], [ 5639815.527851959690452, 6168210.265154529362917 ], [ 5639822.417088367976248, 6168197.256475831381977 ], [ 5639827.998077733442187, 6168183.635174225084484 ], [ 5639867.435440314002335, 6168072.067311627790332 ], [ 5639871.654434659518301, 6168057.964567693881691 ], [ 5639874.470802763476968, 6168043.516198566183448 ], [ 5639875.857421459630132, 6168028.861349936574697 ], [ 5639875.800936854444444, 6168014.141156010329723 ], [ 5639874.30189292319119, 6167999.497380300424993 ], [ 5639871.37472628057003, 6167985.071050371974707 ], [ 5639867.04762713983655, 6167971.001099669374526 ], [ 5639861.362267831340432, 6167957.423029508441687 ], [ 5639854.37340147420764, 6167944.467604127712548 ], [ 5639846.148334670811892, 6167932.259591355919838 ], [ 5639836.766279311850667, 6167920.916561029851437 ], [ 5639826.317589717917144, 6167910.547752731479704 ], [ 5639814.902892482466996, 6167901.253023753874004 ], [ 5639802.632117379456758, 6167893.121887417510152 ], [ 5639789.623438681475818, 6167886.232651009224355 ], [ 5639776.002137075178325, 6167880.651661643758416 ], [ 5639761.899393141269684, 6167876.43266729824245 ], [ 5639747.451024013571441, 6167873.616299194283783 ], [ 5639732.796175383962691, 6167872.22968049813062 ], [ 5639718.075981457717717, 6167872.286165103316307 ], [ 5639703.432205747812986, 6167873.785209034569561 ], [ 5639689.0058758193627, 6167876.712375677190721 ], [ 5639674.935925116762519, 6167881.039474817924201 ], [ 5639661.35785495582968, 6167886.724834126420319 ], [ 5639648.402429575100541, 6167893.713700483553112 ], [ 5639636.194416803307831, 6167901.93876728694886 ], [ 5639624.85138647723943, 6167911.320822645910084 ], [ 5639614.482578178867698, 6167921.769512239843607 ], [ 5639605.187849201261997, 6167933.184209475293756 ], [ 5639597.056712864898145, 6167945.454984578303993 ], [ 5639590.167476456612349, 6167958.463663276284933 ], [ 5639584.58648709114641, 6167972.084964882582426 ], [ 5639545.149124510586262, 6168083.652827479876578 ] ] ] } },
{ "type": "Feature", "properties": { "enclave_id": "E05", "colectividad": "judia (askenazi historica, hoy con fuerte componente sefardi y ortodoxo)", "barrios_declarados": "Balvanera (Once)", "estado_via_D": "abierta", "nivel_precision": "alta — unico enclave con altura de puerta de fuente oficial", "n_grupos_fuentes": "3", "es_normativa": "no", "designacion_oficial": "ninguna localizada", "advertencia": "El poligono de DAIA es NOTABLEMENTE mas grande que la nube real de puertas, que se concentra en Tucuman 2300-2800 y Paso 700. Si se poligoniza el declarado, se diluye la densidad. Segunda: el mismo texto de DAIA se titula 'Once, de enclave judio a espacio multicultural': la fuente que aporta el poligono avisa que el enclave esta en retirada.", "metodo_geometria": "eje+buffer", "computa_via_D": "si", "n_tramos": 5, "largo_eje_m": 1884.8, "motivo_no_computa": "", "buffer_m": 150, "ha": 56.52, "delimitacion_textual": null, "desde": null, "reescrita_en": null }, "geometry": { "type": "Polygon", "coordinates": [ [ [ 5645991.169474159367383, 6170456.147605047561228 ], [ 5645995.984482931904495, 6170470.058140274137259 ], [ 5646002.139777004718781, 6170483.42973907943815 ], [ 5646009.576077531091869, 6170496.133625660091639 ], [ 5646018.221768870949745, 6170508.047454642131925 ], [ 5646027.993588291108608, 6170519.056489339098334 ], [ 5646038.797427828423679, 6170529.054706729948521 ], [ 5646050.529240602627397, 6170537.945818515494466 ], [ 5646063.076042843982577, 6170545.644198427908123 ], [ 5646076.317001986317337, 6170552.075706861913204 ], [ 5646090.124600356444716, 6170557.178404874168336 ], [ 5646104.365863233804703, 6170560.903150693513453 ], [ 5646118.903639471158385, 6170563.214072981849313 ], [ 5646133.597922336310148, 6170564.088916294276714 ], [ 5646148.307197852991521, 6170563.51925541087985 ], [ 5646149.722777131944895, 6170563.324266701005399 ], [ 5646147.924012029543519, 6170567.725287592969835 ], [ 5646143.717216212302446, 6170581.831675106659532 ], [ 5646140.913345030508935, 6170596.282474605366588 ], [ 5646139.539401297457516, 6170610.938516989350319 ], [ 5646139.608616842888296, 6170625.658656559884548 ], [ 5646141.120325081981719, 6170640.301130324602127 ], [ 5646144.059967437759042, 6170654.724923257716 ], [ 5646148.399233548901975, 6170668.791126347146928 ], [ 5646154.096333909779787, 6170682.364274369552732 ], [ 5646161.096402329392731, 6170695.313650488853455 ], [ 5646169.332024321891367, 6170707.514545133337379 ], [ 5646178.723886346444488, 6170718.849457019008696 ], [ 5646189.181539637967944, 6170729.209224748425186 ], [ 5646200.604271276853979, 6170738.494078093208373 ], [ 5646212.882074114866555, 6170746.614598842337728 ], [ 5646225.896706197410822, 6170753.492581940256059 ], [ 5646239.522829504683614, 6170759.061788651160896 ], [ 5646253.629217018373311, 6170763.268584468401968 ], [ 5646268.080016517080367, 6170766.072455650195479 ], [ 5646282.736058901064098, 6170767.446399383246899 ], [ 5646297.456198471598327, 6170767.377183837816119 ], [ 5646312.098672236315906, 6170765.865475598722696 ], [ 5646398.57160394731909, 6170752.622586855664849 ], [ 5646413.578690460883081, 6170750.407265054993331 ], [ 5646413.620092855766416, 6170750.399059826508164 ], [ 5646413.662097825668752, 6170750.394928641617298 ], [ 5646495.886208025738597, 6170738.209909589029849 ], [ 5646560.534798846580088, 6170728.637214777991176 ], [ 5646573.707954218611121, 6170726.684315168298781 ], [ 5646701.610670772381127, 6170708.160577146336436 ], [ 5646716.057907104492188, 6170705.338403850793839 ], [ 5646730.158954689279199, 6170701.113743299618363 ], [ 5646743.778012729249895, 6170695.527281283400953 ], [ 5646756.783922250382602, 6170688.63281848654151 ], [ 5646769.051429235376418, 6170680.496752353385091 ], [ 5646780.462390885688365, 6170671.197437648661435 ], [ 5646790.906913402490318, 6170660.824431857094169 ], [ 5646800.284410323947668, 6170649.477632693946362 ], [ 5646808.504571228288114, 6170637.26631603948772 ], [ 5646815.488231472671032, 6170624.308083546347916 ], [ 5646821.168134592473507, 6170610.727730078622699 ], [ 5646825.489580014720559, 6170596.656041864305735 ], [ 5646828.410949856974185, 6170582.228536951355636 ], [ 5646829.904109731316566, 6170567.584160100668669 ], [ 5646829.954679692164063, 6170552.863944666460156 ], [ 5646828.562172723002732, 6170538.209654370322824 ], [ 5646825.739999427460134, 6170523.762418038211763 ], [ 5646821.515338876284659, 6170509.661370453424752 ], [ 5646815.928876860067248, 6170496.042312413454056 ], [ 5646809.034414063207805, 6170483.036402892321348 ], [ 5646800.898347930051386, 6170470.768895907327533 ], [ 5646791.59903322532773, 6170459.357934257015586 ], [ 5646786.289620095863938, 6170454.011915359646082 ], [ 5646796.370961732231081, 6170444.536116806790233 ], [ 5646806.057104394771159, 6170433.451625836081803 ], [ 5646814.610135526396334, 6170421.471101715229452 ], [ 5646821.94768476113677, 6170408.709923439659178 ], [ 5646827.999087488278747, 6170395.290988132357597 ], [ 5646832.706065393052995, 6170381.343527476303279 ], [ 5646836.023287704214454, 6170367.001863141544163 ], [ 5646837.918807757087052, 6170352.404113195836544 ], [ 5646838.374370658770204, 6170337.690861950628459 ], [ 5646837.385589088313282, 6170323.003806059248745 ], [ 5646834.961985552683473, 6170308.484389898367226 ], [ 5646831.126900679431856, 6170294.272443383000791 ], [ 5646825.91726843174547, 6170280.504835326224566 ], [ 5646819.383260416798294, 6170267.314155320636928 ], [ 5646811.587802702561021, 6170254.82743682526052 ], [ 5646802.605969809927046, 6170243.164933765307069 ], [ 5646792.524261698126793, 6170232.438962419517338 ], [ 5646781.439770727418363, 6170222.75281975697726 ], [ 5646769.459246606566012, 6170214.199788625352085 ], [ 5646756.698068330995739, 6170206.862239390611649 ], [ 5646743.279133023694158, 6170200.810836663469672 ], [ 5646729.33167236763984, 6170196.103858758695424 ], [ 5646714.990008032880723, 6170192.786636447533965 ], [ 5646700.392258087173104, 6170190.891116394661367 ], [ 5646685.67900684196502, 6170190.435553492978215 ], [ 5646670.991950950585306, 6170191.424335063435137 ], [ 5646557.22618655487895, 6170204.716341003775597 ], [ 5646553.548925694078207, 6170205.19212013669312 ], [ 5646538.872568897902966, 6170207.275749158114195 ], [ 5646538.869544444605708, 6170207.276331186294556 ], [ 5646538.866477522067726, 6170207.276614089496434 ], [ 5646449.189992262981832, 6170220.011899898760021 ], [ 5646442.871584397740662, 6170190.063534049317241 ], [ 5646439.347816726192832, 6170173.328200500458479 ], [ 5646438.699859260581434, 6170170.396695642732084 ], [ 5646411.329829221591353, 6170052.194493878632784 ], [ 5646406.910421746782959, 6170033.097800260409713 ], [ 5646387.775336337275803, 6169943.261477263644338 ], [ 5646364.821859802119434, 6169835.474422325380147 ], [ 5646361.053131664171815, 6169821.244735470972955 ], [ 5646355.907797769643366, 6169807.452968402765691 ], [ 5646349.435410496778786, 6169794.231943377293646 ], [ 5646341.698302471078932, 6169781.708986092358828 ], [ 5646332.770986274816096, 6169770.004699472337961 ], [ 5646322.739436841569841, 6169759.231802196241915 ], [ 5646311.700263476930559, 6169749.494043153710663 ], [ 5646299.759779455140233, 6169740.885202286764979 ], [ 5646287.032978163100779, 6169733.488187440671027 ], [ 5646273.642425656318665, 6169727.374235910363495 ], [ 5646259.717080275528133, 6169722.60222839191556 ], [ 5646245.391050707548857, 6169719.218121926300228 ], [ 5646230.802304449491203, 6169717.25450730882585 ], [ 5646216.091339102014899, 6169716.730295221321285 ], [ 5646201.399829304777086, 6169717.650534113869071 ], [ 5646186.86926232650876, 6169720.006361581385136 ], [ 5646172.639575472101569, 6169723.775089719332755 ], [ 5646158.847808403894305, 6169728.920423613861203 ], [ 5646145.62678337842226, 6169735.392810886725783 ], [ 5646133.103826093487442, 6169743.129918912425637 ], [ 5646121.399539473466575, 6169752.057235108688474 ], [ 5646110.626642197370529, 6169762.088784541934729 ], [ 5646100.888883154839277, 6169773.127957906574011 ], [ 5646092.280042287893593, 6169785.068441928364336 ], [ 5646084.883027441799641, 6169797.79524322040379 ], [ 5646078.769075911492109, 6169811.185795727185905 ], [ 5646073.997068393044174, 6169825.111141107976437 ], [ 5646070.612961927428842, 6169839.437170675955713 ], [ 5646068.649347309954464, 6169854.025916934013367 ], [ 5646068.125135222449899, 6169868.73688228148967 ], [ 5646069.045374114997685, 6169883.428392078727484 ], [ 5646071.40120158251375, 6169897.958959056995809 ], [ 5646094.355385048314929, 6170005.749333664774895 ], [ 5646094.356255981139839, 6170005.752622067928314 ], [ 5646094.356800551526248, 6170005.755979975685477 ], [ 5646113.766903730109334, 6170096.883469675667584 ], [ 5646114.338087945245206, 6170099.454135841690004 ], [ 5646117.34272416587919, 6170112.43746396061033 ], [ 5646106.345502145588398, 6170110.68934753164649 ], [ 5646091.651219280436635, 6170109.814504219219089 ], [ 5646076.941943763755262, 6170110.384165102615952 ], [ 5646062.359333959408104, 6170112.392844035290182 ], [ 5646048.043828372843564, 6170115.821196340955794 ], [ 5646034.133293146267533, 6170120.636205113492906 ], [ 5646020.761694340966642, 6170126.791499186307192 ], [ 5646008.057807760313153, 6170134.22779971268028 ], [ 5645996.143978778272867, 6170142.873491052538157 ], [ 5645985.134944081306458, 6170152.64531047269702 ], [ 5645975.136726690456271, 6170163.44915001001209 ], [ 5645966.245614904910326, 6170175.180962784215808 ], [ 5645958.547234992496669, 6170187.727765025570989 ], [ 5645952.115726558491588, 6170200.968724167905748 ], [ 5645947.013028546236455, 6170214.776322538033128 ], [ 5645943.288282726891339, 6170229.017585415393114 ], [ 5645940.977360438555479, 6170243.555361652746797 ], [ 5645940.102517126128078, 6170258.24964451789856 ], [ 5645940.672178009524941, 6170272.958920034579933 ], [ 5645942.680856942199171, 6170287.54152983892709 ], [ 5645946.109209247864783, 6170301.857035425491631 ], [ 5645991.169474159367383, 6170456.147605047561228 ] ] ] } },
{ "type": "Feature", "properties": { "enclave_id": "E06", "colectividad": "judia sefardi y ortodoxa", "barrios_declarados": "Flores", "estado_via_D": "abierta", "nivel_precision": "alta en puntos, NULA en bordes — el caso inverso al Barrio Chino", "n_grupos_fuentes": "1", "es_normativa": "no", "designacion_oficial": "ninguna localizada", "advertencia": "n_grupos = 1. Con una sola fuente, y de 2015, este enclave NO deberia computar como 'delimitado' al mismo nivel que los demas, aunque tenga la lista de direcciones mas larga despues del Once. Y el Pasaje Valle, que yo habia nombrado, NO aparece en ninguna fuente legible: no debe cargarse.", "metodo_geometria": "eje+buffer", "computa_via_D": "no", "n_tramos": 4, "largo_eje_m": 1322.4, "motivo_no_computa": "n_grupos = 1 y de 2015: una sola fuente no delimita al mismo nivel que las demás", "buffer_m": 150, "ha": 59.19, "delimitacion_textual": null, "desde": null, "reescrita_en": null }, "geometry": { "type": "MultiPolygon", "coordinates": [ [ [ [ 5640487.22451, 6168036.458739999681711 ], [ 5640487.237569999881089, 6168036.46344 ], [ 5640487.23759, 6168036.463449999690056 ], [ 5640617.252170000225306, 6168083.243150000460446 ], [ 5640617.256129999645054, 6168083.244359999895096 ], [ 5640617.260049999691546, 6168083.245989999733865 ], [ 5640732.912519999779761, 6168124.850859999656677 ], [ 5640747.746690000407398, 6168130.691549999639392 ], [ 5640747.770700000226498, 6168130.69967 ], [ 5640747.793890000320971, 6168130.710129999555647 ], [ 5640773.998359999619424, 6168141.017439999617636 ], [ 5640787.94493000023067, 6168145.72704999987036 ], [ 5640802.285969999618828, 6168149.04698000010103 ], [ 5640816.883360000327229, 6168150.945260000415146 ], [ 5640831.596529999747872, 6168151.403599999845028 ], [ 5640846.283769999630749, 6168150.417589999735355 ], [ 5640860.803639999590814, 6168147.996729999780655 ], [ 5640875.016309999860823, 6168144.164320000447333 ], [ 5640888.78491, 6168138.957290000282228 ], [ 5640901.976820000447333, 6168132.425769999623299 ], [ 5640914.465010000392795, 6168124.632670000195503 ], [ 5640926.12921, 6168115.653040000237525 ], [ 5640936.857080000452697, 6168105.573359999805689 ], [ 5640946.545319999568164, 6168094.4907 ], [ 5640955.10061, 6168082.51179 ], [ 5640962.440569999627769, 6168069.751989999786019 ], [ 5640968.4945, 6168056.33420000039041 ], [ 5640973.204110000282526, 6168042.387629999779165 ], [ 5640976.524039999581873, 6168028.046590000391006 ], [ 5640978.42231999989599, 6168013.449199999682605 ], [ 5640978.880660000257194, 6167998.736030000261962 ], [ 5640977.894650000147521, 6167984.048790000379086 ], [ 5640975.473790000192821, 6167969.528920000419021 ], [ 5640971.64138, 6167955.316250000149012 ], [ 5640966.434349999763072, 6167941.54765999969095 ], [ 5640959.90283, 6167928.355739999562502 ], [ 5640952.109729999676347, 6167915.86754999961704 ], [ 5640943.130099999718368, 6167904.20335999969393 ], [ 5640933.050420000217855, 6167893.475479999557137 ], [ 5640921.967760000377893, 6167883.78725 ], [ 5640909.988850000314415, 6167875.23195 ], [ 5640897.229050000198185, 6167867.892 ], [ 5640883.811259999871254, 6167861.83806 ], [ 5640857.627530000172555, 6167851.538909999653697 ], [ 5640840.74246000032872, 6167844.89071 ], [ 5640836.564299999736249, 6167843.317040000110865 ], [ 5640718.81104, 6167800.956419999711215 ], [ 5640718.81089000031352, 6167800.956369999796152 ], [ 5640588.791260000318289, 6167754.17485 ], [ 5640588.784629999659956, 6167754.17282999958843 ], [ 5640588.778199999593198, 6167754.170149999670684 ], [ 5640569.76573000010103, 6167747.331380000337958 ], [ 5640465.15216, 6167709.497739999555051 ], [ 5640451.080339999869466, 6167705.176719999872148 ], [ 5640436.652750000357628, 6167702.255789999850094 ], [ 5640422.008329999633133, 6167700.763070000335574 ], [ 5640407.28811, 6167700.712949999608099 ], [ 5640392.633860000409186, 6167702.105899999849498 ], [ 5640378.18671, 6167704.92851 ], [ 5640364.08579, 6167709.153599999845028 ], [ 5640350.466900000348687, 6167714.740480000153184 ], [ 5640337.461199999786913, 6167721.63533 ], [ 5640325.193939999677241, 6167729.771770000457764 ], [ 5640313.78326, 6167739.071429999545217 ], [ 5640303.339049999602139, 6167749.44476000033319 ], [ 5640293.961900000460446, 6167760.79184 ], [ 5640285.74211, 6167773.003410000354052 ], [ 5640278.758840000256896, 6167785.96184999961406 ], [ 5640273.079350000247359, 6167799.542380000464618 ], [ 5640268.758329999633133, 6167813.614190000109375 ], [ 5640265.83739999961108, 6167828.041790000163019 ], [ 5640264.344689999707043, 6167842.68621 ], [ 5640264.294560000300407, 6167857.406430000439286 ], [ 5640265.68752000015229, 6167872.060680000111461 ], [ 5640268.510130000300705, 6167886.507829999551177 ], [ 5640272.73522000014782, 6167900.608749999664724 ], [ 5640278.32209, 6167914.227629999630153 ], [ 5640285.216950000263751, 6167927.233330000191927 ], [ 5640293.353389999829233, 6167939.5005900003016 ], [ 5640302.653049999848008, 6167950.91127 ], [ 5640313.02637, 6167961.355480000376701 ], [ 5640324.373449999839067, 6167970.732630000449717 ], [ 5640336.585020000115037, 6167978.95242 ], [ 5640349.543460000306368, 6167985.935689999721944 ], [ 5640363.123990000225604, 6167991.615179999731481 ], [ 5640467.85941, 6168029.492890000343323 ], [ 5640468.103179999627173, 6168029.580819999799132 ], [ 5640487.22451, 6168036.458739999681711 ] ] ], [ [ [ 5639605.71796, 6167787.271990000270307 ], [ 5639605.707329999655485, 6167790.861440000124276 ], [ 5639606.066220000386238, 6167794.619330000132322 ], [ 5639606.244950000196695, 6167798.390150000341237 ], [ 5639606.76551999989897, 6167801.941700000315905 ], [ 5639607.10678, 6167805.515069999732077 ], [ 5639607.832299999892712, 6167809.21978999953717 ], [ 5639608.37976, 6167812.954830000177026 ], [ 5639609.245950000360608, 6167816.438319999724627 ], [ 5639609.935809999704361, 6167819.96095999982208 ], [ 5639611.020929999649525, 6167823.57663 ], [ 5639611.93188, 6167827.240129999816418 ], [ 5639613.135350000113249, 6167830.621969999745488 ], [ 5639614.167159999720752, 6167834.060010000132024 ], [ 5639615.60145999956876, 6167837.551920000463724 ], [ 5639616.86710000038147, 6167841.108470000326633 ], [ 5639618.396250000223517, 6167844.356049999594688 ], [ 5639619.760080000385642, 6167847.676409999839962 ], [ 5639621.529749999754131, 6167851.010940000414848 ], [ 5639623.137889999896288, 6167854.426289999857545 ], [ 5639624.977989999577403, 6167857.508360000327229 ], [ 5639626.660710000433028, 6167860.67905000038445 ], [ 5639628.748630000278354, 6167863.823959999717772 ], [ 5639630.683849999681115, 6167867.065349999815226 ], [ 5639632.817250000312924, 6167869.952290000393987 ], [ 5639634.802590000443161, 6167872.942699999548495 ], [ 5639637.188740000128746, 6167875.86785 ], [ 5639639.432330000214279, 6167878.903909999877214 ], [ 5639641.838360000401735, 6167881.567769999615848 ], [ 5639644.107309999875724, 6167884.34925 ], [ 5639646.768710000440478, 6167887.026460000313818 ], [ 5639649.299060000106692, 6167889.827960000373423 ], [ 5639651.95462999958545, 6167892.243180000223219 ], [ 5639654.48527, 6167894.78885000012815 ], [ 5639657.396270000375807, 6167897.192300000227988 ], [ 5639660.18903, 6167899.732300000265241 ], [ 5639663.068509999662638, 6167901.87557000014931 ], [ 5639665.836520000360906, 6167904.160969999618828 ], [ 5639668.96911, 6167906.267540000379086 ], [ 5639671.997349999845028, 6167908.521540000103414 ], [ 5639675.073049999773502, 6167910.372259999625385 ], [ 5639678.051730000413954, 6167912.375330000184476 ], [ 5639681.375730000436306, 6167914.16471999976784 ], [ 5639684.610310000367463, 6167916.111039999872446 ], [ 5639687.8525599995628, 6167917.651359999552369 ], [ 5639691.013279999606311, 6167919.352850000374019 ], [ 5639694.496650000102818, 6167920.807810000143945 ], [ 5639697.90644, 6167922.42772 ], [ 5639701.284079999662936, 6167923.642830000258982 ], [ 5639704.596319999545813, 6167925.026309999637306 ], [ 5639708.205579999834299, 6167926.132849999703467 ], [ 5639711.757679999805987, 6167927.41072 ], [ 5639792.387149999849498, 6167952.02128 ], [ 5639785.17942, 6167957.841629999689758 ], [ 5639774.688500000163913, 6167968.167709999717772 ], [ 5639765.260239999741316, 6167979.47236 ], [ 5639756.985430000349879, 6167991.64671 ], [ 5639749.943749999627471, 6168004.573509999550879 ], [ 5639744.203030000440776, 6168018.128270000219345 ], [ 5639703.29592000041157, 6168129.663879999890924 ], [ 5639698.911449999548495, 6168143.716059999540448 ], [ 5639695.925440000370145, 6168158.130320000462234 ], [ 5639694.366650000214577, 6168172.76786 ], [ 5639694.250099999830127, 6168187.487700000405312 ], [ 5639695.576910000294447, 6168202.148090000264347 ], [ 5639698.334289999678731, 6168216.607830000109971 ], [ 5639702.495710000395775, 6168230.72767 ], [ 5639708.021069999784231, 6168244.37163 ], [ 5639714.857160000130534, 6168257.408309999853373 ], [ 5639722.938160000368953, 6168269.712170000188053 ], [ 5639732.18623000010848, 6168281.16469999961555 ], [ 5639742.512319999746978, 6168291.655609999783337 ], [ 5639753.81697, 6168301.083870000205934 ], [ 5639765.99132, 6168309.358690000139177 ], [ 5639778.918119999580085, 6168316.400360000319779 ], [ 5639792.472869999706745, 6168322.141080000437796 ], [ 5639806.525050000287592, 6168326.52556 ], [ 5639820.939319999888539, 6168329.51157 ], [ 5639835.576849999837577, 6168331.070349999703467 ], [ 5639850.296690000221133, 6168331.1869 ], [ 5639864.95708, 6168329.860100000165403 ], [ 5639879.41682, 6168327.102710000239313 ], [ 5639893.536659999750555, 6168322.9413 ], [ 5639907.18061999976635, 6168317.415939999744296 ], [ 5639920.217310000211, 6168310.579839999787509 ], [ 5639932.52116, 6168302.498839999549091 ], [ 5639943.973690000362694, 6168293.250769999809563 ], [ 5639954.464599999599159, 6168282.924689999781549 ], [ 5639963.892869999632239, 6168271.620040000416338 ], [ 5639972.16768, 6168259.445690000429749 ], [ 5639979.209350000135601, 6168246.51889 ], [ 5639984.950070000253618, 6168232.964130000211298 ], [ 5640025.857180000282824, 6168121.428519999608397 ], [ 5640030.24165999982506, 6168107.37634 ], [ 5640033.22767, 6168092.96208 ], [ 5640034.786449999548495, 6168078.324540000408888 ], [ 5640034.903, 6168063.6047 ], [ 5640033.5762, 6168048.944310000166297 ], [ 5640030.81881, 6168034.484570000320673 ], [ 5640027.679100000299513, 6168023.831410000100732 ], [ 5640050.98135, 6168030.94338 ], [ 5640067.82986, 6168036.755269999615848 ], [ 5640081.96428, 6168040.866879999637604 ], [ 5640096.43365, 6168043.573280000127852 ], [ 5640111.09863, 6168044.848399999551475 ], [ 5640125.817959999665618, 6168044.679949999786913 ], [ 5640140.44991, 6168043.069579999893904 ], [ 5640154.853559999726713, 6168040.032770000398159 ], [ 5640168.8902000002563, 6168035.598790000192821 ], [ 5640182.424630000256002, 6168029.810320000164211 ], [ 5640195.326530000194907, 6168022.723120000213385 ], [ 5640207.471629999577999, 6168014.405439999885857 ], [ 5640218.74297, 6168004.93738 ], [ 5640229.03201000019908, 6167994.410129999741912 ], [ 5640238.239649999886751, 6167982.925069999881089 ], [ 5640246.277230000123382, 6167970.592810000292957 ], [ 5640253.067320000380278, 6167957.53211 ], [ 5640258.544549999758601, 6167943.868750000372529 ], [ 5640262.656159999780357, 6167929.73433000035584 ], [ 5640265.362560000270605, 6167915.264960000291467 ], [ 5640266.63767, 6167900.599980000406504 ], [ 5640266.46923, 6167885.880649999715388 ], [ 5640264.85886, 6167871.248700000345707 ], [ 5640261.82204999960959, 6167856.845049999654293 ], [ 5640257.388059999793768, 6167842.80841 ], [ 5640251.599600000306964, 6167829.27398 ], [ 5640244.512400000356138, 6167816.372080000117421 ], [ 5640236.19472, 6167804.226979999803007 ], [ 5640226.726660000160336, 6167792.955640000291169 ], [ 5640216.199409999884665, 6167782.666600000113249 ], [ 5640204.71435, 6167773.458960000425577 ], [ 5640192.38209000043571, 6167765.421380000188947 ], [ 5640179.321390000171959, 6167758.63129 ], [ 5640165.65802999958396, 6167753.154059999622405 ], [ 5640146.26088, 6167746.463019999675453 ], [ 5640141.13363999966532, 6167744.796860000118613 ], [ 5640010.194260000251234, 6167704.833440000191331 ], [ 5640010.192510000430048, 6167704.832999999634922 ], [ 5640010.190790000371635, 6167704.832379999570549 ], [ 5639950.21203, 6167686.52812 ], [ 5639988.75599000044167, 6167579.795199999585748 ], [ 5639988.75605, 6167579.795049999840558 ], [ 5640027.177969999611378, 6167473.40049 ], [ 5640031.49246000032872, 6167459.326670000329614 ], [ 5640034.406700000166893, 6167444.89771999977529 ], [ 5640035.89262, 6167430.252609999850392 ], [ 5640035.935909999534488, 6167415.532370000146329 ], [ 5640034.536159999668598, 6167400.878770000301301 ], [ 5640031.706840000115335, 6167386.432930000126362 ], [ 5640027.475209999829531, 6167372.33397 ], [ 5640021.882020000368357, 6167358.717679999768734 ], [ 5640014.981130000203848, 6167345.715180000290275 ], [ 5640006.838999999687076, 6167333.451689999550581 ], [ 5639997.534040000289679, 6167322.045330000109971 ], [ 5639987.155880000442266, 6167311.605940000154078 ], [ 5639975.80444, 6167302.23405 ], [ 5639963.589060000143945, 6167294.019930000416934 ], [ 5639950.627380000427365, 6167287.04268 ], [ 5639937.044219999574125, 6167281.369490000419319 ], [ 5639922.9704, 6167277.054999999701977 ], [ 5639908.541450000368059, 6167274.140759999863803 ], [ 5639893.896340000443161, 6167272.65484 ], [ 5639879.176099999807775, 6167272.611549999564886 ], [ 5639864.5225, 6167274.011300000362098 ], [ 5639850.076659999787807, 6167276.840610000304878 ], [ 5639835.977699999697506, 6167281.072250000201166 ], [ 5639822.361410000361502, 6167286.66543999966234 ], [ 5639809.35891, 6167293.566329999826849 ], [ 5639797.095420000143349, 6167301.708460000343621 ], [ 5639785.689059999771416, 6167311.013419999741018 ], [ 5639775.249669999815524, 6167321.39157999958843 ], [ 5639765.877779999747872, 6167332.74302 ], [ 5639757.66366, 6167344.958399999886751 ], [ 5639750.6864, 6167357.920079999603331 ], [ 5639745.01322, 6167371.503240000456572 ], [ 5639706.591289999894798, 6167477.897789999842644 ], [ 5639706.59124, 6167477.897959999740124 ], [ 5639706.591230000369251, 6167477.897979999892414 ], [ 5639664.458639999851584, 6167594.568219999782741 ], [ 5639664.458639999851584, 6167594.568230000324547 ], [ 5639664.457550000399351, 6167594.57125 ], [ 5639614.46643, 6167732.993490000255406 ], [ 5639613.359930000267923, 6167736.602610000409186 ], [ 5639612.08201, 6167740.154849999584258 ], [ 5639611.203789999708533, 6167743.635429999791086 ], [ 5639610.15166, 6167747.067230000160635 ], [ 5639609.40424, 6167750.767459999769926 ], [ 5639608.480659999884665, 6167754.427819999866188 ], [ 5639607.947839999571443, 6167757.977640000171959 ], [ 5639607.237130000256002, 6167761.496120000258088 ], [ 5639606.85599, 6167765.251830000430346 ], [ 5639606.295640000142157, 6167768.98505000025034 ], [ 5639606.11333, 6167772.569969999603927 ], [ 5639605.75091, 6167776.141200000420213 ], [ 5639605.739729999564588, 6167779.91617 ], [ 5639605.548000000417233, 6167783.68635 ], [ 5639605.71796, 6167787.271990000270307 ] ] ] ] } },
{ "type": "Feature", "properties": { "enclave_id": "E07", "colectividad": "boliviana", "barrios_declarados": "Liniers", "estado_via_D": "abierta", "nivel_precision": "media-alta. Alta en el eje: cuatro fuentes independientes coincidentes, una de ellas arbitrada (Ciocoletto, AREA 25(2), FADU-UBA, 2019) y con extension metrica. Media en el borde exterior: la fuente academica cierra en Ventura Bosch, las periodisticas admiten 'cuadras adyacentes' sin delimitar.", "n_grupos_fuentes": "8", "es_normativa": "no", "designacion_oficial": "ninguna localizada", "advertencia": "NO CARGAR el cuadrante de la consigna como si estuviera verificado. Es un enclave real y bien cubierto por prensa, simplemente no se termino. RECUPERABLE EN UNA PASADA CORTA.", "metodo_geometria": "eje+buffer", "computa_via_D": "si", "n_tramos": 1, "largo_eje_m": 284.0, "motivo_no_computa": "", "buffer_m": 150, "ha": 15.58, "delimitacion_textual": "Eje: JOSE LEON SUAREZ entre Ramon Falcon y Ventura Bosch, aproximadamente 300 m. Transversales: Ramon Falcon, Ibarrola y Ventura Bosch. NO es un cuadrante cerrado: las fuentes describen un EJE CON TRANSVERSALES. Alturas documentadas del mercado: Jose Leon Suarez 100-300.", "desde": "mediados de los anos 80. Se dispara con el cierre del Mercado de Frutas y Verduras (1984) y de la Feria (1986); hacia 1985-1986 Jose Leon Suarez ya se estaba transformando en eje comercial boliviano (Lamas, Buenos Aires Historia). Nombres de uso local registrados: 'La Pequena Bolivia', 'La Feria Boliviana', 'El Microcentro Boliviano de Liniers'.", "reescrita_en": "ronda 4 · 2026-08-07" }, "geometry": { "type": "Polygon", "coordinates": [ [ [ 5634859.580649641342461, 6166132.332689103670418 ], [ 5634853.522247321903706, 6166278.248232990503311 ], [ 5634853.633992408402264, 6166292.968111141584814 ], [ 5634855.187999774701893, 6166307.606156121939421 ], [ 5634858.1693034786731, 6166322.021395557560027 ], [ 5634862.54919193778187, 6166336.075002810917795 ], [ 5634868.285484431311488, 6166349.631633962504566 ], [ 5634875.322937325574458, 6166362.560731244273484 ], [ 5634883.593776104040444, 6166374.737780380062759 ], [ 5634893.018348067067564, 6166386.04550973046571 ], [ 5634903.505889434367418, 6166396.375019680708647 ], [ 5634914.955399449914694, 6166405.626831403933465 ], [ 5634927.256613072939217, 6166413.711844895035028 ], [ 5634940.291062892414629, 6166420.552197054028511 ], [ 5634953.933220030739903, 6166426.082011550664902 ], [ 5634968.051703057251871, 6166430.248033247888088 ], [ 5634982.510543261654675, 6166433.010141081176698 ], [ 5634997.170494110323489, 6166434.34173444006592 ], [ 5635011.890372261404991, 6166434.229989353567362 ], [ 5635026.528417241759598, 6166432.675981987267733 ], [ 5635040.943656677380204, 6166429.694678283296525 ], [ 5635054.997263930737972, 6166425.314789824187756 ], [ 5635068.553895082324743, 6166419.578497330658138 ], [ 5635081.482992364093661, 6166412.541044436395168 ], [ 5635093.660041499882936, 6166404.270205657929182 ], [ 5635104.967770850285888, 6166394.845633694902062 ], [ 5635115.297280800528824, 6166384.358092327602208 ], [ 5635124.549092523753643, 6166372.908582312054932 ], [ 5635132.634106014855206, 6166360.607368689030409 ], [ 5635139.474458173848689, 6166347.572918869554996 ], [ 5635145.004272670485079, 6166333.930761731229722 ], [ 5635149.170294367708266, 6166319.812278704717755 ], [ 5635151.932402200996876, 6166305.353438500314951 ], [ 5635153.263995559886098, 6166290.693487651646137 ], [ 5635159.32258125860244, 6166144.773527106270194 ], [ 5635159.322547594085336, 6166144.769092628732324 ], [ 5635159.322948485612869, 6166144.764676190912724 ], [ 5635165.036356078460813, 6166006.961924514733255 ], [ 5635164.923741682432592, 6165992.242052988149226 ], [ 5635163.368869842030108, 6165977.604099807329476 ], [ 5635160.386714824475348, 6165963.189036464318633 ], [ 5635156.005996410734951, 6165949.135687897913158 ], [ 5635150.268903315067291, 6165935.579395537264645 ], [ 5635143.230686880648136, 6165922.650713887996972 ], [ 5635134.959128978662193, 6165910.474153223447502 ], [ 5635125.533889233134687, 6165899.166980477981269 ], [ 5635115.045737855136395, 6165888.838089907541871 ], [ 5635103.595681476406753, 6165879.586954372934997 ], [ 5635091.293990399688482, 6165871.502667367458344 ], [ 5635078.259136633016169, 6165864.663084994070232 ], [ 5635064.616652945056558, 6165859.13407616969198 ], [ 5635050.497923910617828, 6165854.968888273462653 ], [ 5635036.03892061021179, 6165852.207634339109063 ], [ 5635021.37889114767313, 6165850.876906753517687 ], [ 5635006.659019621089101, 6165850.989521149545908 ], [ 5634992.021066440269351, 6165852.544392989948392 ], [ 5634977.606003097258508, 6165855.526548007503152 ], [ 5634963.552654530853033, 6165859.907266421243548 ], [ 5634949.99636217020452, 6165865.644359516911209 ], [ 5634937.067680520936847, 6165872.682575951330364 ], [ 5634924.891119856387377, 6165880.954133853316307 ], [ 5634913.583947110921144, 6165890.379373598843813 ], [ 5634903.255056540481746, 6165900.867524976842105 ], [ 5634894.003921005874872, 6165912.317581355571747 ], [ 5634885.919634000398219, 6165924.619272432290018 ], [ 5634879.080051627010107, 6165937.654126198962331 ], [ 5634873.551042802631855, 6165951.296609886921942 ], [ 5634869.385854906402528, 6165965.415338921360672 ], [ 5634866.624600972048938, 6165979.87434222176671 ], [ 5634865.293873386457562, 6165994.53437168430537 ], [ 5634859.580649641342461, 6166132.332689103670418 ] ] ] } },
{ "type": "Feature", "properties": { "enclave_id": "E09", "colectividad": "coreana (desplazamiento a Retiro y Microcentro norte)", "barrios_declarados": "Retiro / San Nicolas", "estado_via_D": "abierta", "nivel_precision": "media (dos fuentes separadas por siete anos trazan la misma linea)", "n_grupos_fuentes": "2", "es_normativa": "no", "designacion_oficial": "ninguna. Existe la Asociacion Hansang de Gastronomicos Coreanos (entidad gremial).", "advertencia": "CONTRADICCION ENTRE MIS DOS FRENTES: el relevamiento de enclaves concluyo que NO hay enclave coreano en Retiro y recomendo no crear la fila; el relevamiento del norte encontro Info Gastronomica 2019 mas La Nacion 10/05/2026 con direccionario de 25 restaurantes y entidad gremial. GANA EL SEGUNDO: tiene fuente de prensa nacional de hace tres meses. El primero no llego a esa nota.", "metodo_geometria": "puntos+buffer", "computa_via_D": "si", "n_tramos": 6, "largo_eje_m": 0.0, "motivo_no_computa": "", "buffer_m": 150, "ha": 30.84, "delimitacion_textual": null, "desde": null, "reescrita_en": null }, "geometry": { "type": "MultiPolygon", "coordinates": [ [ [ [ 5649307.140457443892956, 6170544.796258655376732 ], [ 5649306.418166444636881, 6170530.093687606044114 ], [ 5649304.258249504491687, 6170515.532710352912545 ], [ 5649300.681507803499699, 6170501.253557067364454 ], [ 5649295.722387320362031, 6170487.393743800930679 ], [ 5649289.428647096268833, 6170474.086748131550848 ], [ 5649281.860899289138615, 6170461.460723702795804 ], [ 5649273.092025448568165, 6170449.637266030535102 ], [ 5649263.206474621780217, 6170438.730241477489471 ], [ 5649252.299450068734586, 6170428.844690650701523 ], [ 5649240.475992396473885, 6170420.075816810131073 ], [ 5649227.84996796771884, 6170412.508069003000855 ], [ 5649214.542972298339009, 6170406.214328778907657 ], [ 5649200.683159031905234, 6170401.255208295769989 ], [ 5649186.404005746357143, 6170397.678466594778001 ], [ 5649171.843028493225574, 6170395.518549654632807 ], [ 5649157.140457443892956, 6170394.796258655376732 ], [ 5649142.437886394560337, 6170395.518549654632807 ], [ 5649127.876909141428769, 6170397.678466594778001 ], [ 5649113.597755855880678, 6170401.255208295769989 ], [ 5649099.737942589446902, 6170406.214328778907657 ], [ 5649086.430946920067072, 6170412.508069003000855 ], [ 5649073.804922491312027, 6170420.075816810131073 ], [ 5649061.981464819051325, 6170428.844690650701523 ], [ 5649051.074440266005695, 6170438.730241477489471 ], [ 5649041.188889439217746, 6170449.637266030535102 ], [ 5649032.420015598647296, 6170461.460723702795804 ], [ 5649024.852267791517079, 6170474.086748131550848 ], [ 5649018.55852756742388, 6170487.393743800930679 ], [ 5649013.599407084286213, 6170501.253557067364454 ], [ 5649010.022665383294225, 6170515.532710352912545 ], [ 5649007.86274844314903, 6170530.093687606044114 ], [ 5649007.140457443892956, 6170544.796258655376732 ], [ 5649007.86274844314903, 6170559.498829704709351 ], [ 5649010.022665383294225, 6170574.059806957840919 ], [ 5649013.599407084286213, 6170588.33896024338901 ], [ 5649018.55852756742388, 6170602.198773509822786 ], [ 5649024.852267791517079, 6170615.505769179202616 ], [ 5649032.420015598647296, 6170628.131793607957661 ], [ 5649041.188889439217746, 6170639.955251280218363 ], [ 5649051.074440266005695, 6170650.862275833263993 ], [ 5649061.981464819051325, 6170660.747826660051942 ], [ 5649073.804922491312027, 6170669.516700500622392 ], [ 5649086.430946920067072, 6170677.084448307752609 ], [ 5649099.737942589446902, 6170683.378188531845808 ], [ 5649113.597755855880678, 6170688.337309014983475 ], [ 5649127.876909141428769, 6170691.914050715975463 ], [ 5649142.437886394560337, 6170694.073967656120658 ], [ 5649157.140457443892956, 6170694.796258655376732 ], [ 5649171.843028493225574, 6170694.073967656120658 ], [ 5649186.404005746357143, 6170691.914050715975463 ], [ 5649200.683159031905234, 6170688.337309014983475 ], [ 5649214.542972298339009, 6170683.378188531845808 ], [ 5649227.84996796771884, 6170677.084448307752609 ], [ 5649240.475992396473885, 6170669.516700500622392 ], [ 5649252.299450068734586, 6170660.747826660051942 ], [ 5649263.206474621780217, 6170650.862275833263993 ], [ 5649273.092025448568165, 6170639.955251280218363 ], [ 5649281.860899289138615, 6170628.131793607957661 ], [ 5649289.428647096268833, 6170615.505769179202616 ], [ 5649295.722387320362031, 6170602.198773509822786 ], [ 5649300.681507803499699, 6170588.33896024338901 ], [ 5649304.258249504491687, 6170574.059806957840919 ], [ 5649306.418166444636881, 6170559.498829704709351 ], [ 5649307.140457443892956, 6170544.796258655376732 ] ] ], [ [ [ 5648586.241483286954463, 6170935.222346153110266 ], [ 5648585.548582372255623, 6170949.326668294146657 ], [ 5648586.270873371511698, 6170964.029239343479276 ], [ 5648588.430790311656892, 6170978.590216596610844 ], [ 5648592.00753201264888, 6170992.869369882158935 ], [ 5648596.966652495786548, 6171006.72918314859271 ], [ 5648603.260392719879746, 6171020.036178817972541 ], [ 5648610.828140527009964, 6171032.662203246727586 ], [ 5648619.597014367580414, 6171044.485660918988287 ], [ 5648629.482565194368362, 6171055.392685472033918 ], [ 5648640.389589747413993, 6171065.278236298821867 ], [ 5648652.213047419674695, 6171074.047110139392316 ], [ 5648664.839071848429739, 6171081.614857946522534 ], [ 5648678.14606751780957, 6171087.908598170615733 ], [ 5648692.005880784243345, 6171092.8677186537534 ], [ 5648706.285034069791436, 6171096.444460354745388 ], [ 5648720.846011322923005, 6171098.604377294890583 ], [ 5648735.548582372255623, 6171099.326668294146657 ], [ 5648750.251153421588242, 6171098.604377294890583 ], [ 5648764.81213067471981, 6171096.444460354745388 ], [ 5648779.091283960267901, 6171092.8677186537534 ], [ 5648792.951097226701677, 6171087.908598170615733 ], [ 5648806.258092896081507, 6171081.614857946522534 ], [ 5648818.884117324836552, 6171074.047110139392316 ], [ 5648830.707574997097254, 6171065.278236298821867 ], [ 5648836.406147388741374, 6171060.113351344130933 ], [ 5648848.938335065729916, 6171064.597439795732498 ], [ 5648863.217488351278007, 6171068.174181496724486 ], [ 5648877.778465604409575, 6171070.334098436869681 ], [ 5648892.481036653742194, 6171071.056389436125755 ], [ 5648907.183607703074813, 6171070.334098436869681 ], [ 5648921.744584956206381, 6171068.174181496724486 ], [ 5648936.023738241754472, 6171064.597439795732498 ], [ 5648949.883551508188248, 6171059.638319312594831 ], [ 5648963.190547177568078, 6171053.344579088501632 ], [ 5648975.816571606323123, 6171045.776831281371415 ], [ 5648987.640029278583825, 6171037.007957440800965 ], [ 5648998.547053831629455, 6171027.122406614013016 ], [ 5649008.432604658417404, 6171016.215382060967386 ], [ 5649017.201478498987854, 6171004.391924388706684 ], [ 5649024.769226306118071, 6170991.765899959951639 ], [ 5649031.06296653021127, 6170978.458904290571809 ], [ 5649036.022087013348937, 6170964.599091024138033 ], [ 5649039.598828714340925, 6170950.319937738589942 ], [ 5649041.75874565448612, 6170935.758960485458374 ], [ 5649042.481036653742194, 6170921.056389436125755 ], [ 5649041.75874565448612, 6170906.353818386793137 ], [ 5649039.598828714340925, 6170891.792841133661568 ], [ 5649036.022087013348937, 6170877.513687848113477 ], [ 5649031.06296653021127, 6170863.653874581679702 ], [ 5649024.769226306118071, 6170850.346878912299871 ], [ 5649017.201478498987854, 6170837.720854483544827 ], [ 5649008.432604658417404, 6170825.897396811284125 ], [ 5648998.547053831629455, 6170814.990372258238494 ], [ 5648987.640029278583825, 6170805.104821431450546 ], [ 5648975.816571606323123, 6170796.335947590880096 ], [ 5648963.190547177568078, 6170788.768199783749878 ], [ 5648949.883551508188248, 6170782.47445955965668 ], [ 5648936.023738241754472, 6170777.515339076519012 ], [ 5648921.744584956206381, 6170773.938597375527024 ], [ 5648907.183607703074813, 6170771.77868043538183 ], [ 5648892.481036653742194, 6170771.056389436125755 ], [ 5648877.778465604409575, 6170771.77868043538183 ], [ 5648863.217488351278007, 6170773.938597375527024 ], [ 5648857.962492696009576, 6170775.254905262961984 ], [ 5648856.723010485991836, 6170770.306614903733134 ], [ 5648851.763890002854168, 6170756.446801637299359 ], [ 5648845.47014977876097, 6170743.139805967919528 ], [ 5648837.902401971630752, 6170730.513781539164484 ], [ 5648829.133528131060302, 6170718.690323866903782 ], [ 5648819.247977304272354, 6170707.783299313858151 ], [ 5648808.340952751226723, 6170697.897748487070203 ], [ 5648796.517495078966022, 6170689.128874646499753 ], [ 5648783.891470650210977, 6170681.561126839369535 ], [ 5648770.584474980831146, 6170675.267386615276337 ], [ 5648756.724661714397371, 6170670.308266132138669 ], [ 5648742.44550842884928, 6170666.731524431146681 ], [ 5648727.884531175717711, 6170664.571607491001487 ], [ 5648713.181960126385093, 6170663.849316491745412 ], [ 5648710.675237830728292, 6170663.972463861107826 ], [ 5648704.369751559570432, 6170661.716324797831476 ], [ 5648690.090598274022341, 6170658.139583096839488 ], [ 5648675.529621020890772, 6170655.979666156694293 ], [ 5648660.827049971558154, 6170655.257375157438219 ], [ 5648646.124478922225535, 6170655.979666156694293 ], [ 5648631.563501669093966, 6170658.139583096839488 ], [ 5648617.284348383545876, 6170661.716324797831476 ], [ 5648603.4245351171121, 6170666.675445280969143 ], [ 5648590.11753944773227, 6170672.969185505062342 ], [ 5648577.491515018977225, 6170680.536933312192559 ], [ 5648565.668057346716523, 6170689.305807152763009 ], [ 5648554.761032793670893, 6170699.191357979550958 ], [ 5648544.875481966882944, 6170710.098382532596588 ], [ 5648536.106608126312494, 6170721.92184020485729 ], [ 5648528.538860319182277, 6170734.547864633612335 ], [ 5648522.245120095089078, 6170747.854860302992165 ], [ 5648517.285999611951411, 6170761.714673569425941 ], [ 5648513.709257910959423, 6170775.993826854974031 ], [ 5648511.549340970814228, 6170790.5548041081056 ], [ 5648510.827049971558154, 6170805.257375157438219 ], [ 5648511.549340970814228, 6170819.959946206770837 ], [ 5648513.709257910959423, 6170834.520923459902406 ], [ 5648517.285999611951411, 6170848.800076745450497 ], [ 5648522.245120095089078, 6170862.659890011884272 ], [ 5648528.538860319182277, 6170875.966885681264102 ], [ 5648536.106608126312494, 6170888.592910110019147 ], [ 5648544.875481966882944, 6170900.416367782279849 ], [ 5648554.761032793670893, 6170911.32339233532548 ], [ 5648565.668057346716523, 6170921.208943162113428 ], [ 5648577.491515018977225, 6170929.977817002683878 ], [ 5648586.241483286954463, 6170935.222346153110266 ] ] ], [ [ [ 5648633.751219932921231, 6171162.340725631453097 ], [ 5648633.028928933665156, 6171147.638154582120478 ], [ 5648630.869011993519962, 6171133.07717732898891 ], [ 5648627.292270292527974, 6171118.798024043440819 ], [ 5648622.333149809390306, 6171104.938210777007043 ], [ 5648616.039409585297108, 6171091.631215107627213 ], [ 5648608.47166177816689, 6171079.005190678872168 ], [ 5648599.70278793759644, 6171067.181733006611466 ], [ 5648589.817237110808492, 6171056.274708453565836 ], [ 5648578.910212557762861, 6171046.389157626777887 ], [ 5648567.08675488550216, 6171037.620283786207438 ], [ 5648554.460730456747115, 6171030.05253597907722 ], [ 5648541.153734787367284, 6171023.758795754984021 ], [ 5648527.293921520933509, 6171018.799675271846354 ], [ 5648513.014768235385418, 6171015.222933570854366 ], [ 5648498.45379098225385, 6171013.063016630709171 ], [ 5648483.751219932921231, 6171012.340725631453097 ], [ 5648469.048648883588612, 6171013.063016630709171 ], [ 5648454.487671630457044, 6171015.222933570854366 ], [ 5648440.208518344908953, 6171018.799675271846354 ], [ 5648426.348705078475177, 6171023.758795754984021 ], [ 5648413.041709409095347, 6171030.05253597907722 ], [ 5648400.415684980340302, 6171037.620283786207438 ], [ 5648388.5922273080796, 6171046.389157626777887 ], [ 5648377.68520275503397, 6171056.274708453565836 ], [ 5648367.799651928246021, 6171067.181733006611466 ], [ 5648359.030778087675571, 6171079.005190678872168 ], [ 5648351.463030280545354, 6171091.631215107627213 ], [ 5648345.169290056452155, 6171104.938210777007043 ], [ 5648340.210169573314488, 6171118.798024043440819 ], [ 5648336.6334278723225, 6171133.07717732898891 ], [ 5648334.473510932177305, 6171147.638154582120478 ], [ 5648333.751219932921231, 6171162.340725631453097 ], [ 5648334.473510932177305, 6171177.043296680785716 ], [ 5648336.6334278723225, 6171191.604273933917284 ], [ 5648340.210169573314488, 6171205.883427219465375 ], [ 5648345.169290056452155, 6171219.74324048589915 ], [ 5648351.463030280545354, 6171233.050236155278981 ], [ 5648359.030778087675571, 6171245.676260584034026 ], [ 5648367.799651928246021, 6171257.499718256294727 ], [ 5648377.68520275503397, 6171268.406742809340358 ], [ 5648388.5922273080796, 6171278.292293636128306 ], [ 5648400.415684980340302, 6171287.061167476698756 ], [ 5648413.041709409095347, 6171294.628915283828974 ], [ 5648426.348705078475177, 6171300.922655507922173 ], [ 5648440.208518344908953, 6171305.88177599105984 ], [ 5648454.487671630457044, 6171309.458517692051828 ], [ 5648469.048648883588612, 6171311.618434632197022 ], [ 5648483.751219932921231, 6171312.340725631453097 ], [ 5648498.45379098225385, 6171311.618434632197022 ], [ 5648513.014768235385418, 6171309.458517692051828 ], [ 5648527.293921520933509, 6171305.88177599105984 ], [ 5648541.153734787367284, 6171300.922655507922173 ], [ 5648554.460730456747115, 6171294.628915283828974 ], [ 5648567.08675488550216, 6171287.061167476698756 ], [ 5648578.910212557762861, 6171278.292293636128306 ], [ 5648589.817237110808492, 6171268.406742809340358 ], [ 5648599.70278793759644, 6171257.499718256294727 ], [ 5648608.47166177816689, 6171245.676260584034026 ], [ 5648616.039409585297108, 6171233.050236155278981 ], [ 5648622.333149809390306, 6171219.74324048589915 ], [ 5648627.292270292527974, 6171205.883427219465375 ], [ 5648630.869011993519962, 6171191.604273933917284 ], [ 5648633.028928933665156, 6171177.043296680785716 ], [ 5648633.751219932921231, 6171162.340725631453097 ] ] ] ] } }
]
}
