{
"type": "FeatureCollection",
"name": "enclaves_comunitarios",
"crs": { "type": "name", "properties": { "name": "urn:ogc:def:crs:EPSG::5347" } },
"features": [
{ "type": "Feature", "properties": { "enclave": "Barrio Chino", "n_tramos": 2, "largo_eje_m": 384.7, "buffer_m": 150, "ha": 17.63 }, "geometry": { "type": "Polygon", "coordinates": [ [ [ 5641986.521739242598414, 6175430.186267151497304 ], [ 5641978.742195925675333, 6175442.68290692102164 ], [ 5641972.224998129531741, 6175455.881900543347001 ], [ 5641967.032910032197833, 6175469.656134494580328 ], [ 5641963.215934280306101, 6175483.872955371625721 ], [ 5641960.810830437578261, 6175498.395447419025004 ], [ 5641959.840760967694223, 6175513.083751098252833 ], [ 5641960.315068170428276, 6175527.796410015784204 ], [ 5641962.2291842084378, 6175542.391733223572373 ], [ 5641965.564675097353756, 6175556.729159780777991 ], [ 5641970.289418236352503, 6175570.670612432062626 ], [ 5641976.357911767438054, 6175584.08182736672461 ], [ 5641983.711712778545916, 6175596.833647253923118 ], [ 5641992.28000014834106, 6175608.803265096619725 ], [ 5642001.980256583541632, 6175619.875406933017075 ], [ 5642012.719063312746584, 6175629.943441983312368 ], [ 5642024.39299975708127, 6175638.910409566946328 ], [ 5642036.889639526605606, 6175646.68995288386941 ], [ 5642050.088633148930967, 6175653.207150680013001 ], [ 5642063.862867100164294, 6175658.399238777346909 ], [ 5642078.079687977209687, 6175662.216214529238641 ], [ 5642092.60218002460897, 6175664.621318371966481 ], [ 5642107.290483703836799, 6175665.591387841850519 ], [ 5642122.00314262136817, 6175665.117080639116466 ], [ 5642136.598465829156339, 6175663.202964601106942 ], [ 5642150.935892386361957, 6175659.867473712190986 ], [ 5642164.877345037646592, 6175655.142730573192239 ], [ 5642178.288559972308576, 6175649.074237042106688 ], [ 5642191.040379859507084, 6175641.720436030998826 ], [ 5642203.009997702203691, 6175633.152148661203682 ], [ 5642214.082139538601041, 6175623.45189222600311 ], [ 5642217.52935453876853, 6175619.77501034643501 ], [ 5642224.335363890975714, 6175623.328696310520172 ], [ 5642237.988997188396752, 6175628.830114086158574 ], [ 5642252.116117746569216, 6175632.966750940307975 ], [ 5642266.580673674121499, 6175635.698768799193203 ], [ 5642281.243363388814032, 6175636.99985683709383 ], [ 5642295.962977173738182, 6175636.857484865002334 ], [ 5642310.59775710105896, 6175635.273024003021419 ], [ 5642325.006762241013348, 6175632.261733475141227 ], [ 5642339.051225995644927, 6175627.852613655850291 ], [ 5642352.59589250292629, 6175622.0881267786026 ], [ 5642365.510319219902158, 6175615.023788003250957 ], [ 5642377.670133156701922, 6175606.727630774490535 ], [ 5642388.958228658884764, 6175597.27955162152648 ], [ 5642399.26589519623667, 6175586.770540710538626 ], [ 5642408.493864303454757, 6175575.301805563271046 ], [ 5642416.553265595808625, 6175562.983796366490424 ], [ 5642423.36648263130337, 6175549.935142283327878 ], [ 5642428.867900406941772, 6175536.281508985906839 ], [ 5642433.004537261091173, 6175522.154388427734375 ], [ 5642435.736555119976401, 6175507.689832500182092 ], [ 5642437.037643157877028, 6175493.027142785489559 ], [ 5642436.895271185785532, 6175478.30752900056541 ], [ 5642435.310810323804617, 6175463.672749073244631 ], [ 5642432.299519795924425, 6175449.263743933290243 ], [ 5642427.890399976633489, 6175435.219280178658664 ], [ 5642422.125913099385798, 6175421.674613671377301 ], [ 5642415.061574324034154, 6175408.760186954401433 ], [ 5642406.765417095273733, 6175396.600373017601669 ], [ 5642397.317337942309678, 6175385.312277515418828 ], [ 5642387.667710403911769, 6175375.847529241815209 ], [ 5642392.725266558118165, 6175365.603870780207217 ], [ 5642397.91692079231143, 6175351.829473295249045 ], [ 5642401.733448741026223, 6175337.612532197497785 ], [ 5642404.138095153495669, 6175323.089964401908219 ], [ 5642405.107701971195638, 6175308.40163017436862 ], [ 5642404.632931349799037, 6175293.688986204564571 ], [ 5642402.718355589546263, 6175279.093723294325173 ], [ 5642399.382413102313876, 6175264.756401805207133 ], [ 5642394.65723083820194, 6175250.815097981132567 ], [ 5642388.588314884342253, 6175237.404074198566377 ], [ 5642381.234112219884992, 6175224.652485948055983 ], [ 5642372.665447835810483, 6175212.683137994259596 ], [ 5642362.964842655695975, 6175201.611301702447236 ], [ 5642352.225718808360398, 6175191.54360490757972 ], [ 5642340.551499928347766, 6175182.577005033381283 ], [ 5642328.054615125991404, 6175174.79785533901304 ], [ 5642314.855416231788695, 6175168.281073288060725 ], [ 5642301.081018746830523, 6175163.089419053867459 ], [ 5642286.864077649079263, 6175159.272891105152667 ], [ 5642272.341509853489697, 6175156.86824469268322 ], [ 5642257.653175625950098, 6175155.898637874983251 ], [ 5642242.940531656146049, 6175156.373408496379852 ], [ 5642228.345268745906651, 6175158.287984256632626 ], [ 5642214.007947256788611, 6175161.623926743865013 ], [ 5642200.066643432714045, 6175166.349109007976949 ], [ 5642186.655619650147855, 6175172.418024961836636 ], [ 5642173.904031399637461, 6175179.772227626293898 ], [ 5642161.934683445841074, 6175188.340892010368407 ], [ 5642150.862847154028714, 6175198.041497190482914 ], [ 5642140.795150359161198, 6175208.780621037818491 ], [ 5642131.828550484962761, 6175220.454839917831123 ], [ 5642057.875210138037801, 6175327.200366591103375 ], [ 5641986.521739242598414, 6175430.186267151497304 ] ] ] } },
{ "type": "Feature", "properties": { "enclave": "Barrio Coreano Baek-ku", "n_tramos": 1, "largo_eje_m": 767.9, "buffer_m": 150, "ha": 30.05 }, "geometry": { "type": "Polygon", "coordinates": [ [ [ 5641986.509772447869182, 6166295.123797978274524 ], [ 5641900.206882427446544, 6166365.591620575636625 ], [ 5641889.15724020358175, 6166375.567528914660215 ], [ 5641879.150849500671029, 6166386.589574350044131 ], [ 5641870.286268084309995, 6166398.549195447005332 ], [ 5641862.650807484984398, 6166411.328596133738756 ], [ 5641856.319673035293818, 6166424.801905936561525 ], [ 5641851.861994538456202, 6166435.657566864043474 ], [ 5641847.231297786347568, 6166448.590515601448715 ], [ 5641843.803174623288214, 6166461.892864529974759 ], [ 5641841.606376264244318, 6166475.453048614785075 ], [ 5641840.659326965920627, 6166489.157340390607715 ], [ 5641840.969969503581524, 6166502.890803780406713 ], [ 5641842.535698561929166, 6166516.538258046843112 ], [ 5641843.924383932724595, 6166525.141527819447219 ], [ 5641846.980316698551178, 6166539.541131101548672 ], [ 5641851.432942247949541, 6166553.571862567216158 ], [ 5641857.239379364065826, 6166567.098598602227867 ], [ 5641864.343708883039653, 6166579.991069344803691 ], [ 5641872.677512226626277, 6166592.125113253481686 ], [ 5641882.160530313849449, 6166603.383872852660716 ], [ 5641892.701436497271061, 6166613.658920131623745 ], [ 5641904.19871608633548, 6166622.851300769485533 ], [ 5641916.541643995791674, 6166630.872487114742398 ], [ 5641929.611351080238819, 6166637.645230758935213 ], [ 5641943.281968917697668, 6166643.104306477122009 ], [ 5641957.421841983683407, 6166647.197140387259424 ], [ 5641971.894795572385192, 6166649.884316260926425 ], [ 5641986.561447228305042, 6166651.139955125749111 ], [ 5642001.280549078248441, 6166650.951964491978288 ], [ 5642015.910348125733435, 6166649.322154812514782 ], [ 5642030.309951407834888, 6166646.266222046688199 ], [ 5642044.340682873502374, 6166641.813596497289836 ], [ 5642057.867418908514082, 6166636.007159381173551 ], [ 5642070.759889651089907, 6166628.902829862199724 ], [ 5642082.893933559767902, 6166620.5690265186131 ], [ 5642094.152693158946931, 6166611.086008431389928 ], [ 5642104.427740437909961, 6166600.545102247968316 ], [ 5642113.620121075771749, 6166589.047822658903897 ], [ 5642121.641307421028614, 6166576.704894749447703 ], [ 5642125.787837019190192, 6166568.703126174397767 ], [ 5642177.657544748857617, 6166526.350600533187389 ], [ 5642179.008445559069514, 6166525.132332534529269 ], [ 5642180.445647648535669, 6166524.017182298004627 ], [ 5642263.406653894111514, 6166452.858208782970905 ], [ 5642265.526125232689083, 6166450.851574815809727 ], [ 5642267.760745154693723, 6166448.974019908346236 ], [ 5642384.785205138847232, 6166340.418765700422227 ], [ 5642385.794313959777355, 6166339.386050650849938 ], [ 5642386.881715950556099, 6166338.436125447042286 ], [ 5642474.003956041298807, 6166254.443827917799354 ], [ 5642560.205953042022884, 6166172.578105917200446 ], [ 5642618.191792738623917, 6166119.556275227107108 ], [ 5642629.496339173987508, 6166113.440695372410119 ], [ 5642641.694606401026249, 6166105.201182254590094 ], [ 5642653.026522123254836, 6166095.805705374106765 ], [ 5642663.382953797467053, 6166085.344748308882117 ], [ 5642672.664163326844573, 6166073.919055794365704 ], [ 5642680.780767588876188, 6166061.638663495890796 ], [ 5642687.6545992475003, 6166048.62183830421418 ], [ 5642693.2194595457986, 6166034.99393936060369 ], [ 5642697.421755838207901, 6166020.886210782453418 ], [ 5642700.221017713658512, 6166006.434517708607018 ], [ 5642701.5902867494151, 6165991.778037843294442 ], [ 5642701.516376137733459, 6165977.057921098545194 ], [ 5642699.999997676350176, 6165962.415930246002972 ], [ 5642697.055754920467734, 6165947.99307566229254 ], [ 5642692.712002535350621, 6165933.92825732100755 ], [ 5642687.010573233477771, 6165920.356927111744881 ], [ 5642680.006374893710017, 6165907.409784362651408 ], [ 5642671.766861775889993, 6165895.211517135612667 ], [ 5642662.371384895406663, 6165883.87960141338408 ], [ 5642651.910427830182016, 6165873.523169739171863 ], [ 5642640.484735315665603, 6165864.241960209794343 ], [ 5642628.204343017190695, 6165856.125355947762728 ], [ 5642615.187517825514078, 6165849.251524289138615 ], [ 5642601.559618881903589, 6165843.686663990840316 ], [ 5642587.451890303753316, 6165839.484367698431015 ], [ 5642573.000197229906917, 6165836.685105822980404 ], [ 5642558.34371736459434, 6165835.315836787223816 ], [ 5642543.623600619845092, 6165835.389747398905456 ], [ 5642528.981609767302871, 6165836.906125860288739 ], [ 5642514.558755183592439, 6165839.850368616171181 ], [ 5642500.493936842307448, 6165844.194121001288295 ], [ 5642485.78727016877383, 6165849.539697229862213 ], [ 5642472.236961568705738, 6165855.231056589633226 ], [ 5642459.308665802702308, 6165862.221164108254015 ], [ 5642447.126495908945799, 6165870.4429139951244 ], [ 5642435.807402037084103, 6165879.817376563325524 ], [ 5642356.716549049131572, 6165952.137478129938245 ], [ 5642355.718249855563045, 6165953.14460012037307 ], [ 5642354.64332358725369, 6165954.069494443014264 ], [ 5642267.005660542286932, 6166037.298663246445358 ], [ 5642266.616597155109048, 6166037.706286696717143 ], [ 5642266.192223626188934, 6166038.077008025720716 ], [ 5642179.703445613384247, 6166121.458601156249642 ], [ 5642065.876042347401381, 6166227.048173618502915 ], [ 5641986.509772447869182, 6166295.123797978274524 ] ] ] } },
{ "type": "Feature", "properties": { "enclave": "Pasaje Ruperto Godoy", "n_tramos": 1, "largo_eje_m": 118.3, "buffer_m": 150, "ha": 10.61 }, "geometry": { "type": "Polygon", "coordinates": [ [ [ 5639545.149124510586262, 6168083.652827479876578 ], [ 5639540.930130165070295, 6168097.755571413785219 ], [ 5639538.113762061111629, 6168112.203940541483462 ], [ 5639536.727143364958465, 6168126.858789171092212 ], [ 5639536.783627970144153, 6168141.578983097337186 ], [ 5639538.282671901397407, 6168156.222758807241917 ], [ 5639541.209838544018567, 6168170.649088735692203 ], [ 5639545.536937684752047, 6168184.719039438292384 ], [ 5639551.222296993248165, 6168198.297109599225223 ], [ 5639558.211163350380957, 6168211.252534979954362 ], [ 5639566.436230153776705, 6168223.460547751747072 ], [ 5639575.81828551273793, 6168234.803578077815473 ], [ 5639586.266975106671453, 6168245.172386376187205 ], [ 5639597.681672342121601, 6168254.467115353792906 ], [ 5639609.952447445131838, 6168262.598251690156758 ], [ 5639622.961126143112779, 6168269.487488098442554 ], [ 5639636.582427749410272, 6168275.068477463908494 ], [ 5639650.685171683318913, 6168279.28747180942446 ], [ 5639665.133540811017156, 6168282.103839913383126 ], [ 5639679.788389440625906, 6168283.49045860953629 ], [ 5639694.50858336687088, 6168283.433974004350603 ], [ 5639709.15235907677561, 6168281.934930073097348 ], [ 5639723.578689005225897, 6168279.007763430476189 ], [ 5639737.648639707826078, 6168274.680664289742708 ], [ 5639751.226709868758917, 6168268.995304981246591 ], [ 5639764.182135249488056, 6168262.006438624113798 ], [ 5639776.390148021280766, 6168253.78137182071805 ], [ 5639787.733178347349167, 6168244.399316461756825 ], [ 5639798.101986645720899, 6168233.950626867823303 ], [ 5639807.3967156233266, 6168222.535929632373154 ], [ 5639815.527851959690452, 6168210.265154529362917 ], [ 5639822.417088367976248, 6168197.256475831381977 ], [ 5639827.998077733442187, 6168183.635174225084484 ], [ 5639867.435440314002335, 6168072.067311627790332 ], [ 5639871.654434659518301, 6168057.964567693881691 ], [ 5639874.470802763476968, 6168043.516198566183448 ], [ 5639875.857421459630132, 6168028.861349936574697 ], [ 5639875.800936854444444, 6168014.141156010329723 ], [ 5639874.30189292319119, 6167999.497380300424993 ], [ 5639871.37472628057003, 6167985.071050371974707 ], [ 5639867.04762713983655, 6167971.001099669374526 ], [ 5639861.362267831340432, 6167957.423029508441687 ], [ 5639854.37340147420764, 6167944.467604127712548 ], [ 5639846.148334670811892, 6167932.259591355919838 ], [ 5639836.766279311850667, 6167920.916561029851437 ], [ 5639826.317589717917144, 6167910.547752731479704 ], [ 5639814.902892482466996, 6167901.253023753874004 ], [ 5639802.632117379456758, 6167893.121887417510152 ], [ 5639789.623438681475818, 6167886.232651009224355 ], [ 5639776.002137075178325, 6167880.651661643758416 ], [ 5639761.899393141269684, 6167876.43266729824245 ], [ 5639747.451024013571441, 6167873.616299194283783 ], [ 5639732.796175383962691, 6167872.22968049813062 ], [ 5639718.075981457717717, 6167872.286165103316307 ], [ 5639703.432205747812986, 6167873.785209034569561 ], [ 5639689.0058758193627, 6167876.712375677190721 ], [ 5639674.935925116762519, 6167881.039474817924201 ], [ 5639661.35785495582968, 6167886.724834126420319 ], [ 5639648.402429575100541, 6167893.713700483553112 ], [ 5639636.194416803307831, 6167901.93876728694886 ], [ 5639624.85138647723943, 6167911.320822645910084 ], [ 5639614.482578178867698, 6167921.769512239843607 ], [ 5639605.187849201261997, 6167933.184209475293756 ], [ 5639597.056712864898145, 6167945.454984578303993 ], [ 5639590.167476456612349, 6167958.463663276284933 ], [ 5639584.58648709114641, 6167972.084964882582426 ], [ 5639545.149124510586262, 6168083.652827479876578 ] ] ] } },
{ "type": "Feature", "properties": { "enclave": "Microcentro boliviano de Liniers", "n_tramos": 3, "largo_eje_m": 2827.7, "buffer_m": 150, "ha": 104.06 }, "geometry": { "type": "MultiPolygon", "coordinates": [ [ [ [ 5636541.178694411180913, 6166120.042900110594928 ], [ 5636526.61904183588922, 6166117.87407170701772 ], [ 5636511.916915609501302, 6166117.142782313749194 ], [ 5636497.213905244134367, 6166117.856074648909271 ], [ 5636482.651608767919242, 6166120.007079316303134 ], [ 5636468.370269055478275, 6166123.575080965645611 ], [ 5636454.507423215545714, 6166128.525717790238559 ], [ 5636441.196578032337129, 6166134.811312451958656 ], [ 5636428.565924219787121, 6166142.371331237256527 ], [ 5636416.737101880833507, 6166151.132967032492161 ], [ 5636405.824029039591551, 6166161.011840496212244 ], [ 5636395.931804553605616, 6166171.912812676280737 ], [ 5636387.155695951543748, 6166183.730901251547039 ], [ 5636379.580221958458424, 6166196.352291568182409 ], [ 5636373.278338528238237, 6166209.65543273743242 ], [ 5636368.310736244544387, 6166223.512208239175379 ], [ 5636364.725255832076073, 6166237.789169749245048 ], [ 5636362.556427428498864, 6166252.348822324536741 ], [ 5636361.825138035230339, 6166267.050948550924659 ], [ 5636362.538430370390415, 6166281.753958916291595 ], [ 5636364.689435037784278, 6166296.316255392506719 ], [ 5636368.257436687126756, 6166310.597595104947686 ], [ 5636373.208073511719704, 6166324.460440944880247 ], [ 5636379.493668173439801, 6166337.771286128088832 ], [ 5636387.053686958737671, 6166350.40193994063884 ], [ 5636395.815322753973305, 6166362.230762279592454 ], [ 5636405.694196217693388, 6166373.14383512083441 ], [ 5636416.595168397761881, 6166383.036059606820345 ], [ 5636428.413256973028183, 6166391.812168208882213 ], [ 5636441.034647289663553, 6166399.387642201967537 ], [ 5636454.337788458913565, 6166405.689525632187724 ], [ 5636468.194563960656524, 6166410.657127915881574 ], [ 5636482.471525470726192, 6166414.242608328349888 ], [ 5636608.102791167795658, 6166439.312163917347789 ], [ 5636622.662443743087351, 6166441.480992320924997 ], [ 5636637.364569969475269, 6166442.212281714193523 ], [ 5636652.067580334842205, 6166441.498989379033446 ], [ 5636666.629876811057329, 6166439.347984711639583 ], [ 5636680.911216523498297, 6166435.779983062297106 ], [ 5636694.774062363430858, 6166430.829346237704158 ], [ 5636708.084907546639442, 6166424.543751575984061 ], [ 5636720.715561359189451, 6166416.98373279068619 ], [ 5636732.544383698143065, 6166408.222096995450556 ], [ 5636743.457456539385021, 6166398.343223531730473 ], [ 5636753.349681025370955, 6166387.44225135166198 ], [ 5636762.125789627432823, 6166375.624162776395679 ], [ 5636769.701263620518148, 6166363.002772459760308 ], [ 5636776.003147050738335, 6166349.699631290510297 ], [ 5636780.970749334432185, 6166335.842855788767338 ], [ 5636784.556229746900499, 6166321.56589427869767 ], [ 5636786.725058150477707, 6166307.006241703405976 ], [ 5636787.456347543746233, 6166292.304115477018058 ], [ 5636786.743055208586156, 6166277.601105111651123 ], [ 5636784.592050541192293, 6166263.038808635435998 ], [ 5636781.024048891849816, 6166248.757468922995031 ], [ 5636776.073412067256868, 6166234.89462308306247 ], [ 5636769.787817405536771, 6166221.583777899853885 ], [ 5636762.2277986202389, 6166208.953124087303877 ], [ 5636753.466162825003266, 6166197.124301748350263 ], [ 5636743.587289361283183, 6166186.211228907108307 ], [ 5636732.68631718121469, 6166176.319004421122372 ], [ 5636720.868228605948389, 6166167.542895819060504 ], [ 5636708.246838289313018, 6166159.96742182597518 ], [ 5636694.943697120063007, 6166153.665538395754993 ], [ 5636681.086921618320048, 6166148.697936112061143 ], [ 5636666.80996010825038, 6166145.112455699592829 ], [ 5636541.178694411180913, 6166120.042900110594928 ] ] ], [ [ [ 5634802.676806351169944, 6165979.634578036144376 ], [ 5634787.956528563052416, 6165979.607715778052807 ], [ 5634773.304499973542988, 6165981.023822403512895 ], [ 5634758.861827628687024, 6165983.869260029867291 ], [ 5634744.767602358013391, 6165988.116625538095832 ], [ 5634731.15755925513804, 6165993.725014477036893 ], [ 5634718.162770475260913, 6166000.640414995141327 ], [ 5634705.908382938243449, 6166008.796228004619479 ], [ 5634694.512413095682859, 6166018.113908568397164 ], [ 5634684.084610365331173, 6166028.503722328692675 ], [ 5634674.725400188937783, 6166039.865609699860215 ], [ 5634666.524916876107454, 6166052.090149494819343 ], [ 5634659.56213556509465, 6166065.059612712822855 ], [ 5634653.904111645184457, 6166078.649096333421767 ], [ 5634649.605334980413318, 6166092.727726199664176 ], [ 5634646.707205139100552, 6166107.159917411394417 ], [ 5634645.237632695585489, 6166121.806680077686906 ], [ 5634645.21077043749392, 6166136.526957865804434 ], [ 5634646.626877062954009, 6166151.178986455313861 ], [ 5634649.472314689308405, 6166165.621658800169826 ], [ 5634653.719680197536945, 6166179.715884070843458 ], [ 5634659.328069136478007, 6166193.32592717371881 ], [ 5634666.243469654582441, 6166206.320715953595936 ], [ 5634674.399282664060593, 6166218.575103490613401 ], [ 5634683.716963227838278, 6166229.97107333317399 ], [ 5634694.106776988133788, 6166240.398876063525677 ], [ 5634705.468664359301329, 6166249.758086239919066 ], [ 5634717.693204154260457, 6166257.958569552749395 ], [ 5634730.662667372263968, 6166264.9213508637622 ], [ 5634744.25215099286288, 6166270.579374783672392 ], [ 5634758.330780859105289, 6166274.878151448443532 ], [ 5634772.762972070835531, 6166277.776281289756298 ], [ 5634787.409734737128019, 6166279.24585373327136 ], [ 5634853.186483388766646, 6166282.597591180354357 ], [ 5634845.523144238628447, 6166397.855602943338454 ], [ 5634845.268444828689098, 6166412.573701595887542 ], [ 5634846.457597806118429, 6166427.245893489569426 ], [ 5634849.079150979407132, 6166441.730877393856645 ], [ 5634853.1078573577106, 6166455.889154996722937 ], [ 5634858.504918295890093, 6166469.584374343976378 ], [ 5634865.218357147648931, 6166482.684642987325788 ], [ 5634873.18351982627064, 6166495.06379817891866 ], [ 5634882.32369746081531, 6166506.602621886879206 ], [ 5634892.550865144468844, 6166517.18998893070966 ], [ 5634903.766529661603272, 6166526.723937178961933 ], [ 5634915.862678031437099, 6166535.112649496644735 ], [ 5634928.722817732952535, 6166542.275338000617921 ], [ 5634942.223098591901362, 6166548.143022082746029 ], [ 5634956.233505521900952, 6166552.659192739054561 ], [ 5634970.619110646657646, 6166555.780356777831912 ], [ 5634985.241372724063694, 6166557.476455681957304 ], [ 5634999.959471376612782, 6166557.731155091896653 ], [ 5635014.631663270294666, 6166556.542002114467323 ], [ 5635029.116647174581885, 6166553.92044894117862 ], [ 5635043.274924777448177, 6166549.891742562875152 ], [ 5635056.970144124701619, 6166544.494681624695659 ], [ 5635070.070412768051028, 6166537.781242772936821 ], [ 5635082.4495679596439, 6166529.816080094315112 ], [ 5635093.988391667604446, 6166520.675902459770441 ], [ 5635104.575758711434901, 6166510.448734776116908 ], [ 5635114.109706959687173, 6166499.23307025898248 ], [ 5635122.498419277369976, 6166487.136921889148653 ], [ 5635129.661107781343162, 6166474.276782187633216 ], [ 5635135.52879186347127, 6166460.77650132868439 ], [ 5635140.044962519779801, 6166446.7660943986848 ], [ 5635143.166126558557153, 6166432.380489273928106 ], [ 5635144.862225462682545, 6166417.758227196522057 ], [ 5635153.062662052921951, 6166294.422172447666526 ], [ 5635153.063110660761595, 6166294.396249143406749 ], [ 5635210.835969706065953, 6166296.702628540806472 ], [ 5635210.849554879590869, 6166296.702503729611635 ], [ 5635210.863087079487741, 6166296.703708649612963 ], [ 5635228.769916570745409, 6166297.415331258438528 ], [ 5635245.466713367030025, 6166298.065540813840926 ], [ 5635376.584079605527222, 6166303.185134849511087 ], [ 5635376.586734577082098, 6166303.185108136385679 ], [ 5635376.589379403740168, 6166303.185341691598296 ], [ 5635491.668886160477996, 6166307.674647975713015 ], [ 5635491.679997463710606, 6166307.674535784870386 ], [ 5635491.691066393628716, 6166307.675511592999101 ], [ 5635522.726873971521854, 6166308.881633555516601 ], [ 5635550.04852454084903, 6166309.949016126804054 ], [ 5635550.059489451348782, 6166309.948906036093831 ], [ 5635550.07041248306632, 6166309.949869628064334 ], [ 5635601.718131309375167, 6166311.960051906295121 ], [ 5635602.22487938310951, 6166311.95488999504596 ], [ 5635602.729982384480536, 6166311.996014483273029 ], [ 5635609.583512484095991, 6166311.879932416602969 ], [ 5635616.437669965438545, 6166311.810113601386547 ], [ 5635616.941471961326897, 6166311.755306548438966 ], [ 5635617.448173649609089, 6166311.746724259108305 ], [ 5635761.088766125030816, 6166302.249290824867785 ], [ 5635761.095220441929996, 6166302.248544564470649 ], [ 5635761.101716813631356, 6166302.248433969914913 ], [ 5635821.722858228720725, 6166298.234930626116693 ], [ 5635835.680317922495306, 6166298.076432873494923 ], [ 5635835.694999504834414, 6166298.075544397346675 ], [ 5635835.709697589278221, 6166298.07609636709094 ], [ 5635852.618063573725522, 6166297.880776391364634 ], [ 5635855.412088663317263, 6166297.822465725243092 ], [ 5635927.585043478757143, 6166295.643456635065377 ], [ 5635972.160859297960997, 6166294.299478294327855 ], [ 5635994.974739375524223, 6166293.607295761816204 ], [ 5635994.994928209111094, 6166293.605689013376832 ], [ 5635995.015177432447672, 6166293.606063392013311 ], [ 5636096.256314367055893, 6166290.507022186182439 ], [ 5636110.929902748204768, 6166289.335227083414793 ], [ 5636125.417977786622941, 6166286.730811323970556 ], [ 5636139.581011397764087, 6166282.718856854364276 ], [ 5636153.282605826854706, 6166277.338000988587737 ], [ 5636166.39080723002553, 6166270.640064310282469 ], [ 5636178.779376460239291, 6166262.689551611430943 ], [ 5636190.329004825092852, 6166253.563030675984919 ], [ 5636200.92846308927983, 6166243.348394889384508 ], [ 5636210.475672675296664, 6166232.144016778096557 ], [ 5636218.878688735887408, 6166220.057800627313554 ], [ 5636226.056585633195937, 6166207.206143306568265 ], [ 5636231.940236296504736, 6166193.712813301943243 ], [ 5636236.472977952100337, 6166179.707758756354451 ], [ 5636239.611157821491361, 6166165.325856001116335 ], [ 5636241.324553515762091, 6166150.705610621720552 ], [ 5636241.596664099954069, 6166135.987823573872447 ], [ 5636240.424868997186422, 6166121.314235192723572 ], [ 5636237.820453237742186, 6166106.826160154305398 ], [ 5636233.808498768135905, 6166092.663126543164253 ], [ 5636228.427642902359366, 6166078.961532114073634 ], [ 5636221.729706224054098, 6166065.85333071090281 ], [ 5636213.779193525202572, 6166053.464761480689049 ], [ 5636204.652672589756548, 6166041.915133115835488 ], [ 5636194.438036803156137, 6166031.31567485164851 ], [ 5636183.233658691868186, 6166021.768465265631676 ], [ 5636171.147442541085184, 6166013.365449205040932 ], [ 5636158.295785220339894, 6166006.187552307732403 ], [ 5636144.802455215714872, 6166000.303901644423604 ], [ 5636130.797400670126081, 6165995.771159988828003 ], [ 5636116.415497914887965, 6165992.632980119436979 ], [ 5636101.795252535492182, 6165990.919584425166249 ], [ 5636087.077465487644076, 6165990.647473840974271 ], [ 5635985.856544956564903, 6165993.745896212756634 ], [ 5635963.105608147569001, 6165994.436171720735729 ], [ 5635918.540957248769701, 6165995.779813434928656 ], [ 5635918.537883648648858, 6165995.780057462863624 ], [ 5635918.534800928086042, 6165995.779999176971614 ], [ 5635847.755507665686309, 6165997.916931547224522 ], [ 5635832.259114499203861, 6165998.09594087023288 ], [ 5635814.208991910330951, 6165998.300913975574076 ], [ 5635806.002992277033627, 6165998.618912453763187 ], [ 5635741.28968184068799, 6166002.903343293815851 ], [ 5635605.514983505941927, 6166011.880688327364624 ], [ 5635561.748834362253547, 6166010.177264838479459 ], [ 5635534.422787144780159, 6166009.109710502438247 ], [ 5635534.407417108304799, 6166009.109864822588861 ], [ 5635534.392105695791543, 6166009.108515007421374 ], [ 5635503.352047551423311, 6166007.90222785808146 ], [ 5635388.286260197870433, 6166003.413456774316728 ], [ 5635257.163801724091172, 6165998.293663907796144 ], [ 5635257.155810507945716, 6165998.293744312599301 ], [ 5635257.147849806584418, 6165998.293041900731623 ], [ 5635240.62266615498811, 6165997.649562824517488 ], [ 5635222.789332661777735, 6165996.940860968083143 ], [ 5635165.549879880622029, 6165994.655775951221585 ], [ 5635165.841668752022088, 6165987.663237904198468 ], [ 5635165.86205081269145, 6165987.154030744917691 ], [ 5635168.931128888390958, 6165907.075232495553792 ], [ 5635169.525752289220691, 6165891.566871399059892 ], [ 5635173.442804689519107, 6165797.262824021279812 ], [ 5635173.442803227342665, 6165797.262630986981094 ], [ 5635173.442820692434907, 6165797.262438736855984 ], [ 5635176.735194920562208, 6165717.992764927446842 ], [ 5635178.459643516689539, 6165676.486655292101204 ], [ 5635180.31985888723284, 6165644.807361252605915 ], [ 5635180.33317035343498, 6165643.415790322236717 ], [ 5635180.457139020785689, 6165642.029688381589949 ], [ 5635182.89784493111074, 6165581.215339000336826 ], [ 5635182.897766878828406, 6165581.206642826087773 ], [ 5635182.898540575057268, 6165581.197980774566531 ], [ 5635186.8366111619398, 6165482.789803468622267 ], [ 5635191.845666638575494, 6165357.763084767386317 ], [ 5635191.712524495087564, 6165343.043384603224695 ], [ 5635190.137240551412106, 6165328.407614030875266 ], [ 5635187.134985652752221, 6165313.996723521500826 ], [ 5635182.734673153609037, 6165299.949497829191387 ], [ 5635176.978680470958352, 6165286.401219414547086 ], [ 5635169.922440959140658, 6165273.482365607284009 ], [ 5635161.633910062722862, 6165261.317352029494941 ], [ 5635152.192910865880549, 6165250.023334413766861 ], [ 5635141.690365350805223, 6165239.709080323576927 ], [ 5635130.22741877194494, 6165230.473921662196517 ], [ 5635117.914465571753681, 6165222.406798058189452 ], [ 5635104.870086220093071, 6165215.585400321520865 ], [ 5635091.219905221834779, 6165210.075422239489853 ], [ 5635077.09538128040731, 6165205.929927915334702 ], [ 5635062.632541283965111, 6165203.188840724527836 ], [ 5635047.970670287497342, 6165201.878558835014701 ], [ 5635033.250970123335719, 6165202.011700978502631 ], [ 5635018.61519955098629, 6165203.58698492217809 ], [ 5635004.20430904161185, 6165206.589239820837975 ], [ 5634990.157083349302411, 6165210.989552319981158 ], [ 5634976.60880493465811, 6165216.745545002631843 ], [ 5634963.689951127395034, 6165223.801784514449537 ], [ 5634951.524937549605966, 6165232.090315410867333 ], [ 5634940.230919933877885, 6165241.531314607709646 ], [ 5634929.916665843687952, 6165252.033860122784972 ], [ 5634920.681507182307541, 6165263.496806701645255 ], [ 5634912.614383578300476, 6165275.809759901836514 ], [ 5634905.792985841631889, 6165288.854139253497124 ], [ 5634900.283007759600878, 6165302.504320251755416 ], [ 5634896.137513435445726, 6165316.628844193182886 ], [ 5634893.39642624463886, 6165331.091684189625084 ], [ 5634892.086144355125725, 6165345.753555186092854 ], [ 5634887.07695047929883, 6165470.783728350885212 ], [ 5634887.076981781981885, 6165470.787189071998 ], [ 5634887.076673883013427, 6165470.790636211633682 ], [ 5634883.138812210410833, 6165569.193592973984778 ], [ 5634880.754219541326165, 6165628.609785278327763 ], [ 5634878.900207125581801, 6165660.183443574234843 ], [ 5634878.887908176518977, 6165661.469166749157012 ], [ 5634878.771562354639173, 6165662.749674076214433 ], [ 5634876.9937429940328, 6165705.540375663898885 ], [ 5634876.993750375695527, 6165705.541351498104632 ], [ 5634876.993662087246776, 6165705.542323346249759 ], [ 5634873.701252179220319, 6165784.812856206670403 ], [ 5634869.774282431229949, 6165879.355666292831302 ], [ 5634869.755191491916776, 6165879.833666726946831 ], [ 5634869.151357429102063, 6165895.582250929437578 ], [ 5634869.151370658539236, 6165895.583479888737202 ], [ 5634869.151263385079801, 6165895.584704222157598 ], [ 5634866.091896107420325, 6165975.410127016715705 ], [ 5634865.781434138305485, 6165982.850154183804989 ], [ 5634802.676806351169944, 6165979.634578036144376 ] ] ], [ [ [ 5635111.12344987038523, 6164683.091586406342685 ], [ 5635057.557600110769272, 6164733.588145113550127 ], [ 5635047.354786650277674, 6164744.198983781971037 ], [ 5635038.24114658869803, 6164755.758778960444033 ], [ 5635030.304449260234833, 6164768.15620350278914 ], [ 5635023.621129401028156, 6164781.271863432601094 ], [ 5635018.255551032721996, 6164794.979447775520384 ], [ 5635014.259387608617544, 6164809.146945001557469 ], [ 5635011.671124367974699, 6164823.63791436702013 ], [ 5635010.515687699429691, 6164838.312799914740026 ], [ 5635010.804205090738833, 6164853.030274476855993 ], [ 5635012.533897961489856, 6164867.648600725457072 ], [ 5635015.688108423724771, 6164882.026996189728379 ], [ 5635020.236459705978632, 6164896.026989059522748 ], [ 5635026.135148700326681, 6164909.513751751743257 ], [ 5635033.327367804944515, 6164922.357399367727339 ], [ 5635041.74385202024132, 6164934.434240560978651 ], [ 5635051.303546001203358, 6164945.627968749031425 ], [ 5635061.914384669624269, 6164955.830782209523022 ], [ 5635073.474179848097265, 6164964.944422271102667 ], [ 5635085.871604390442371, 6164972.881119599565864 ], [ 5635098.987264320254326, 6164979.56443945877254 ], [ 5635112.694848663173616, 6164984.9300178270787 ], [ 5635126.862345889210701, 6164988.926181251183152 ], [ 5635141.353315254673362, 6164991.514444491825998 ], [ 5635156.028200802393258, 6164992.669881160371006 ], [ 5635170.745675364509225, 6164992.381363769061863 ], [ 5635185.364001613110304, 6164990.65167089831084 ], [ 5635199.742397077381611, 6164987.497460436075926 ], [ 5635213.74238994717598, 6164982.949109153822064 ], [ 5635227.229152639396489, 6164977.050420159474015 ], [ 5635240.072800255380571, 6164969.858201054856181 ], [ 5635252.149641448631883, 6164961.441716839559376 ], [ 5635263.343369636684656, 6164951.882022858597338 ], [ 5635316.909657551907003, 6164901.385051101446152 ], [ 5635316.910131989046931, 6164901.384557690471411 ], [ 5635316.9106524894014, 6164901.384113163687289 ], [ 5635370.571849412284791, 6164850.796746760606766 ], [ 5635424.30253810249269, 6164800.153588433749974 ], [ 5635424.307192992419004, 6164800.148748227395117 ], [ 5635424.312299506738782, 6164800.144387125968933 ], [ 5635477.971035995520651, 6164749.559983884915709 ], [ 5635477.981132792308927, 6164749.549483244307339 ], [ 5635477.992208378389478, 6164749.540020677261055 ], [ 5635490.357147185131907, 6164737.878989489749074 ], [ 5635490.571644836105406, 6164737.676303662359715 ], [ 5635514.321783064864576, 6164715.189758214168251 ], [ 5635524.501608955673873, 6164704.556863754056394 ], [ 5635533.590210293419659, 6164692.977372163906693 ], [ 5635541.500058880075812, 6164680.562800278887153 ], [ 5635548.154978548176587, 6164667.43270721193403 ], [ 5635553.490878785029054, 6164653.713542936369777 ], [ 5635557.456371953710914, 6164639.537430504336953 ], [ 5635560.013268187642097, 6164625.040893628261983 ], [ 5635561.136943177320063, 6164610.363541882485151 ], [ 5635560.816575319506228, 6164595.646726188249886 ], [ 5635559.055249931290746, 6164581.032177524641156 ], [ 5635555.869929539039731, 6164566.660641985945404 ], [ 5635551.291290519759059, 6164552.670525314286351 ], [ 5635545.363427669741213, 6164539.19655998237431 ], [ 5635538.143429548479617, 6164526.368507640436292 ], [ 5635529.700828684493899, 6164514.309909446164966 ], [ 5635520.116931941360235, 6164503.136896291747689 ], [ 5635509.484037481248379, 6164492.957070400938392 ], [ 5635497.904545891098678, 6164483.868469063192606 ], [ 5635485.489974006079137, 6164475.958620476536453 ], [ 5635472.359880939126015, 6164469.303700808435678 ], [ 5635458.640716663561761, 6164463.967800571583211 ], [ 5635444.464604231528938, 6164460.002307402901351 ], [ 5635429.968067355453968, 6164457.445411168970168 ], [ 5635415.290715609677136, 6164456.321736179292202 ], [ 5635400.573899915441871, 6164456.642104037106037 ], [ 5635385.959351251833141, 6164458.403429425321519 ], [ 5635371.587815713137388, 6164461.588749817572534 ], [ 5635357.597699041478336, 6164466.167388836853206 ], [ 5635344.123733709566295, 6164472.095251686871052 ], [ 5635331.295681367628276, 6164479.315249808132648 ], [ 5635319.23708317335695, 6164487.757850672118366 ], [ 5635308.064070018939674, 6164497.34174741525203 ], [ 5635284.421081117354333, 6164519.726844266057014 ], [ 5635272.174075573682785, 6164531.27665586117655 ], [ 5635218.530804191716015, 6164581.846480055712163 ], [ 5635164.799775807186961, 6164632.489958556368947 ], [ 5635164.794790326617658, 6164632.495142513886094 ], [ 5635164.789321191608906, 6164632.49981336388737 ], [ 5635111.12344987038523, 6164683.091586406342685 ] ] ] ] } }
]
}
