{
"type": "FeatureCollection",
"name": "enclaves_componentes_r4",
"crs": { "type": "name", "properties": { "name": "urn:ogc:def:crs:EPSG::5347" } },
"features": [
{ "type": "Feature", "properties": { "componente": "E02_nucleo", "que_es": "Arribeños entre Juramento y Olazábal, dos cuadras", "largo_m": 255.2 }, "geometry": { "type": "Polygon", "coordinates": [ [ [ 5641986.521739242598414, 6175430.186267151497304 ], [ 5641978.742195925675333, 6175442.68290692102164 ], [ 5641972.224998129531741, 6175455.881900543347001 ], [ 5641967.032910032197833, 6175469.656134494580328 ], [ 5641963.215934280306101, 6175483.872955371625721 ], [ 5641960.810830437578261, 6175498.395447419025004 ], [ 5641959.840760967694223, 6175513.083751098252833 ], [ 5641960.315068170428276, 6175527.796410015784204 ], [ 5641962.2291842084378, 6175542.391733223572373 ], [ 5641965.564675097353756, 6175556.729159780777991 ], [ 5641970.289418236352503, 6175570.670612432062626 ], [ 5641976.357911767438054, 6175584.08182736672461 ], [ 5641983.711712778545916, 6175596.833647253923118 ], [ 5641992.28000014834106, 6175608.803265096619725 ], [ 5642001.980256583541632, 6175619.875406933017075 ], [ 5642012.719063312746584, 6175629.943441983312368 ], [ 5642024.39299975708127, 6175638.910409566946328 ], [ 5642036.889639526605606, 6175646.68995288386941 ], [ 5642050.088633148930967, 6175653.207150680013001 ], [ 5642063.862867100164294, 6175658.399238777346909 ], [ 5642078.079687977209687, 6175662.216214529238641 ], [ 5642092.60218002460897, 6175664.621318371966481 ], [ 5642107.290483703836799, 6175665.591387841850519 ], [ 5642122.00314262136817, 6175665.117080639116466 ], [ 5642136.598465829156339, 6175663.202964601106942 ], [ 5642150.935892386361957, 6175659.867473712190986 ], [ 5642164.877345037646592, 6175655.142730573192239 ], [ 5642178.288559972308576, 6175649.074237042106688 ], [ 5642191.040379859507084, 6175641.720436030998826 ], [ 5642203.009997702203691, 6175633.152148661203682 ], [ 5642214.082139538601041, 6175623.45189222600311 ], [ 5642224.150174588896334, 6175612.713085496798158 ], [ 5642233.117142172530293, 6175601.039149052463472 ], [ 5642304.471954199485481, 6175498.051312809810042 ], [ 5642304.473204184323549, 6175498.049304900690913 ], [ 5642304.474644898436964, 6175498.047429138794541 ], [ 5642378.429334812797606, 6175391.299954476766288 ], [ 5642386.208484507165849, 6175378.803069674409926 ], [ 5642392.725266558118165, 6175365.603870780207217 ], [ 5642397.91692079231143, 6175351.829473295249045 ], [ 5642401.733448741026223, 6175337.612532197497785 ], [ 5642404.138095153495669, 6175323.089964401908219 ], [ 5642405.107701971195638, 6175308.40163017436862 ], [ 5642404.632931349799037, 6175293.688986204564571 ], [ 5642402.718355589546263, 6175279.093723294325173 ], [ 5642399.382413102313876, 6175264.756401805207133 ], [ 5642394.65723083820194, 6175250.815097981132567 ], [ 5642388.588314884342253, 6175237.404074198566377 ], [ 5642381.234112219884992, 6175224.652485948055983 ], [ 5642372.665447835810483, 6175212.683137994259596 ], [ 5642362.964842655695975, 6175201.611301702447236 ], [ 5642352.225718808360398, 6175191.54360490757972 ], [ 5642340.551499928347766, 6175182.577005033381283 ], [ 5642328.054615125991404, 6175174.79785533901304 ], [ 5642314.855416231788695, 6175168.281073288060725 ], [ 5642301.081018746830523, 6175163.089419053867459 ], [ 5642286.864077649079263, 6175159.272891105152667 ], [ 5642272.341509853489697, 6175156.86824469268322 ], [ 5642257.653175625950098, 6175155.898637874983251 ], [ 5642242.940531656146049, 6175156.373408496379852 ], [ 5642228.345268745906651, 6175158.287984256632626 ], [ 5642214.007947256788611, 6175161.623926743865013 ], [ 5642200.066643432714045, 6175166.349109007976949 ], [ 5642186.655619650147855, 6175172.418024961836636 ], [ 5642173.904031399637461, 6175179.772227626293898 ], [ 5642161.934683445841074, 6175188.340892010368407 ], [ 5642150.862847154028714, 6175198.041497190482914 ], [ 5642140.795150359161198, 6175208.780621037818491 ], [ 5642131.828550484962761, 6175220.454839917831123 ], [ 5642057.875210138037801, 6175327.200366591103375 ], [ 5641986.521739242598414, 6175430.186267151497304 ] ] ] } },
{ "type": "Feature", "properties": { "componente": "E02_corredor", "que_es": "traza del viaducto del Mitre entre Monroe y Echeverría", "largo_m": 720.0 }, "geometry": { "type": "Polygon", "coordinates": [ [ [ 5641728.501156216487288, 6175744.509379111230373 ], [ 5641740.726584671996534, 6175752.145127976313233 ], [ 5641753.628469433635473, 6175758.572190389037132 ], [ 5641767.087674060836434, 6175763.731218636035919 ], [ 5641780.979915803298354, 6175767.574574077501893 ], [ 5641795.176913228817284, 6175770.066767036914825 ], [ 5641809.547570783644915, 6175771.184784522280097 ], [ 5641823.95918932929635, 6175770.918302721343935 ], [ 5641838.278691492043436, 6175769.269782335497439 ], [ 5641852.373850504867733, 6175766.254445859231055 ], [ 5641866.11451119184494, 6175761.900137010961771 ], [ 5641879.373791826888919, 6175756.247063624672592 ], [ 5641892.029255763627589, 6175749.347426373511553 ], [ 5641903.96404202003032, 6175741.264936740510166 ], [ 5641998.791833133436739, 6175670.168043699115515 ], [ 5642119.042629569768906, 6175615.647732816636562 ], [ 5642133.354978621006012, 6175608.206298490986228 ], [ 5642146.78545655310154, 6175599.270944961346686 ], [ 5642159.178736438043416, 6175588.94501188583672 ], [ 5642170.391486810520291, 6175577.347921335138381 ], [ 5642180.294029332697392, 6175564.613796638324857 ], [ 5642241.495105345733464, 6175476.516533284448087 ], [ 5642314.597231895662844, 6175412.192124797962606 ], [ 5642427.878391809761524, 6175355.553890421055257 ], [ 5642440.70587239600718, 6175348.332876533269882 ], [ 5642452.763802024535835, 6175339.889320836402476 ], [ 5642463.936056243255734, 6175330.304539387114346 ], [ 5642474.11504013556987, 6175319.67083887103945 ], [ 5642483.202724522911012, 6175308.090627636760473 ], [ 5642491.111590036191046, 6175295.675429449416697 ], [ 5642497.765469977632165, 6175282.544809453189373 ], [ 5642503.100283845327795, 6175268.825222697108984 ], [ 5642507.064654465764761, 6175254.648796302266419 ], [ 5642509.620402783155441, 6175240.152057004161179 ], [ 5642510.742915543727577, 6175225.474616326391697 ], [ 5642510.421382335014641, 6175210.757826046086848 ], [ 5642508.65889969933778, 6175196.143416899256408 ], [ 5642505.472441307269037, 6175181.7721336344257 ], [ 5642500.892694494687021, 6175167.782379566691816 ], [ 5642494.963764726184309, 6175154.308883674442768 ], [ 5642487.742750838398933, 6175141.481403088197112 ], [ 5642479.299195141531527, 6175129.423473459668458 ], [ 5642469.714413692243397, 6175118.251219240948558 ], [ 5642459.080713176168501, 6175108.072235348634422 ], [ 5642447.500501941889524, 6175098.98455096129328 ], [ 5642435.085303754545748, 6175091.075685448013246 ], [ 5642421.954683758318424, 6175084.421805506572127 ], [ 5642408.235097002238035, 6175079.086991638876498 ], [ 5642394.05867060739547, 6175075.122621018439531 ], [ 5642379.56193130929023, 6175072.566872701048851 ], [ 5642364.884490631520748, 6175071.444359940476716 ], [ 5642350.167700351215899, 6175071.765893149189651 ], [ 5642335.553291204385459, 6175073.528375784866512 ], [ 5642321.182007939554751, 6175076.714834176935256 ], [ 5642307.192253871820867, 6175081.294580989517272 ], [ 5642293.718757979571819, 6175087.223510758019984 ], [ 5642163.034890520386398, 6175152.562738570384681 ], [ 5642151.759590683504939, 6175158.819853289984167 ], [ 5642141.063366052694619, 6175166.022259115241468 ], [ 5642131.025265944190323, 6175174.11672742664814 ], [ 5642029.621990475803614, 6175263.344032033346593 ], [ 5642016.752549691125751, 6175276.129341178573668 ], [ 5642005.520627659745514, 6175290.374711076729 ], [ 5641957.50398322660476, 6175359.49334828928113 ], [ 5641859.985511773265898, 6175403.707087724469602 ], [ 5641845.512802405282855, 6175411.24331820756197 ], [ 5641831.944316929206252, 6175420.306997826322913 ], [ 5641786.512560973875225, 6175454.369340267032385 ], [ 5641777.244323987513781, 6175454.663927167654037 ], [ 5641762.648135176859796, 6175456.571431283839047 ], [ 5641748.309199103154242, 6175459.900426932610571 ], [ 5641734.365607559680939, 6175464.618854067288339 ], [ 5641720.951644955202937, 6175470.681271654553711 ], [ 5641708.196495083160698, 6175478.029295299202204 ], [ 5641696.222997007891536, 6175486.592159516178071 ], [ 5641685.146462062373757, 6175496.287399242632091 ], [ 5641675.07356333360076, 6175507.021644019521773 ], [ 5641666.101308341138065, 6175518.691517203114927 ], [ 5641658.316104806959629, 6175531.184631533920765 ], [ 5641651.792928495444357, 6175544.380671491846442 ], [ 5641646.594601161777973, 6175558.152551997452974 ], [ 5641642.771185539662838, 6175572.367642315104604 ], [ 5641640.359503210522234, 6175586.889043352566659 ], [ 5641639.382779994048178, 6175601.57690608035773 ], [ 5641639.850422269664705, 6175616.28977835085243 ], [ 5641641.757926385849714, 6175630.885967161506414 ], [ 5641645.086922034621239, 6175645.224903235211968 ], [ 5641649.805349169299006, 6175659.168494778685272 ], [ 5641655.867766756564379, 6175672.582457383163273 ], [ 5641663.215790401212871, 6175685.337607255205512 ], [ 5641671.778654618188739, 6175697.311105330474675 ], [ 5641681.473894344642758, 6175708.387640275992453 ], [ 5641692.20813912153244, 6175718.460539004765451 ], [ 5641703.878012305125594, 6175727.432793997228146 ], [ 5641728.501156216487288, 6175744.509379111230373 ] ] ] } },
{ "type": "Feature", "properties": { "componente": "E07_eje", "que_es": "José León Suárez entre Ramón Falcón y Ventura Bosch", "largo_m": 284.0 }, "geometry": { "type": "Polygon", "coordinates": [ [ [ 5634859.580649641342461, 6166132.332689103670418 ], [ 5634853.522247321903706, 6166278.248232990503311 ], [ 5634853.633992408402264, 6166292.968111141584814 ], [ 5634855.187999774701893, 6166307.606156121939421 ], [ 5634858.1693034786731, 6166322.021395557560027 ], [ 5634862.54919193778187, 6166336.075002810917795 ], [ 5634868.285484431311488, 6166349.631633962504566 ], [ 5634875.322937325574458, 6166362.560731244273484 ], [ 5634883.593776104040444, 6166374.737780380062759 ], [ 5634893.018348067067564, 6166386.04550973046571 ], [ 5634903.505889434367418, 6166396.375019680708647 ], [ 5634914.955399449914694, 6166405.626831403933465 ], [ 5634927.256613072939217, 6166413.711844895035028 ], [ 5634940.291062892414629, 6166420.552197054028511 ], [ 5634953.933220030739903, 6166426.082011550664902 ], [ 5634968.051703057251871, 6166430.248033247888088 ], [ 5634982.510543261654675, 6166433.010141081176698 ], [ 5634997.170494110323489, 6166434.34173444006592 ], [ 5635011.890372261404991, 6166434.229989353567362 ], [ 5635026.528417241759598, 6166432.675981987267733 ], [ 5635040.943656677380204, 6166429.694678283296525 ], [ 5635054.997263930737972, 6166425.314789824187756 ], [ 5635068.553895082324743, 6166419.578497330658138 ], [ 5635081.482992364093661, 6166412.541044436395168 ], [ 5635093.660041499882936, 6166404.270205657929182 ], [ 5635104.967770850285888, 6166394.845633694902062 ], [ 5635115.297280800528824, 6166384.358092327602208 ], [ 5635124.549092523753643, 6166372.908582312054932 ], [ 5635132.634106014855206, 6166360.607368689030409 ], [ 5635139.474458173848689, 6166347.572918869554996 ], [ 5635145.004272670485079, 6166333.930761731229722 ], [ 5635149.170294367708266, 6166319.812278704717755 ], [ 5635151.932402200996876, 6166305.353438500314951 ], [ 5635153.263995559886098, 6166290.693487651646137 ], [ 5635159.32258125860244, 6166144.773527106270194 ], [ 5635159.322547594085336, 6166144.769092628732324 ], [ 5635159.322948485612869, 6166144.764676190912724 ], [ 5635165.036356078460813, 6166006.961924514733255 ], [ 5635164.923741682432592, 6165992.242052988149226 ], [ 5635163.368869842030108, 6165977.604099807329476 ], [ 5635160.386714824475348, 6165963.189036464318633 ], [ 5635156.005996410734951, 6165949.135687897913158 ], [ 5635150.268903315067291, 6165935.579395537264645 ], [ 5635143.230686880648136, 6165922.650713887996972 ], [ 5635134.959128978662193, 6165910.474153223447502 ], [ 5635125.533889233134687, 6165899.166980477981269 ], [ 5635115.045737855136395, 6165888.838089907541871 ], [ 5635103.595681476406753, 6165879.586954372934997 ], [ 5635091.293990399688482, 6165871.502667367458344 ], [ 5635078.259136633016169, 6165864.663084994070232 ], [ 5635064.616652945056558, 6165859.13407616969198 ], [ 5635050.497923910617828, 6165854.968888273462653 ], [ 5635036.03892061021179, 6165852.207634339109063 ], [ 5635021.37889114767313, 6165850.876906753517687 ], [ 5635006.659019621089101, 6165850.989521149545908 ], [ 5634992.021066440269351, 6165852.544392989948392 ], [ 5634977.606003097258508, 6165855.526548007503152 ], [ 5634963.552654530853033, 6165859.907266421243548 ], [ 5634949.99636217020452, 6165865.644359516911209 ], [ 5634937.067680520936847, 6165872.682575951330364 ], [ 5634924.891119856387377, 6165880.954133853316307 ], [ 5634913.583947110921144, 6165890.379373598843813 ], [ 5634903.255056540481746, 6165900.867524976842105 ], [ 5634894.003921005874872, 6165912.317581355571747 ], [ 5634885.919634000398219, 6165924.619272432290018 ], [ 5634879.080051627010107, 6165937.654126198962331 ], [ 5634873.551042802631855, 6165951.296609886921942 ], [ 5634869.385854906402528, 6165965.415338921360672 ], [ 5634866.624600972048938, 6165979.87434222176671 ], [ 5634865.293873386457562, 6165994.53437168430537 ], [ 5634859.580649641342461, 6166132.332689103670418 ] ] ] } }
]
}
