{
"type": "FeatureCollection",
"name": "enclaves_comunitarios_r3",
"crs": { "type": "name", "properties": { "name": "urn:ogc:def:crs:EPSG::5347" } },
"features": [
{ "type": "Feature", "properties": { "enclave_id": "E01", "colectividad": "peruana", "barrios_declarados": "Balvanera (sector Abasto), derrame sobre borde de Almagro", "estado_via_D": "abierta", "nivel_precision": "alta sobre Aguero (calle + altura + cabeceras); media sobre Jean Jaures y Zelaya (calle sin cabecera)", "n_grupos_fuentes": "3", "es_normativa": "no", "designacion_oficial": "Acto de instalacion del 02/06/2012 con placa conmemorativa. Impulsores: Santiago Vargas (Prensa 10) y el Consulado del Peru. En 2016 la Junta Comunal 3 coorganizo la feria.", "advertencia": "«Corredor Peruano» NO es normativo: es una placa del 02/06/2012 puesta por vecinos, comerciantes y el Consulado del Perú. No hay ley, ordenanza, resolución ni declaración de interés. Y la cuadra 400 de Agüero está en recambio asiático desde 2024, así que la delimitación de 2012 y la de 2025 describen realidades distintas. || La cuadra 400 de Aguero esta en RECAMBIO ASIATICO: Jua Jua Ramen (Aguero 436, 2024), OI Argentina (Aguero 449, 2024), Bu Fu Shi Guang (Anchorena 628, 2019). La nota de 2025 se titula 'Peru y Asia unidos por la calle Aguero'. La delimitacion de 2012 y la de 2025 describen realidades distintas.", "metodo_geometria": "eje+buffer", "computa_via_D": "si", "n_tramos": 3, "largo_eje_m": 505.9, "motivo_no_computa": "", "buffer_m": 150, "ha": 28.8 }, "geometry": { "type": "MultiPolygon", "coordinates": [ [ [ [ 5645714.075292215682566, 6170313.727017539553344 ], [ 5645700.276145082898438, 6170318.852526115253568 ], [ 5645687.045832308940589, 6170325.305906908586621 ], [ 5645674.511769037693739, 6170333.025010332465172 ], [ 5645662.794665151275694, 6170341.93549720197916 ], [ 5645652.007362763397396, 6170351.95155465696007 ], [ 5645642.253749495372176, 6170362.976722590625286 ], [ 5645633.62775797303766, 6170374.904822607524693 ], [ 5645626.212461210787296, 6170387.620980584062636 ], [ 5645620.079272570088506, 6170401.002732967026532 ], [ 5645615.287258010357618, 6170414.92120616696775 ], [ 5645611.882567251101136, 6170429.242357676848769 ], [ 5645609.897989326156676, 6170443.828266981057823 ], [ 5645609.352636804804206, 6170458.538463797420263 ], [ 5645610.251761730760336, 6170473.231280890293419 ], [ 5645612.586705039255321, 6170487.765218398533762 ], [ 5645616.334979950450361, 6170502.000306558795273 ], [ 5645621.460488526150584, 6170515.799453691579401 ], [ 5645627.913869319483638, 6170529.02976646553725 ], [ 5645635.632972743362188, 6170541.563829736784101 ], [ 5645644.543459612876177, 6170553.280933623202145 ], [ 5645654.559517067857087, 6170564.068236011080444 ], [ 5645665.584685001522303, 6170573.821849279105663 ], [ 5645677.51278501842171, 6170582.447840801440179 ], [ 5645690.228942994959652, 6170589.863137563690543 ], [ 5645703.610695377923548, 6170595.996326204389334 ], [ 5645717.529168577864766, 6170600.788340764120221 ], [ 5645731.850320087745786, 6170604.193031523376703 ], [ 5645746.436229391954839, 6170606.177609448321164 ], [ 5645761.14642620831728, 6170606.722961969673634 ], [ 5645775.839243301190436, 6170605.823837043717504 ], [ 5645790.373180809430778, 6170603.488893735222518 ], [ 5645804.60826896969229, 6170599.740618824027479 ], [ 5645947.60491812415421, 6170554.477343736216426 ], [ 5646072.720954140648246, 6170514.878971112892032 ], [ 5646073.890491408295929, 6170514.444611295126379 ], [ 5646075.091525977477431, 6170514.106969715096056 ], [ 5646080.787820142693818, 6170511.88298069499433 ], [ 5646086.520290561020374, 6170509.753972175531089 ], [ 5646087.641621479764581, 6170509.207069220021367 ], [ 5646088.803778077475727, 6170508.753331502899528 ], [ 5646094.254653982818127, 6170505.981717133894563 ], [ 5646099.75084166508168, 6170503.301080013625324 ], [ 5646100.813167207874358, 6170502.646900894120336 ], [ 5646101.925253626890481, 6170502.081436783075333 ], [ 5646107.07821636274457, 6170498.788889225572348 ], [ 5646112.285190012305975, 6170495.582439507357776 ], [ 5646113.278279394842684, 6170494.827284331433475 ], [ 5646114.329585644416511, 6170494.155539550818503 ], [ 5646119.135009377263486, 6170490.373767824843526 ], [ 5646124.002622975967824, 6170486.672385384328663 ], [ 5646124.91691221203655, 6170485.8235267046839 ], [ 5646125.897313632071018, 6170485.051970526576042 ], [ 5646130.308919477276504, 6170480.817395181395113 ], [ 5646134.790295273065567, 6170476.656726336106658 ], [ 5646135.616979257203639, 6170475.72233912628144 ], [ 5646136.517034044489264, 6170474.858402059413493 ], [ 5646140.492335835471749, 6170470.211804362013936 ], [ 5646144.544315719977021, 6170465.631918634288013 ], [ 5646145.275433032773435, 6170464.621001553721726 ], [ 5646146.086473169736564, 6170463.673003783449531 ], [ 5646149.587186576798558, 6170458.659133012406528 ], [ 5646153.170747769065201, 6170453.704137204214931 ], [ 5646153.799257351085544, 6170452.626425937749445 ], [ 5646154.513472077436745, 6170451.603497200645506 ], [ 5646157.505883309990168, 6170446.270639684051275 ], [ 5646160.586514164693654, 6170440.988253100775182 ], [ 5646161.106363126076758, 6170439.854126592166722 ], [ 5646161.716874161735177, 6170438.766118256375194 ], [ 5646164.172164678573608, 6170433.165632301941514 ], [ 5646166.720197020098567, 6170427.60672723967582 ], [ 5646167.126378926448524, 6170426.427107759751379 ], [ 5646167.627306723035872, 6170425.284497926943004 ], [ 5646169.521830731071532, 6170419.470319274812937 ], [ 5646171.512725618667901, 6170413.688431030139327 ], [ 5646171.80132872145623, 6170412.474678947590292 ], [ 5646172.187849063426256, 6170411.2884715879336 ], [ 5646173.503361249342561, 6170405.316594001837075 ], [ 5646174.917945289984345, 6170399.367405272088945 ], [ 5646175.086190182715654, 6170398.131209679879248 ], [ 5646175.354580668732524, 6170396.912828621454537 ], [ 5646176.078411936759949, 6170390.840764539316297 ], [ 5646176.903061905875802, 6170384.781569274142385 ], [ 5646176.949328296817839, 6170383.53483541496098 ], [ 5646177.097004181705415, 6170382.29601432941854 ], [ 5646177.222183647565544, 6170376.182241013273597 ], [ 5646177.448957708664238, 6170370.071392608806491 ], [ 5646177.372800027020276, 6170368.82612722273916 ], [ 5646177.39833911228925, 6170367.578796623274684 ], [ 5646176.923661226406693, 6170361.482193040661514 ], [ 5646176.550375423394144, 6170355.378542318940163 ], [ 5646176.352527109906077, 6170354.146737984381616 ], [ 5646176.255683438852429, 6170352.902910354547203 ], [ 5646175.185719610191882, 6170346.882190168835223 ], [ 5646174.215968889184296, 6170340.844518586061895 ], [ 5646173.898335329256952, 6170339.638038246892393 ], [ 5646173.680041560903192, 6170338.409692331217229 ], [ 5646172.025096123106778, 6170332.522838346660137 ], [ 5646170.468219716101885, 6170326.609292002394795 ], [ 5646170.033859898336232, 6170325.439754734747112 ], [ 5646169.69621831830591, 6170324.23872016556561 ], [ 5646135.447436418384314, 6170221.966119511984289 ], [ 5646130.093798206187785, 6170208.253867411985993 ], [ 5646123.42190348636359, 6170195.132391862571239 ], [ 5646115.49600625410676, 6170182.728059845045209 ], [ 5646106.392437229864299, 6170171.160331857390702 ], [ 5646096.19886876270175, 6170160.540611444972456 ], [ 5646085.013470486737788, 6170150.971172319725156 ], [ 5646072.943963903933764, 6170142.544173412024975 ], [ 5646060.106584959663451, 6170135.340771327726543 ], [ 5646046.624964630231261, 6170129.430338766425848 ], [ 5646032.628938291221857, 6170124.869796426035464 ], [ 5646018.253295324742794, 6170121.703064820729196 ], [ 5646003.636481032706797, 6170119.960641307756305 ], [ 5645988.919263326562941, 6170119.65930637717247 ], [ 5645974.24337705783546, 6170120.801962050609291 ], [ 5645959.750159034505486, 6170123.377603928558528 ], [ 5645945.579186868853867, 6170127.36142717115581 ], [ 5645931.866934768855572, 6170132.715065383352339 ], [ 5645918.745459219440818, 6170139.386960103176534 ], [ 5645906.341127201914787, 6170147.312857335433364 ], [ 5645894.77339921426028, 6170156.416426359675825 ], [ 5645884.153678801842034, 6170166.609994826838374 ], [ 5645874.584239676594734, 6170177.795393102802336 ], [ 5645866.157240768894553, 6170189.86489968560636 ], [ 5645858.953838684596121, 6170202.702278629876673 ], [ 5645853.043406123295426, 6170216.183898959308863 ], [ 5645848.482863782905042, 6170230.179925298318267 ], [ 5645845.316132177598774, 6170244.55556826479733 ], [ 5645843.573708664625883, 6170259.172382556833327 ], [ 5645843.29417404346168, 6170272.82487172447145 ], [ 5645714.075292215682566, 6170313.727017539553344 ] ] ], [ [ [ 5645545.230734784156084, 6170185.345484003424644 ], [ 5645549.553033000789583, 6170199.416910295374691 ], [ 5645555.233759135939181, 6170212.996919511817396 ], [ 5645562.218204690143466, 6170225.954728742130101 ], [ 5645570.439105636440217, 6170238.165547199547291 ], [ 5645579.817290202714503, 6170249.511778025887907 ], [ 5645590.26244134735316, 6170259.884150817990303 ], [ 5645601.673966553062201, 6170269.182773953303695 ], [ 5645613.941966595128179, 6170277.318096609786153 ], [ 5645626.94829392619431, 6170284.211771182715893 ], [ 5645640.567690503783524, 6170289.797407817095518 ], [ 5645654.668994094245136, 6170294.021213778294623 ], [ 5645669.116401434876025, 6170296.84251150675118 ], [ 5645683.770776096731424, 6170298.234130362980068 ], [ 5645698.490988438948989, 6170298.18266829662025 ], [ 5645713.135274770669639, 6170296.688620914705098 ], [ 5645727.562602609395981, 6170293.766376711428165 ], [ 5645741.634028901346028, 6170289.444078494794667 ], [ 5645755.214038117788732, 6170283.763352359645069 ], [ 5645768.171847348101437, 6170276.778906805440784 ], [ 5645780.382665805518627, 6170268.558005859144032 ], [ 5645791.728896631859243, 6170259.179821292869747 ], [ 5645802.101269423961639, 6170248.734670148231089 ], [ 5645811.399892559275031, 6170237.323144942522049 ], [ 5645819.535215215757489, 6170225.055144900456071 ], [ 5645826.428889788687229, 6170212.048817569389939 ], [ 5645832.014526423066854, 6170198.429420991800725 ], [ 5645836.238332384265959, 6170184.328117401339114 ], [ 5645839.059630112722516, 6170169.880710060708225 ], [ 5645840.451248968951404, 6170155.226335398852825 ], [ 5645840.399786902591586, 6170140.506123056635261 ], [ 5645838.905739520676434, 6170125.86183672491461 ], [ 5645835.983495317399502, 6170111.434508886188269 ], [ 5645807.20259655546397, 6169998.215521417558193 ], [ 5645802.880298338830471, 6169984.144095125608146 ], [ 5645797.199572203680873, 6169970.564085909165442 ], [ 5645790.215126649476588, 6169957.606276678852737 ], [ 5645781.994225703179836, 6169945.395458221435547 ], [ 5645772.616041136905551, 6169934.049227395094931 ], [ 5645762.170889992266893, 6169923.676854602992535 ], [ 5645750.759364786557853, 6169914.378231467679143 ], [ 5645738.491364744491875, 6169906.242908811196685 ], [ 5645725.485037413425744, 6169899.349234238266945 ], [ 5645711.86564083583653, 6169893.76359760388732 ], [ 5645697.764337245374918, 6169889.539791642688215 ], [ 5645683.316929904744029, 6169886.718493914231658 ], [ 5645668.662555242888629, 6169885.32687505800277 ], [ 5645653.942342900671065, 6169885.378337124362588 ], [ 5645639.298056568950415, 6169886.87238450627774 ], [ 5645624.870728730224073, 6169889.794628709554672 ], [ 5645610.799302438274026, 6169894.116926926188171 ], [ 5645597.219293221831322, 6169899.797653061337769 ], [ 5645584.261483991518617, 6169906.782098615542054 ], [ 5645572.050665534101427, 6169915.002999561838806 ], [ 5645560.704434707760811, 6169924.381184128113091 ], [ 5645550.332061915658414, 6169934.826335272751749 ], [ 5645541.033438780345023, 6169946.237860478460789 ], [ 5645532.898116123862565, 6169958.505860520526767 ], [ 5645526.004441550932825, 6169971.512187851592898 ], [ 5645520.418804916553199, 6169985.131584429182112 ], [ 5645516.194998955354095, 6169999.232888019643724 ], [ 5645513.373701226897538, 6170013.680295360274613 ], [ 5645511.98208237066865, 6170028.334670022130013 ], [ 5645512.033544437028468, 6170043.054882364347577 ], [ 5645513.52759181894362, 6170057.699168696068227 ], [ 5645516.449836022220552, 6170072.126496534794569 ], [ 5645545.230734784156084, 6170185.345484003424644 ] ] ] ] } },
{ "type": "Feature", "properties": { "enclave_id": "E02", "colectividad": "china (con presencia taiwanesa fundacional)", "barrios_declarados": "Belgrano", "estado_via_D": "abierta", "nivel_precision": "alta", "n_grupos_fuentes": "2", "es_normativa": "no", "designacion_oficial": "ninguna norma localizada. La peatonalizacion de 2015 y el arco de 2009 presumiblemente tienen acto administrativo detras, sin numero localizado.", "advertencia": "El poligono real de consumo son DOS CUADRAS, no el barrio. Un poligono de cuatro manzanas sobredimensiona la via D. Vacio llamativo de establecimientos: recomienda una segunda pasada especifica.", "metodo_geometria": "eje+buffer", "computa_via_D": "si", "n_tramos": 2, "largo_eje_m": 384.7, "motivo_no_computa": "", "buffer_m": 150, "ha": 17.63 }, "geometry": { "type": "Polygon", "coordinates": [ [ [ 5641986.521739242598414, 6175430.186267151497304 ], [ 5641978.742195925675333, 6175442.68290692102164 ], [ 5641972.224998129531741, 6175455.881900543347001 ], [ 5641967.032910032197833, 6175469.656134494580328 ], [ 5641963.215934280306101, 6175483.872955371625721 ], [ 5641960.810830437578261, 6175498.395447419025004 ], [ 5641959.840760967694223, 6175513.083751098252833 ], [ 5641960.315068170428276, 6175527.796410015784204 ], [ 5641962.2291842084378, 6175542.391733223572373 ], [ 5641965.564675097353756, 6175556.729159780777991 ], [ 5641970.289418236352503, 6175570.670612432062626 ], [ 5641976.357911767438054, 6175584.08182736672461 ], [ 5641983.711712778545916, 6175596.833647253923118 ], [ 5641992.28000014834106, 6175608.803265096619725 ], [ 5642001.980256583541632, 6175619.875406933017075 ], [ 5642012.719063312746584, 6175629.943441983312368 ], [ 5642024.39299975708127, 6175638.910409566946328 ], [ 5642036.889639526605606, 6175646.68995288386941 ], [ 5642050.088633148930967, 6175653.207150680013001 ], [ 5642063.862867100164294, 6175658.399238777346909 ], [ 5642078.079687977209687, 6175662.216214529238641 ], [ 5642092.60218002460897, 6175664.621318371966481 ], [ 5642107.290483703836799, 6175665.591387841850519 ], [ 5642122.00314262136817, 6175665.117080639116466 ], [ 5642136.598465829156339, 6175663.202964601106942 ], [ 5642150.935892386361957, 6175659.867473712190986 ], [ 5642164.877345037646592, 6175655.142730573192239 ], [ 5642178.288559972308576, 6175649.074237042106688 ], [ 5642191.040379859507084, 6175641.720436030998826 ], [ 5642203.009997702203691, 6175633.152148661203682 ], [ 5642214.082139538601041, 6175623.45189222600311 ], [ 5642217.52935453876853, 6175619.77501034643501 ], [ 5642224.335363890975714, 6175623.328696310520172 ], [ 5642237.988997188396752, 6175628.830114086158574 ], [ 5642252.116117746569216, 6175632.966750940307975 ], [ 5642266.580673674121499, 6175635.698768799193203 ], [ 5642281.243363388814032, 6175636.99985683709383 ], [ 5642295.962977173738182, 6175636.857484865002334 ], [ 5642310.59775710105896, 6175635.273024003021419 ], [ 5642325.006762241013348, 6175632.261733475141227 ], [ 5642339.051225995644927, 6175627.852613655850291 ], [ 5642352.59589250292629, 6175622.0881267786026 ], [ 5642365.510319219902158, 6175615.023788003250957 ], [ 5642377.670133156701922, 6175606.727630774490535 ], [ 5642388.958228658884764, 6175597.27955162152648 ], [ 5642399.26589519623667, 6175586.770540710538626 ], [ 5642408.493864303454757, 6175575.301805563271046 ], [ 5642416.553265595808625, 6175562.983796366490424 ], [ 5642423.36648263130337, 6175549.935142283327878 ], [ 5642428.867900406941772, 6175536.281508985906839 ], [ 5642433.004537261091173, 6175522.154388427734375 ], [ 5642435.736555119976401, 6175507.689832500182092 ], [ 5642437.037643157877028, 6175493.027142785489559 ], [ 5642436.895271185785532, 6175478.30752900056541 ], [ 5642435.310810323804617, 6175463.672749073244631 ], [ 5642432.299519795924425, 6175449.263743933290243 ], [ 5642427.890399976633489, 6175435.219280178658664 ], [ 5642422.125913099385798, 6175421.674613671377301 ], [ 5642415.061574324034154, 6175408.760186954401433 ], [ 5642406.765417095273733, 6175396.600373017601669 ], [ 5642397.317337942309678, 6175385.312277515418828 ], [ 5642387.667710403911769, 6175375.847529241815209 ], [ 5642392.725266558118165, 6175365.603870780207217 ], [ 5642397.91692079231143, 6175351.829473295249045 ], [ 5642401.733448741026223, 6175337.612532197497785 ], [ 5642404.138095153495669, 6175323.089964401908219 ], [ 5642405.107701971195638, 6175308.40163017436862 ], [ 5642404.632931349799037, 6175293.688986204564571 ], [ 5642402.718355589546263, 6175279.093723294325173 ], [ 5642399.382413102313876, 6175264.756401805207133 ], [ 5642394.65723083820194, 6175250.815097981132567 ], [ 5642388.588314884342253, 6175237.404074198566377 ], [ 5642381.234112219884992, 6175224.652485948055983 ], [ 5642372.665447835810483, 6175212.683137994259596 ], [ 5642362.964842655695975, 6175201.611301702447236 ], [ 5642352.225718808360398, 6175191.54360490757972 ], [ 5642340.551499928347766, 6175182.577005033381283 ], [ 5642328.054615125991404, 6175174.79785533901304 ], [ 5642314.855416231788695, 6175168.281073288060725 ], [ 5642301.081018746830523, 6175163.089419053867459 ], [ 5642286.864077649079263, 6175159.272891105152667 ], [ 5642272.341509853489697, 6175156.86824469268322 ], [ 5642257.653175625950098, 6175155.898637874983251 ], [ 5642242.940531656146049, 6175156.373408496379852 ], [ 5642228.345268745906651, 6175158.287984256632626 ], [ 5642214.007947256788611, 6175161.623926743865013 ], [ 5642200.066643432714045, 6175166.349109007976949 ], [ 5642186.655619650147855, 6175172.418024961836636 ], [ 5642173.904031399637461, 6175179.772227626293898 ], [ 5642161.934683445841074, 6175188.340892010368407 ], [ 5642150.862847154028714, 6175198.041497190482914 ], [ 5642140.795150359161198, 6175208.780621037818491 ], [ 5642131.828550484962761, 6175220.454839917831123 ], [ 5642057.875210138037801, 6175327.200366591103375 ], [ 5641986.521739242598414, 6175430.186267151497304 ] ] ] } },
{ "type": "Feature", "properties": { "enclave_id": "E03", "colectividad": "coreana", "barrios_declarados": "Bajo Flores (Flores)", "estado_via_D": "abierta", "nivel_precision": "media-alta (eje, cabeceras y cantidad de cuadras; sin alturas)", "n_grupos_fuentes": "3", "es_normativa": "no", "designacion_oficial": "ninguna norma. El GCBA lo reconoce como producto turistico (Barrio Coreano, Circuito 2): reconocimiento administrativo blando, no designacion territorial.", "advertencia": "DOS CORRECCIONES. Primera: la adjudicacion a Parque Chacabuco es erronea pero tiene raiz real, porque Av. Carabobo ES el limite entre Flores y Parque Chacabuco y la vereda impar puede caer del otro lado. Territorialmente el enclave es Bajo Flores, Comuna 7. Segunda: 'Baek-ku' (blanco-nueve) NO es un nombre de barrio, significa literalmente 'ciento nueve', por la linea de colectivo 109. Cargarlo como toponimo coreano seria un error de traduccion.", "metodo_geometria": "eje+buffer", "computa_via_D": "si", "n_tramos": 1, "largo_eje_m": 767.9, "motivo_no_computa": "", "buffer_m": 150, "ha": 30.05 }, "geometry": { "type": "Polygon", "coordinates": [ [ [ 5641986.509772447869182, 6166295.123797978274524 ], [ 5641900.206882427446544, 6166365.591620575636625 ], [ 5641889.15724020358175, 6166375.567528914660215 ], [ 5641879.150849500671029, 6166386.589574350044131 ], [ 5641870.286268084309995, 6166398.549195447005332 ], [ 5641862.650807484984398, 6166411.328596133738756 ], [ 5641856.319673035293818, 6166424.801905936561525 ], [ 5641851.861994538456202, 6166435.657566864043474 ], [ 5641847.231297786347568, 6166448.590515601448715 ], [ 5641843.803174623288214, 6166461.892864529974759 ], [ 5641841.606376264244318, 6166475.453048614785075 ], [ 5641840.659326965920627, 6166489.157340390607715 ], [ 5641840.969969503581524, 6166502.890803780406713 ], [ 5641842.535698561929166, 6166516.538258046843112 ], [ 5641843.924383932724595, 6166525.141527819447219 ], [ 5641846.980316698551178, 6166539.541131101548672 ], [ 5641851.432942247949541, 6166553.571862567216158 ], [ 5641857.239379364065826, 6166567.098598602227867 ], [ 5641864.343708883039653, 6166579.991069344803691 ], [ 5641872.677512226626277, 6166592.125113253481686 ], [ 5641882.160530313849449, 6166603.383872852660716 ], [ 5641892.701436497271061, 6166613.658920131623745 ], [ 5641904.19871608633548, 6166622.851300769485533 ], [ 5641916.541643995791674, 6166630.872487114742398 ], [ 5641929.611351080238819, 6166637.645230758935213 ], [ 5641943.281968917697668, 6166643.104306477122009 ], [ 5641957.421841983683407, 6166647.197140387259424 ], [ 5641971.894795572385192, 6166649.884316260926425 ], [ 5641986.561447228305042, 6166651.139955125749111 ], [ 5642001.280549078248441, 6166650.951964491978288 ], [ 5642015.910348125733435, 6166649.322154812514782 ], [ 5642030.309951407834888, 6166646.266222046688199 ], [ 5642044.340682873502374, 6166641.813596497289836 ], [ 5642057.867418908514082, 6166636.007159381173551 ], [ 5642070.759889651089907, 6166628.902829862199724 ], [ 5642082.893933559767902, 6166620.5690265186131 ], [ 5642094.152693158946931, 6166611.086008431389928 ], [ 5642104.427740437909961, 6166600.545102247968316 ], [ 5642113.620121075771749, 6166589.047822658903897 ], [ 5642121.641307421028614, 6166576.704894749447703 ], [ 5642125.787837019190192, 6166568.703126174397767 ], [ 5642177.657544748857617, 6166526.350600533187389 ], [ 5642179.008445559069514, 6166525.132332534529269 ], [ 5642180.445647648535669, 6166524.017182298004627 ], [ 5642263.406653894111514, 6166452.858208782970905 ], [ 5642265.526125232689083, 6166450.851574815809727 ], [ 5642267.760745154693723, 6166448.974019908346236 ], [ 5642384.785205138847232, 6166340.418765700422227 ], [ 5642385.794313959777355, 6166339.386050650849938 ], [ 5642386.881715950556099, 6166338.436125447042286 ], [ 5642474.003956041298807, 6166254.443827917799354 ], [ 5642560.205953042022884, 6166172.578105917200446 ], [ 5642618.191792738623917, 6166119.556275227107108 ], [ 5642629.496339173987508, 6166113.440695372410119 ], [ 5642641.694606401026249, 6166105.201182254590094 ], [ 5642653.026522123254836, 6166095.805705374106765 ], [ 5642663.382953797467053, 6166085.344748308882117 ], [ 5642672.664163326844573, 6166073.919055794365704 ], [ 5642680.780767588876188, 6166061.638663495890796 ], [ 5642687.6545992475003, 6166048.62183830421418 ], [ 5642693.2194595457986, 6166034.99393936060369 ], [ 5642697.421755838207901, 6166020.886210782453418 ], [ 5642700.221017713658512, 6166006.434517708607018 ], [ 5642701.5902867494151, 6165991.778037843294442 ], [ 5642701.516376137733459, 6165977.057921098545194 ], [ 5642699.999997676350176, 6165962.415930246002972 ], [ 5642697.055754920467734, 6165947.99307566229254 ], [ 5642692.712002535350621, 6165933.92825732100755 ], [ 5642687.010573233477771, 6165920.356927111744881 ], [ 5642680.006374893710017, 6165907.409784362651408 ], [ 5642671.766861775889993, 6165895.211517135612667 ], [ 5642662.371384895406663, 6165883.87960141338408 ], [ 5642651.910427830182016, 6165873.523169739171863 ], [ 5642640.484735315665603, 6165864.241960209794343 ], [ 5642628.204343017190695, 6165856.125355947762728 ], [ 5642615.187517825514078, 6165849.251524289138615 ], [ 5642601.559618881903589, 6165843.686663990840316 ], [ 5642587.451890303753316, 6165839.484367698431015 ], [ 5642573.000197229906917, 6165836.685105822980404 ], [ 5642558.34371736459434, 6165835.315836787223816 ], [ 5642543.623600619845092, 6165835.389747398905456 ], [ 5642528.981609767302871, 6165836.906125860288739 ], [ 5642514.558755183592439, 6165839.850368616171181 ], [ 5642500.493936842307448, 6165844.194121001288295 ], [ 5642485.78727016877383, 6165849.539697229862213 ], [ 5642472.236961568705738, 6165855.231056589633226 ], [ 5642459.308665802702308, 6165862.221164108254015 ], [ 5642447.126495908945799, 6165870.4429139951244 ], [ 5642435.807402037084103, 6165879.817376563325524 ], [ 5642356.716549049131572, 6165952.137478129938245 ], [ 5642355.718249855563045, 6165953.14460012037307 ], [ 5642354.64332358725369, 6165954.069494443014264 ], [ 5642267.005660542286932, 6166037.298663246445358 ], [ 5642266.616597155109048, 6166037.706286696717143 ], [ 5642266.192223626188934, 6166038.077008025720716 ], [ 5642179.703445613384247, 6166121.458601156249642 ], [ 5642065.876042347401381, 6166227.048173618502915 ], [ 5641986.509772447869182, 6166295.123797978274524 ] ] ] } },
{ "type": "Feature", "properties": { "enclave_id": "E04", "colectividad": "coreana (extension comercial, no nucleo residencial)", "barrios_declarados": "Floresta / Flores — en disputa", "estado_via_D": "abierta", "nivel_precision": "alta — el enclave mejor documentado por altura de puerta de todo el relevamiento", "n_grupos_fuentes": "4", "es_normativa": "no", "designacion_oficial": "ninguna. Circula la etiqueta periodistica 'Corea Soho' (La Nacion 2020), sin respaldo normativo.", "advertencia": "CONTRADICCION DE BARRIO SIN RESOLVER: La Nacion y Nueva Ciudad lo ubican en Floresta; Diario de Flores y el GCBA en Flores. Las alturas caen sobre la franja limitrofe, ninguna fuente es obviamente falsa. PARA POLIGONIZAR: usar las alturas, no el nombre del barrio. Segunda advertencia: el iman primario de Av. Avellaneda es la ropa, no la comida.", "metodo_geometria": "eje+buffer", "computa_via_D": "si", "n_tramos": 1, "largo_eje_m": 118.3, "motivo_no_computa": "", "buffer_m": 150, "ha": 10.61 }, "geometry": { "type": "Polygon", "coordinates": [ [ [ 5639545.149124510586262, 6168083.652827479876578 ], [ 5639540.930130165070295, 6168097.755571413785219 ], [ 5639538.113762061111629, 6168112.203940541483462 ], [ 5639536.727143364958465, 6168126.858789171092212 ], [ 5639536.783627970144153, 6168141.578983097337186 ], [ 5639538.282671901397407, 6168156.222758807241917 ], [ 5639541.209838544018567, 6168170.649088735692203 ], [ 5639545.536937684752047, 6168184.719039438292384 ], [ 5639551.222296993248165, 6168198.297109599225223 ], [ 5639558.211163350380957, 6168211.252534979954362 ], [ 5639566.436230153776705, 6168223.460547751747072 ], [ 5639575.81828551273793, 6168234.803578077815473 ], [ 5639586.266975106671453, 6168245.172386376187205 ], [ 5639597.681672342121601, 6168254.467115353792906 ], [ 5639609.952447445131838, 6168262.598251690156758 ], [ 5639622.961126143112779, 6168269.487488098442554 ], [ 5639636.582427749410272, 6168275.068477463908494 ], [ 5639650.685171683318913, 6168279.28747180942446 ], [ 5639665.133540811017156, 6168282.103839913383126 ], [ 5639679.788389440625906, 6168283.49045860953629 ], [ 5639694.50858336687088, 6168283.433974004350603 ], [ 5639709.15235907677561, 6168281.934930073097348 ], [ 5639723.578689005225897, 6168279.007763430476189 ], [ 5639737.648639707826078, 6168274.680664289742708 ], [ 5639751.226709868758917, 6168268.995304981246591 ], [ 5639764.182135249488056, 6168262.006438624113798 ], [ 5639776.390148021280766, 6168253.78137182071805 ], [ 5639787.733178347349167, 6168244.399316461756825 ], [ 5639798.101986645720899, 6168233.950626867823303 ], [ 5639807.3967156233266, 6168222.535929632373154 ], [ 5639815.527851959690452, 6168210.265154529362917 ], [ 5639822.417088367976248, 6168197.256475831381977 ], [ 5639827.998077733442187, 6168183.635174225084484 ], [ 5639867.435440314002335, 6168072.067311627790332 ], [ 5639871.654434659518301, 6168057.964567693881691 ], [ 5639874.470802763476968, 6168043.516198566183448 ], [ 5639875.857421459630132, 6168028.861349936574697 ], [ 5639875.800936854444444, 6168014.141156010329723 ], [ 5639874.30189292319119, 6167999.497380300424993 ], [ 5639871.37472628057003, 6167985.071050371974707 ], [ 5639867.04762713983655, 6167971.001099669374526 ], [ 5639861.362267831340432, 6167957.423029508441687 ], [ 5639854.37340147420764, 6167944.467604127712548 ], [ 5639846.148334670811892, 6167932.259591355919838 ], [ 5639836.766279311850667, 6167920.916561029851437 ], [ 5639826.317589717917144, 6167910.547752731479704 ], [ 5639814.902892482466996, 6167901.253023753874004 ], [ 5639802.632117379456758, 6167893.121887417510152 ], [ 5639789.623438681475818, 6167886.232651009224355 ], [ 5639776.002137075178325, 6167880.651661643758416 ], [ 5639761.899393141269684, 6167876.43266729824245 ], [ 5639747.451024013571441, 6167873.616299194283783 ], [ 5639732.796175383962691, 6167872.22968049813062 ], [ 5639718.075981457717717, 6167872.286165103316307 ], [ 5639703.432205747812986, 6167873.785209034569561 ], [ 5639689.0058758193627, 6167876.712375677190721 ], [ 5639674.935925116762519, 6167881.039474817924201 ], [ 5639661.35785495582968, 6167886.724834126420319 ], [ 5639648.402429575100541, 6167893.713700483553112 ], [ 5639636.194416803307831, 6167901.93876728694886 ], [ 5639624.85138647723943, 6167911.320822645910084 ], [ 5639614.482578178867698, 6167921.769512239843607 ], [ 5639605.187849201261997, 6167933.184209475293756 ], [ 5639597.056712864898145, 6167945.454984578303993 ], [ 5639590.167476456612349, 6167958.463663276284933 ], [ 5639584.58648709114641, 6167972.084964882582426 ], [ 5639545.149124510586262, 6168083.652827479876578 ] ] ] } },
{ "type": "Feature", "properties": { "enclave_id": "E05", "colectividad": "judia (askenazi historica, hoy con fuerte componente sefardi y ortodoxo)", "barrios_declarados": "Balvanera (Once)", "estado_via_D": "abierta", "nivel_precision": "alta — unico enclave con altura de puerta de fuente oficial", "n_grupos_fuentes": "3", "es_normativa": "no", "designacion_oficial": "ninguna localizada", "advertencia": "El poligono de DAIA es NOTABLEMENTE mas grande que la nube real de puertas, que se concentra en Tucuman 2300-2800 y Paso 700. Si se poligoniza el declarado, se diluye la densidad. Segunda: el mismo texto de DAIA se titula 'Once, de enclave judio a espacio multicultural': la fuente que aporta el poligono avisa que el enclave esta en retirada.", "metodo_geometria": "eje+buffer", "computa_via_D": "si", "n_tramos": 5, "largo_eje_m": 1884.8, "motivo_no_computa": "", "buffer_m": 150, "ha": 56.52 }, "geometry": { "type": "Polygon", "coordinates": [ [ [ 5645991.169474159367383, 6170456.147605047561228 ], [ 5645995.984482931904495, 6170470.058140274137259 ], [ 5646002.139777004718781, 6170483.42973907943815 ], [ 5646009.576077531091869, 6170496.133625660091639 ], [ 5646018.221768870949745, 6170508.047454642131925 ], [ 5646027.993588291108608, 6170519.056489339098334 ], [ 5646038.797427828423679, 6170529.054706729948521 ], [ 5646050.529240602627397, 6170537.945818515494466 ], [ 5646063.076042843982577, 6170545.644198427908123 ], [ 5646076.317001986317337, 6170552.075706861913204 ], [ 5646090.124600356444716, 6170557.178404874168336 ], [ 5646104.365863233804703, 6170560.903150693513453 ], [ 5646118.903639471158385, 6170563.214072981849313 ], [ 5646133.597922336310148, 6170564.088916294276714 ], [ 5646148.307197852991521, 6170563.51925541087985 ], [ 5646149.722777131944895, 6170563.324266701005399 ], [ 5646147.924012029543519, 6170567.725287592969835 ], [ 5646143.717216212302446, 6170581.831675106659532 ], [ 5646140.913345030508935, 6170596.282474605366588 ], [ 5646139.539401297457516, 6170610.938516989350319 ], [ 5646139.608616842888296, 6170625.658656559884548 ], [ 5646141.120325081981719, 6170640.301130324602127 ], [ 5646144.059967437759042, 6170654.724923257716 ], [ 5646148.399233548901975, 6170668.791126347146928 ], [ 5646154.096333909779787, 6170682.364274369552732 ], [ 5646161.096402329392731, 6170695.313650488853455 ], [ 5646169.332024321891367, 6170707.514545133337379 ], [ 5646178.723886346444488, 6170718.849457019008696 ], [ 5646189.181539637967944, 6170729.209224748425186 ], [ 5646200.604271276853979, 6170738.494078093208373 ], [ 5646212.882074114866555, 6170746.614598842337728 ], [ 5646225.896706197410822, 6170753.492581940256059 ], [ 5646239.522829504683614, 6170759.061788651160896 ], [ 5646253.629217018373311, 6170763.268584468401968 ], [ 5646268.080016517080367, 6170766.072455650195479 ], [ 5646282.736058901064098, 6170767.446399383246899 ], [ 5646297.456198471598327, 6170767.377183837816119 ], [ 5646312.098672236315906, 6170765.865475598722696 ], [ 5646398.57160394731909, 6170752.622586855664849 ], [ 5646413.578690460883081, 6170750.407265054993331 ], [ 5646413.620092855766416, 6170750.399059826508164 ], [ 5646413.662097825668752, 6170750.394928641617298 ], [ 5646495.886208025738597, 6170738.209909589029849 ], [ 5646560.534798846580088, 6170728.637214777991176 ], [ 5646573.707954218611121, 6170726.684315168298781 ], [ 5646701.610670772381127, 6170708.160577146336436 ], [ 5646716.057907104492188, 6170705.338403850793839 ], [ 5646730.158954689279199, 6170701.113743299618363 ], [ 5646743.778012729249895, 6170695.527281283400953 ], [ 5646756.783922250382602, 6170688.63281848654151 ], [ 5646769.051429235376418, 6170680.496752353385091 ], [ 5646780.462390885688365, 6170671.197437648661435 ], [ 5646790.906913402490318, 6170660.824431857094169 ], [ 5646800.284410323947668, 6170649.477632693946362 ], [ 5646808.504571228288114, 6170637.26631603948772 ], [ 5646815.488231472671032, 6170624.308083546347916 ], [ 5646821.168134592473507, 6170610.727730078622699 ], [ 5646825.489580014720559, 6170596.656041864305735 ], [ 5646828.410949856974185, 6170582.228536951355636 ], [ 5646829.904109731316566, 6170567.584160100668669 ], [ 5646829.954679692164063, 6170552.863944666460156 ], [ 5646828.562172723002732, 6170538.209654370322824 ], [ 5646825.739999427460134, 6170523.762418038211763 ], [ 5646821.515338876284659, 6170509.661370453424752 ], [ 5646815.928876860067248, 6170496.042312413454056 ], [ 5646809.034414063207805, 6170483.036402892321348 ], [ 5646800.898347930051386, 6170470.768895907327533 ], [ 5646791.59903322532773, 6170459.357934257015586 ], [ 5646786.289620095863938, 6170454.011915359646082 ], [ 5646796.370961732231081, 6170444.536116806790233 ], [ 5646806.057104394771159, 6170433.451625836081803 ], [ 5646814.610135526396334, 6170421.471101715229452 ], [ 5646821.94768476113677, 6170408.709923439659178 ], [ 5646827.999087488278747, 6170395.290988132357597 ], [ 5646832.706065393052995, 6170381.343527476303279 ], [ 5646836.023287704214454, 6170367.001863141544163 ], [ 5646837.918807757087052, 6170352.404113195836544 ], [ 5646838.374370658770204, 6170337.690861950628459 ], [ 5646837.385589088313282, 6170323.003806059248745 ], [ 5646834.961985552683473, 6170308.484389898367226 ], [ 5646831.126900679431856, 6170294.272443383000791 ], [ 5646825.91726843174547, 6170280.504835326224566 ], [ 5646819.383260416798294, 6170267.314155320636928 ], [ 5646811.587802702561021, 6170254.82743682526052 ], [ 5646802.605969809927046, 6170243.164933765307069 ], [ 5646792.524261698126793, 6170232.438962419517338 ], [ 5646781.439770727418363, 6170222.75281975697726 ], [ 5646769.459246606566012, 6170214.199788625352085 ], [ 5646756.698068330995739, 6170206.862239390611649 ], [ 5646743.279133023694158, 6170200.810836663469672 ], [ 5646729.33167236763984, 6170196.103858758695424 ], [ 5646714.990008032880723, 6170192.786636447533965 ], [ 5646700.392258087173104, 6170190.891116394661367 ], [ 5646685.67900684196502, 6170190.435553492978215 ], [ 5646670.991950950585306, 6170191.424335063435137 ], [ 5646557.22618655487895, 6170204.716341003775597 ], [ 5646553.548925694078207, 6170205.19212013669312 ], [ 5646538.872568897902966, 6170207.275749158114195 ], [ 5646538.869544444605708, 6170207.276331186294556 ], [ 5646538.866477522067726, 6170207.276614089496434 ], [ 5646449.189992262981832, 6170220.011899898760021 ], [ 5646442.871584397740662, 6170190.063534049317241 ], [ 5646439.347816726192832, 6170173.328200500458479 ], [ 5646438.699859260581434, 6170170.396695642732084 ], [ 5646411.329829221591353, 6170052.194493878632784 ], [ 5646406.910421746782959, 6170033.097800260409713 ], [ 5646387.775336337275803, 6169943.261477263644338 ], [ 5646364.821859802119434, 6169835.474422325380147 ], [ 5646361.053131664171815, 6169821.244735470972955 ], [ 5646355.907797769643366, 6169807.452968402765691 ], [ 5646349.435410496778786, 6169794.231943377293646 ], [ 5646341.698302471078932, 6169781.708986092358828 ], [ 5646332.770986274816096, 6169770.004699472337961 ], [ 5646322.739436841569841, 6169759.231802196241915 ], [ 5646311.700263476930559, 6169749.494043153710663 ], [ 5646299.759779455140233, 6169740.885202286764979 ], [ 5646287.032978163100779, 6169733.488187440671027 ], [ 5646273.642425656318665, 6169727.374235910363495 ], [ 5646259.717080275528133, 6169722.60222839191556 ], [ 5646245.391050707548857, 6169719.218121926300228 ], [ 5646230.802304449491203, 6169717.25450730882585 ], [ 5646216.091339102014899, 6169716.730295221321285 ], [ 5646201.399829304777086, 6169717.650534113869071 ], [ 5646186.86926232650876, 6169720.006361581385136 ], [ 5646172.639575472101569, 6169723.775089719332755 ], [ 5646158.847808403894305, 6169728.920423613861203 ], [ 5646145.62678337842226, 6169735.392810886725783 ], [ 5646133.103826093487442, 6169743.129918912425637 ], [ 5646121.399539473466575, 6169752.057235108688474 ], [ 5646110.626642197370529, 6169762.088784541934729 ], [ 5646100.888883154839277, 6169773.127957906574011 ], [ 5646092.280042287893593, 6169785.068441928364336 ], [ 5646084.883027441799641, 6169797.79524322040379 ], [ 5646078.769075911492109, 6169811.185795727185905 ], [ 5646073.997068393044174, 6169825.111141107976437 ], [ 5646070.612961927428842, 6169839.437170675955713 ], [ 5646068.649347309954464, 6169854.025916934013367 ], [ 5646068.125135222449899, 6169868.73688228148967 ], [ 5646069.045374114997685, 6169883.428392078727484 ], [ 5646071.40120158251375, 6169897.958959056995809 ], [ 5646094.355385048314929, 6170005.749333664774895 ], [ 5646094.356255981139839, 6170005.752622067928314 ], [ 5646094.356800551526248, 6170005.755979975685477 ], [ 5646113.766903730109334, 6170096.883469675667584 ], [ 5646114.338087945245206, 6170099.454135841690004 ], [ 5646117.34272416587919, 6170112.43746396061033 ], [ 5646106.345502145588398, 6170110.68934753164649 ], [ 5646091.651219280436635, 6170109.814504219219089 ], [ 5646076.941943763755262, 6170110.384165102615952 ], [ 5646062.359333959408104, 6170112.392844035290182 ], [ 5646048.043828372843564, 6170115.821196340955794 ], [ 5646034.133293146267533, 6170120.636205113492906 ], [ 5646020.761694340966642, 6170126.791499186307192 ], [ 5646008.057807760313153, 6170134.22779971268028 ], [ 5645996.143978778272867, 6170142.873491052538157 ], [ 5645985.134944081306458, 6170152.64531047269702 ], [ 5645975.136726690456271, 6170163.44915001001209 ], [ 5645966.245614904910326, 6170175.180962784215808 ], [ 5645958.547234992496669, 6170187.727765025570989 ], [ 5645952.115726558491588, 6170200.968724167905748 ], [ 5645947.013028546236455, 6170214.776322538033128 ], [ 5645943.288282726891339, 6170229.017585415393114 ], [ 5645940.977360438555479, 6170243.555361652746797 ], [ 5645940.102517126128078, 6170258.24964451789856 ], [ 5645940.672178009524941, 6170272.958920034579933 ], [ 5645942.680856942199171, 6170287.54152983892709 ], [ 5645946.109209247864783, 6170301.857035425491631 ], [ 5645991.169474159367383, 6170456.147605047561228 ] ] ] } },
{ "type": "Feature", "properties": { "enclave_id": "E06", "colectividad": "judia sefardi y ortodoxa", "barrios_declarados": "Flores", "estado_via_D": "abierta", "nivel_precision": "alta en puntos, NULA en bordes — el caso inverso al Barrio Chino", "n_grupos_fuentes": "1", "es_normativa": "no", "designacion_oficial": "ninguna localizada", "advertencia": "n_grupos = 1. Con una sola fuente, y de 2015, este enclave NO deberia computar como 'delimitado' al mismo nivel que los demas, aunque tenga la lista de direcciones mas larga despues del Once. Y el Pasaje Valle, que yo habia nombrado, NO aparece en ninguna fuente legible: no debe cargarse.", "metodo_geometria": "eje+buffer", "computa_via_D": "no", "n_tramos": 4, "largo_eje_m": 1322.4, "motivo_no_computa": "n_grupos = 1 y de 2015: una sola fuente no delimita al mismo nivel que las demás", "buffer_m": 150, "ha": 59.19 }, "geometry": { "type": "MultiPolygon", "coordinates": [ [ [ [ 5640487.22451, 6168036.458739999681711 ], [ 5640487.237569999881089, 6168036.46344 ], [ 5640487.23759, 6168036.463449999690056 ], [ 5640617.252170000225306, 6168083.243150000460446 ], [ 5640617.256129999645054, 6168083.244359999895096 ], [ 5640617.260049999691546, 6168083.245989999733865 ], [ 5640732.912519999779761, 6168124.850859999656677 ], [ 5640747.746690000407398, 6168130.691549999639392 ], [ 5640747.770700000226498, 6168130.69967 ], [ 5640747.793890000320971, 6168130.710129999555647 ], [ 5640773.998359999619424, 6168141.017439999617636 ], [ 5640787.94493000023067, 6168145.72704999987036 ], [ 5640802.285969999618828, 6168149.04698000010103 ], [ 5640816.883360000327229, 6168150.945260000415146 ], [ 5640831.596529999747872, 6168151.403599999845028 ], [ 5640846.283769999630749, 6168150.417589999735355 ], [ 5640860.803639999590814, 6168147.996729999780655 ], [ 5640875.016309999860823, 6168144.164320000447333 ], [ 5640888.78491, 6168138.957290000282228 ], [ 5640901.976820000447333, 6168132.425769999623299 ], [ 5640914.465010000392795, 6168124.632670000195503 ], [ 5640926.12921, 6168115.653040000237525 ], [ 5640936.857080000452697, 6168105.573359999805689 ], [ 5640946.545319999568164, 6168094.4907 ], [ 5640955.10061, 6168082.51179 ], [ 5640962.440569999627769, 6168069.751989999786019 ], [ 5640968.4945, 6168056.33420000039041 ], [ 5640973.204110000282526, 6168042.387629999779165 ], [ 5640976.524039999581873, 6168028.046590000391006 ], [ 5640978.42231999989599, 6168013.449199999682605 ], [ 5640978.880660000257194, 6167998.736030000261962 ], [ 5640977.894650000147521, 6167984.048790000379086 ], [ 5640975.473790000192821, 6167969.528920000419021 ], [ 5640971.64138, 6167955.316250000149012 ], [ 5640966.434349999763072, 6167941.54765999969095 ], [ 5640959.90283, 6167928.355739999562502 ], [ 5640952.109729999676347, 6167915.86754999961704 ], [ 5640943.130099999718368, 6167904.20335999969393 ], [ 5640933.050420000217855, 6167893.475479999557137 ], [ 5640921.967760000377893, 6167883.78725 ], [ 5640909.988850000314415, 6167875.23195 ], [ 5640897.229050000198185, 6167867.892 ], [ 5640883.811259999871254, 6167861.83806 ], [ 5640857.627530000172555, 6167851.538909999653697 ], [ 5640840.74246000032872, 6167844.89071 ], [ 5640836.564299999736249, 6167843.317040000110865 ], [ 5640718.81104, 6167800.956419999711215 ], [ 5640718.81089000031352, 6167800.956369999796152 ], [ 5640588.791260000318289, 6167754.17485 ], [ 5640588.784629999659956, 6167754.17282999958843 ], [ 5640588.778199999593198, 6167754.170149999670684 ], [ 5640569.76573000010103, 6167747.331380000337958 ], [ 5640465.15216, 6167709.497739999555051 ], [ 5640451.080339999869466, 6167705.176719999872148 ], [ 5640436.652750000357628, 6167702.255789999850094 ], [ 5640422.008329999633133, 6167700.763070000335574 ], [ 5640407.28811, 6167700.712949999608099 ], [ 5640392.633860000409186, 6167702.105899999849498 ], [ 5640378.18671, 6167704.92851 ], [ 5640364.08579, 6167709.153599999845028 ], [ 5640350.466900000348687, 6167714.740480000153184 ], [ 5640337.461199999786913, 6167721.63533 ], [ 5640325.193939999677241, 6167729.771770000457764 ], [ 5640313.78326, 6167739.071429999545217 ], [ 5640303.339049999602139, 6167749.44476000033319 ], [ 5640293.961900000460446, 6167760.79184 ], [ 5640285.74211, 6167773.003410000354052 ], [ 5640278.758840000256896, 6167785.96184999961406 ], [ 5640273.079350000247359, 6167799.542380000464618 ], [ 5640268.758329999633133, 6167813.614190000109375 ], [ 5640265.83739999961108, 6167828.041790000163019 ], [ 5640264.344689999707043, 6167842.68621 ], [ 5640264.294560000300407, 6167857.406430000439286 ], [ 5640265.68752000015229, 6167872.060680000111461 ], [ 5640268.510130000300705, 6167886.507829999551177 ], [ 5640272.73522000014782, 6167900.608749999664724 ], [ 5640278.32209, 6167914.227629999630153 ], [ 5640285.216950000263751, 6167927.233330000191927 ], [ 5640293.353389999829233, 6167939.5005900003016 ], [ 5640302.653049999848008, 6167950.91127 ], [ 5640313.02637, 6167961.355480000376701 ], [ 5640324.373449999839067, 6167970.732630000449717 ], [ 5640336.585020000115037, 6167978.95242 ], [ 5640349.543460000306368, 6167985.935689999721944 ], [ 5640363.123990000225604, 6167991.615179999731481 ], [ 5640467.85941, 6168029.492890000343323 ], [ 5640468.103179999627173, 6168029.580819999799132 ], [ 5640487.22451, 6168036.458739999681711 ] ] ], [ [ [ 5639605.71796, 6167787.271990000270307 ], [ 5639605.707329999655485, 6167790.861440000124276 ], [ 5639606.066220000386238, 6167794.619330000132322 ], [ 5639606.244950000196695, 6167798.390150000341237 ], [ 5639606.76551999989897, 6167801.941700000315905 ], [ 5639607.10678, 6167805.515069999732077 ], [ 5639607.832299999892712, 6167809.21978999953717 ], [ 5639608.37976, 6167812.954830000177026 ], [ 5639609.245950000360608, 6167816.438319999724627 ], [ 5639609.935809999704361, 6167819.96095999982208 ], [ 5639611.020929999649525, 6167823.57663 ], [ 5639611.93188, 6167827.240129999816418 ], [ 5639613.135350000113249, 6167830.621969999745488 ], [ 5639614.167159999720752, 6167834.060010000132024 ], [ 5639615.60145999956876, 6167837.551920000463724 ], [ 5639616.86710000038147, 6167841.108470000326633 ], [ 5639618.396250000223517, 6167844.356049999594688 ], [ 5639619.760080000385642, 6167847.676409999839962 ], [ 5639621.529749999754131, 6167851.010940000414848 ], [ 5639623.137889999896288, 6167854.426289999857545 ], [ 5639624.977989999577403, 6167857.508360000327229 ], [ 5639626.660710000433028, 6167860.67905000038445 ], [ 5639628.748630000278354, 6167863.823959999717772 ], [ 5639630.683849999681115, 6167867.065349999815226 ], [ 5639632.817250000312924, 6167869.952290000393987 ], [ 5639634.802590000443161, 6167872.942699999548495 ], [ 5639637.188740000128746, 6167875.86785 ], [ 5639639.432330000214279, 6167878.903909999877214 ], [ 5639641.838360000401735, 6167881.567769999615848 ], [ 5639644.107309999875724, 6167884.34925 ], [ 5639646.768710000440478, 6167887.026460000313818 ], [ 5639649.299060000106692, 6167889.827960000373423 ], [ 5639651.95462999958545, 6167892.243180000223219 ], [ 5639654.48527, 6167894.78885000012815 ], [ 5639657.396270000375807, 6167897.192300000227988 ], [ 5639660.18903, 6167899.732300000265241 ], [ 5639663.068509999662638, 6167901.87557000014931 ], [ 5639665.836520000360906, 6167904.160969999618828 ], [ 5639668.96911, 6167906.267540000379086 ], [ 5639671.997349999845028, 6167908.521540000103414 ], [ 5639675.073049999773502, 6167910.372259999625385 ], [ 5639678.051730000413954, 6167912.375330000184476 ], [ 5639681.375730000436306, 6167914.16471999976784 ], [ 5639684.610310000367463, 6167916.111039999872446 ], [ 5639687.8525599995628, 6167917.651359999552369 ], [ 5639691.013279999606311, 6167919.352850000374019 ], [ 5639694.496650000102818, 6167920.807810000143945 ], [ 5639697.90644, 6167922.42772 ], [ 5639701.284079999662936, 6167923.642830000258982 ], [ 5639704.596319999545813, 6167925.026309999637306 ], [ 5639708.205579999834299, 6167926.132849999703467 ], [ 5639711.757679999805987, 6167927.41072 ], [ 5639792.387149999849498, 6167952.02128 ], [ 5639785.17942, 6167957.841629999689758 ], [ 5639774.688500000163913, 6167968.167709999717772 ], [ 5639765.260239999741316, 6167979.47236 ], [ 5639756.985430000349879, 6167991.64671 ], [ 5639749.943749999627471, 6168004.573509999550879 ], [ 5639744.203030000440776, 6168018.128270000219345 ], [ 5639703.29592000041157, 6168129.663879999890924 ], [ 5639698.911449999548495, 6168143.716059999540448 ], [ 5639695.925440000370145, 6168158.130320000462234 ], [ 5639694.366650000214577, 6168172.76786 ], [ 5639694.250099999830127, 6168187.487700000405312 ], [ 5639695.576910000294447, 6168202.148090000264347 ], [ 5639698.334289999678731, 6168216.607830000109971 ], [ 5639702.495710000395775, 6168230.72767 ], [ 5639708.021069999784231, 6168244.37163 ], [ 5639714.857160000130534, 6168257.408309999853373 ], [ 5639722.938160000368953, 6168269.712170000188053 ], [ 5639732.18623000010848, 6168281.16469999961555 ], [ 5639742.512319999746978, 6168291.655609999783337 ], [ 5639753.81697, 6168301.083870000205934 ], [ 5639765.99132, 6168309.358690000139177 ], [ 5639778.918119999580085, 6168316.400360000319779 ], [ 5639792.472869999706745, 6168322.141080000437796 ], [ 5639806.525050000287592, 6168326.52556 ], [ 5639820.939319999888539, 6168329.51157 ], [ 5639835.576849999837577, 6168331.070349999703467 ], [ 5639850.296690000221133, 6168331.1869 ], [ 5639864.95708, 6168329.860100000165403 ], [ 5639879.41682, 6168327.102710000239313 ], [ 5639893.536659999750555, 6168322.9413 ], [ 5639907.18061999976635, 6168317.415939999744296 ], [ 5639920.217310000211, 6168310.579839999787509 ], [ 5639932.52116, 6168302.498839999549091 ], [ 5639943.973690000362694, 6168293.250769999809563 ], [ 5639954.464599999599159, 6168282.924689999781549 ], [ 5639963.892869999632239, 6168271.620040000416338 ], [ 5639972.16768, 6168259.445690000429749 ], [ 5639979.209350000135601, 6168246.51889 ], [ 5639984.950070000253618, 6168232.964130000211298 ], [ 5640025.857180000282824, 6168121.428519999608397 ], [ 5640030.24165999982506, 6168107.37634 ], [ 5640033.22767, 6168092.96208 ], [ 5640034.786449999548495, 6168078.324540000408888 ], [ 5640034.903, 6168063.6047 ], [ 5640033.5762, 6168048.944310000166297 ], [ 5640030.81881, 6168034.484570000320673 ], [ 5640027.679100000299513, 6168023.831410000100732 ], [ 5640050.98135, 6168030.94338 ], [ 5640067.82986, 6168036.755269999615848 ], [ 5640081.96428, 6168040.866879999637604 ], [ 5640096.43365, 6168043.573280000127852 ], [ 5640111.09863, 6168044.848399999551475 ], [ 5640125.817959999665618, 6168044.679949999786913 ], [ 5640140.44991, 6168043.069579999893904 ], [ 5640154.853559999726713, 6168040.032770000398159 ], [ 5640168.8902000002563, 6168035.598790000192821 ], [ 5640182.424630000256002, 6168029.810320000164211 ], [ 5640195.326530000194907, 6168022.723120000213385 ], [ 5640207.471629999577999, 6168014.405439999885857 ], [ 5640218.74297, 6168004.93738 ], [ 5640229.03201000019908, 6167994.410129999741912 ], [ 5640238.239649999886751, 6167982.925069999881089 ], [ 5640246.277230000123382, 6167970.592810000292957 ], [ 5640253.067320000380278, 6167957.53211 ], [ 5640258.544549999758601, 6167943.868750000372529 ], [ 5640262.656159999780357, 6167929.73433000035584 ], [ 5640265.362560000270605, 6167915.264960000291467 ], [ 5640266.63767, 6167900.599980000406504 ], [ 5640266.46923, 6167885.880649999715388 ], [ 5640264.85886, 6167871.248700000345707 ], [ 5640261.82204999960959, 6167856.845049999654293 ], [ 5640257.388059999793768, 6167842.80841 ], [ 5640251.599600000306964, 6167829.27398 ], [ 5640244.512400000356138, 6167816.372080000117421 ], [ 5640236.19472, 6167804.226979999803007 ], [ 5640226.726660000160336, 6167792.955640000291169 ], [ 5640216.199409999884665, 6167782.666600000113249 ], [ 5640204.71435, 6167773.458960000425577 ], [ 5640192.38209000043571, 6167765.421380000188947 ], [ 5640179.321390000171959, 6167758.63129 ], [ 5640165.65802999958396, 6167753.154059999622405 ], [ 5640146.26088, 6167746.463019999675453 ], [ 5640141.13363999966532, 6167744.796860000118613 ], [ 5640010.194260000251234, 6167704.833440000191331 ], [ 5640010.192510000430048, 6167704.832999999634922 ], [ 5640010.190790000371635, 6167704.832379999570549 ], [ 5639950.21203, 6167686.52812 ], [ 5639988.75599000044167, 6167579.795199999585748 ], [ 5639988.75605, 6167579.795049999840558 ], [ 5640027.177969999611378, 6167473.40049 ], [ 5640031.49246000032872, 6167459.326670000329614 ], [ 5640034.406700000166893, 6167444.89771999977529 ], [ 5640035.89262, 6167430.252609999850392 ], [ 5640035.935909999534488, 6167415.532370000146329 ], [ 5640034.536159999668598, 6167400.878770000301301 ], [ 5640031.706840000115335, 6167386.432930000126362 ], [ 5640027.475209999829531, 6167372.33397 ], [ 5640021.882020000368357, 6167358.717679999768734 ], [ 5640014.981130000203848, 6167345.715180000290275 ], [ 5640006.838999999687076, 6167333.451689999550581 ], [ 5639997.534040000289679, 6167322.045330000109971 ], [ 5639987.155880000442266, 6167311.605940000154078 ], [ 5639975.80444, 6167302.23405 ], [ 5639963.589060000143945, 6167294.019930000416934 ], [ 5639950.627380000427365, 6167287.04268 ], [ 5639937.044219999574125, 6167281.369490000419319 ], [ 5639922.9704, 6167277.054999999701977 ], [ 5639908.541450000368059, 6167274.140759999863803 ], [ 5639893.896340000443161, 6167272.65484 ], [ 5639879.176099999807775, 6167272.611549999564886 ], [ 5639864.5225, 6167274.011300000362098 ], [ 5639850.076659999787807, 6167276.840610000304878 ], [ 5639835.977699999697506, 6167281.072250000201166 ], [ 5639822.361410000361502, 6167286.66543999966234 ], [ 5639809.35891, 6167293.566329999826849 ], [ 5639797.095420000143349, 6167301.708460000343621 ], [ 5639785.689059999771416, 6167311.013419999741018 ], [ 5639775.249669999815524, 6167321.39157999958843 ], [ 5639765.877779999747872, 6167332.74302 ], [ 5639757.66366, 6167344.958399999886751 ], [ 5639750.6864, 6167357.920079999603331 ], [ 5639745.01322, 6167371.503240000456572 ], [ 5639706.591289999894798, 6167477.897789999842644 ], [ 5639706.59124, 6167477.897959999740124 ], [ 5639706.591230000369251, 6167477.897979999892414 ], [ 5639664.458639999851584, 6167594.568219999782741 ], [ 5639664.458639999851584, 6167594.568230000324547 ], [ 5639664.457550000399351, 6167594.57125 ], [ 5639614.46643, 6167732.993490000255406 ], [ 5639613.359930000267923, 6167736.602610000409186 ], [ 5639612.08201, 6167740.154849999584258 ], [ 5639611.203789999708533, 6167743.635429999791086 ], [ 5639610.15166, 6167747.067230000160635 ], [ 5639609.40424, 6167750.767459999769926 ], [ 5639608.480659999884665, 6167754.427819999866188 ], [ 5639607.947839999571443, 6167757.977640000171959 ], [ 5639607.237130000256002, 6167761.496120000258088 ], [ 5639606.85599, 6167765.251830000430346 ], [ 5639606.295640000142157, 6167768.98505000025034 ], [ 5639606.11333, 6167772.569969999603927 ], [ 5639605.75091, 6167776.141200000420213 ], [ 5639605.739729999564588, 6167779.91617 ], [ 5639605.548000000417233, 6167783.68635 ], [ 5639605.71796, 6167787.271990000270307 ] ] ] ] } },
{ "type": "Feature", "properties": { "enclave_id": "E07", "colectividad": "boliviana", "barrios_declarados": "Liniers", "estado_via_D": "abierta", "nivel_precision": "baja (a nivel de mercado identificado, no de poligono)", "n_grupos_fuentes": "0 verificados (5 candidatos identificados y no extraidos)", "es_normativa": "no", "designacion_oficial": "ninguna localizada", "advertencia": "NO CARGAR el cuadrante de la consigna como si estuviera verificado. Es un enclave real y bien cubierto por prensa, simplemente no se termino. RECUPERABLE EN UNA PASADA CORTA.", "metodo_geometria": "eje+buffer", "computa_via_D": "si", "n_tramos": 3, "largo_eje_m": 4980.7, "motivo_no_computa": "", "buffer_m": 150, "ha": 131.72 }, "geometry": { "type": "Polygon", "coordinates": [ [ [ 5634658.469103533774614, 6166191.241449972614646 ], [ 5634652.995389256626368, 6166201.436203419230878 ], [ 5634647.336783156730235, 6166215.025444632396102 ], [ 5634643.037403354421258, 6166229.103890323080122 ], [ 5634640.138655227608979, 6166243.535957363434136 ], [ 5634638.668455305509269, 6166258.182657058350742 ], [ 5634638.640962417237461, 6166272.902933682315052 ], [ 5634640.056441335007548, 6166287.555022925138474 ], [ 5634642.901260222308338, 6166301.997817157767713 ], [ 5634647.148021917790174, 6166316.092224377207458 ], [ 5634652.755827784538269, 6166329.702507735230029 ], [ 5634659.67067158780992, 6166342.69759276509285 ], [ 5634667.825959601439536, 6166354.952329693362117 ], [ 5634677.143151942640543, 6166366.348698703572154 ], [ 5634687.532518956810236, 6166376.776946533471346 ], [ 5634698.894005360081792, 6166386.136643454432487 ], [ 5634711.118193827569485, 6166394.337650469504297 ], [ 5634724.087358742021024, 6166401.300987398251891 ], [ 5634737.676599955186248, 6166406.959593498148024 ], [ 5634751.755045645870268, 6166411.258973300457001 ], [ 5634766.187112686224282, 6166414.15772142726928 ], [ 5634780.833812381140888, 6166415.627921349368989 ], [ 5634834.645348767749965, 6166418.372267592698336 ], [ 5634845.869325331412256, 6166419.987578706815839 ], [ 5634846.457597806118429, 6166427.245893489569426 ], [ 5634849.079150979407132, 6166441.730877393856645 ], [ 5634853.1078573577106, 6166455.889154996722937 ], [ 5634858.504918295890093, 6166469.584374343976378 ], [ 5634865.218357147648931, 6166482.684642987325788 ], [ 5634873.18351982627064, 6166495.06379817891866 ], [ 5634882.32369746081531, 6166506.602621886879206 ], [ 5634892.550865144468844, 6166517.18998893070966 ], [ 5634903.766529661603272, 6166526.723937178961933 ], [ 5634915.862678031437099, 6166535.112649496644735 ], [ 5634928.722817732952535, 6166542.275338000617921 ], [ 5634942.223098591901362, 6166548.143022082746029 ], [ 5634956.233505521900952, 6166552.659192739054561 ], [ 5634970.619110646657646, 6166555.780356777831912 ], [ 5634985.241372724063694, 6166557.476455681957304 ], [ 5634999.959471376612782, 6166557.731155091896653 ], [ 5635014.631663270294666, 6166556.542002114467323 ], [ 5635029.116647174581885, 6166553.92044894117862 ], [ 5635043.274924777448177, 6166549.891742562875152 ], [ 5635056.970144124701619, 6166544.494681624695659 ], [ 5635070.070412768051028, 6166537.781242772936821 ], [ 5635082.4495679596439, 6166529.816080094315112 ], [ 5635093.988391667604446, 6166520.675902459770441 ], [ 5635104.575758711434901, 6166510.448734776116908 ], [ 5635114.109706959687173, 6166499.23307025898248 ], [ 5635122.498419277369976, 6166487.136921889148653 ], [ 5635129.661107781343162, 6166474.276782187633216 ], [ 5635135.52879186347127, 6166460.77650132868439 ], [ 5635139.723760814405978, 6166447.762550676241517 ], [ 5635190.800570752471685, 6166452.499870500527322 ], [ 5635222.761972825042903, 6166456.633348079398274 ], [ 5635229.848043252713978, 6166457.198065279982984 ], [ 5635236.932177190668881, 6166457.786580640822649 ], [ 5635237.184348067268729, 6166457.782724656164646 ], [ 5635237.435751327313483, 6166457.802759984508157 ], [ 5635244.543052471242845, 6166457.67020155582577 ], [ 5635251.650758843868971, 6166457.561516505666077 ], [ 5635380.740334809757769, 6166449.239571900106966 ], [ 5635494.163996830582619, 6166441.930428768508136 ], [ 5635525.497181326150894, 6166439.913320110179484 ], [ 5635525.507887712679803, 6166439.91210104804486 ], [ 5635525.518662001937628, 6166439.911935719661415 ], [ 5635553.110495997592807, 6166438.131704749539495 ], [ 5635604.108234392479062, 6166434.845759169198573 ], [ 5635749.0247742542997, 6166425.508691346272826 ], [ 5635749.027000134810805, 6166425.508437777869403 ], [ 5635749.029240150935948, 6166425.50840353872627 ], [ 5635835.259526333771646, 6166419.949946262873709 ], [ 5635835.296116515994072, 6166419.945776873268187 ], [ 5635835.332938906736672, 6166419.945195966400206 ], [ 5635917.721499193459749, 6166414.593802819959819 ], [ 5635917.911433577537537, 6166414.572065751068294 ], [ 5635918.102575673721731, 6166414.568563505075872 ], [ 5635978.066759857349098, 6166410.52036009542644 ], [ 5635978.091014514677227, 6166410.517521685920656 ], [ 5635978.115430450066924, 6166410.517066376283765 ], [ 5635998.353139370679855, 6166409.144199742935598 ], [ 5636076.674388335086405, 6166404.427403551526368 ], [ 5636076.7326614940539, 6166404.421012439765036 ], [ 5636076.791279974393547, 6166404.420318108052015 ], [ 5636197.272257070057094, 6166397.070100612938404 ], [ 5636243.722669472917914, 6166399.806320705451071 ], [ 5636294.043375148437917, 6166402.77416255325079 ], [ 5636294.046794130466878, 6166402.774196138605475 ], [ 5636294.050193378701806, 6166402.774564526975155 ], [ 5636360.99649609439075, 6166406.719900931231678 ], [ 5636365.338603406213224, 6166406.979056624695659 ], [ 5636501.047548160888255, 6166416.755067088641226 ], [ 5636515.764016131870449, 6166417.091028694063425 ], [ 5636530.44255028385669, 6166415.982906446792185 ], [ 5636544.941788307391107, 6166413.441372169181705 ], [ 5636559.122094614431262, 6166409.490902225486934 ], [ 5636572.84690510481596, 6166404.169541801325977 ], [ 5636585.984042349271476, 6166397.528538506478071 ], [ 5636598.406988536007702, 6166389.631848831661046 ], [ 5636609.996103900484741, 6166380.555522217415273 ], [ 5636620.639778927899897, 6166370.386968649923801 ], [ 5636630.235509208403528, 6166359.224116858094931 ], [ 5636638.690882614813745, 6166347.174471206963062 ], [ 5636645.92446927819401, 6166334.354076371528208 ], [ 5636651.866605805233121, 6166320.886399761773646 ], [ 5636656.460066172294319, 6166306.901142466813326 ], [ 5636659.660612844862044, 6166292.532990159466863 ], [ 5636661.437422810122371, 6166277.920315999537706 ], [ 5636661.773384415544569, 6166263.203848028555512 ], [ 5636660.66526216827333, 6166248.525313876569271 ], [ 5636658.123727890662849, 6166234.026075853034854 ], [ 5636654.173257946968079, 6166219.845769545994699 ], [ 5636648.851897522807121, 6166206.120959055610001 ], [ 5636642.210894227959216, 6166192.983821811154485 ], [ 5636634.31420455314219, 6166180.560875624418259 ], [ 5636625.237877938896418, 6166168.97176025994122 ], [ 5636615.069324371404946, 6166158.328085232526064 ], [ 5636603.906472579576075, 6166148.732354952022433 ], [ 5636591.856826928444207, 6166140.276981545612216 ], [ 5636579.036432093009353, 6166133.043394882231951 ], [ 5636565.56875548325479, 6166127.10125835519284 ], [ 5636551.58349818829447, 6166122.507797988131642 ], [ 5636537.215345880948007, 6166119.307251315563917 ], [ 5636522.602671721018851, 6166117.53044135030359 ], [ 5636385.973690755665302, 6166107.688154608942568 ], [ 5636385.05067743640393, 6166107.66708317771554 ], [ 5636384.132872801274061, 6166107.566922105848789 ], [ 5636378.813921333290637, 6166107.249464140273631 ], [ 5636378.757695545442402, 6166107.248872273601592 ], [ 5636378.70179396122694, 6166107.242814025841653 ], [ 5636311.702830702997744, 6166103.294374185614288 ], [ 5636261.380135845392942, 6166100.326415019109845 ], [ 5636261.374727272428572, 6166100.326361889019608 ], [ 5636261.369349894113839, 6166100.32577926851809 ], [ 5636235.548234052024782, 6166098.804753892123699 ], [ 5636233.808498768135905, 6166092.663126543164253 ], [ 5636228.427642902359366, 6166078.961532114073634 ], [ 5636221.729706224054098, 6166065.85333071090281 ], [ 5636213.779193525202572, 6166053.464761480689049 ], [ 5636204.652672589756548, 6166041.915133115835488 ], [ 5636194.438036803156137, 6166031.31567485164851 ], [ 5636183.233658691868186, 6166021.768465265631676 ], [ 5636171.147442541085184, 6166013.365449205040932 ], [ 5636158.295785220339894, 6166006.187552307732403 ], [ 5636144.802455215714872, 6166000.303901644423604 ], [ 5636130.797400670126081, 6165995.771159988828003 ], [ 5636116.415497914887965, 6165992.632980119436979 ], [ 5636101.795252535492182, 6165990.919584425166249 ], [ 5636087.077465487644076, 6165990.647473840974271 ], [ 5635985.856544956564903, 6165993.745896212756634 ], [ 5635963.105608147569001, 6165994.436171720735729 ], [ 5635918.540957248769701, 6165995.779813434928656 ], [ 5635918.537883648648858, 6165995.780057462863624 ], [ 5635918.534800928086042, 6165995.779999176971614 ], [ 5635847.755507665686309, 6165997.916931547224522 ], [ 5635832.259114499203861, 6165998.09594087023288 ], [ 5635814.208991910330951, 6165998.300913975574076 ], [ 5635806.002992277033627, 6165998.618912453763187 ], [ 5635741.28968184068799, 6166002.903343293815851 ], [ 5635605.514983505941927, 6166011.880688327364624 ], [ 5635561.748834362253547, 6166010.177264838479459 ], [ 5635534.422787144780159, 6166009.109710502438247 ], [ 5635534.407417108304799, 6166009.109864822588861 ], [ 5635534.392105695791543, 6166009.108515007421374 ], [ 5635503.352047551423311, 6166007.90222785808146 ], [ 5635388.286260197870433, 6166003.413456774316728 ], [ 5635257.163801724091172, 6165998.293663907796144 ], [ 5635257.155810507945716, 6165998.293744312599301 ], [ 5635257.147849806584418, 6165998.293041900731623 ], [ 5635240.62266615498811, 6165997.649562824517488 ], [ 5635222.789332661777735, 6165996.940860968083143 ], [ 5635165.549879880622029, 6165994.655775951221585 ], [ 5635165.841668752022088, 6165987.663237904198468 ], [ 5635165.86205081269145, 6165987.154030744917691 ], [ 5635168.931128888390958, 6165907.075232495553792 ], [ 5635169.525752289220691, 6165891.566871399059892 ], [ 5635173.442804689519107, 6165797.262824021279812 ], [ 5635173.442803227342665, 6165797.262630986981094 ], [ 5635173.442820692434907, 6165797.262438736855984 ], [ 5635176.735194920562208, 6165717.992764927446842 ], [ 5635178.459643516689539, 6165676.486655292101204 ], [ 5635180.31985888723284, 6165644.807361252605915 ], [ 5635180.33317035343498, 6165643.415790322236717 ], [ 5635180.457139020785689, 6165642.029688381589949 ], [ 5635182.89784493111074, 6165581.215339000336826 ], [ 5635182.897766878828406, 6165581.206642826087773 ], [ 5635182.898540575057268, 6165581.197980774566531 ], [ 5635186.8366111619398, 6165482.789803468622267 ], [ 5635191.845666638575494, 6165357.763084767386317 ], [ 5635191.845654751174152, 6165357.761770557612181 ], [ 5635191.84577171318233, 6165357.76046151202172 ], [ 5635197.799431819468737, 6165209.091228212229908 ], [ 5635200.504480865783989, 6165141.548381691798568 ], [ 5635203.737000733613968, 6165060.938234775327146 ], [ 5635203.736977968364954, 6165060.935707638971508 ], [ 5635203.737202930264175, 6165060.933190430514514 ], [ 5635205.933987255208194, 6165006.105346490629017 ], [ 5635210.391571993939579, 6165001.792100101709366 ], [ 5635263.33505822904408, 6164951.889857430011034 ], [ 5635263.339021638967097, 6164951.885736146010458 ], [ 5635263.343369636684656, 6164951.882022858597338 ], [ 5635316.909657551907003, 6164901.385051101446152 ], [ 5635316.910131989046931, 6164901.384557690471411 ], [ 5635316.9106524894014, 6164901.384113163687289 ], [ 5635370.571849412284791, 6164850.796746760606766 ], [ 5635424.30253810249269, 6164800.153588433749974 ], [ 5635424.307192992419004, 6164800.148748227395117 ], [ 5635424.312299506738782, 6164800.144387125968933 ], [ 5635477.971035995520651, 6164749.559983884915709 ], [ 5635477.981132792308927, 6164749.549483244307339 ], [ 5635477.992208378389478, 6164749.540020677261055 ], [ 5635490.357147185131907, 6164737.878989489749074 ], [ 5635490.571644836105406, 6164737.676303662359715 ], [ 5635514.321783064864576, 6164715.189758214168251 ], [ 5635524.501608955673873, 6164704.556863754056394 ], [ 5635533.590210293419659, 6164692.977372163906693 ], [ 5635541.500058880075812, 6164680.562800278887153 ], [ 5635548.154978548176587, 6164667.43270721193403 ], [ 5635553.490878785029054, 6164653.713542936369777 ], [ 5635557.456371953710914, 6164639.537430504336953 ], [ 5635560.013268187642097, 6164625.040893628261983 ], [ 5635561.136943177320063, 6164610.363541882485151 ], [ 5635560.816575319506228, 6164595.646726188249886 ], [ 5635559.055249931290746, 6164581.032177524641156 ], [ 5635555.869929539039731, 6164566.660641985945404 ], [ 5635551.291290519759059, 6164552.670525314286351 ], [ 5635545.363427669741213, 6164539.19655998237431 ], [ 5635538.143429548479617, 6164526.368507640436292 ], [ 5635529.700828684493899, 6164514.309909446164966 ], [ 5635520.116931941360235, 6164503.136896291747689 ], [ 5635509.484037481248379, 6164492.957070400938392 ], [ 5635497.904545891098678, 6164483.868469063192606 ], [ 5635485.489974006079137, 6164475.958620476536453 ], [ 5635472.359880939126015, 6164469.303700808435678 ], [ 5635458.640716663561761, 6164463.967800571583211 ], [ 5635444.464604231528938, 6164460.002307402901351 ], [ 5635429.968067355453968, 6164457.445411168970168 ], [ 5635415.290715609677136, 6164456.321736179292202 ], [ 5635400.573899915441871, 6164456.642104037106037 ], [ 5635385.959351251833141, 6164458.403429425321519 ], [ 5635371.587815713137388, 6164461.588749817572534 ], [ 5635357.597699041478336, 6164466.167388836853206 ], [ 5635344.123733709566295, 6164472.095251686871052 ], [ 5635331.295681367628276, 6164479.315249808132648 ], [ 5635319.23708317335695, 6164487.757850672118366 ], [ 5635308.064070018939674, 6164497.34174741525203 ], [ 5635284.421081117354333, 6164519.726844266057014 ], [ 5635272.174075573682785, 6164531.27665586117655 ], [ 5635218.530804191716015, 6164581.846480055712163 ], [ 5635164.799775807186961, 6164632.489958556368947 ], [ 5635164.794790326617658, 6164632.495142513886094 ], [ 5635164.789321191608906, 6164632.49981336388737 ], [ 5635111.12344987038523, 6164683.091586406342685 ], [ 5635057.561756214126945, 6164733.584227152168751 ], [ 5635003.907060293480754, 6164784.156825345940888 ], [ 5635003.225039701908827, 6164784.866012829355896 ], [ 5635002.485229210928082, 6164785.514687919989228 ], [ 5634954.152699109166861, 6164832.282191660255194 ], [ 5634950.329042416065931, 6164836.363910036161542 ], [ 5634946.410169255919755, 6164840.354299576021731 ], [ 5634945.299416342750192, 6164841.732989641837776 ], [ 5634944.089018016122282, 6164843.025078730657697 ], [ 5634940.683851638808846, 6164847.461926411837339 ], [ 5634937.174975494854152, 6164851.817217876203358 ], [ 5634936.204706416465342, 6164853.298141999170184 ], [ 5634935.126783368177712, 6164854.702649106271565 ], [ 5634932.172900919802487, 6164859.451896823011339 ], [ 5634929.107814188115299, 6164864.130146373994648 ], [ 5634928.287373170256615, 6164865.699042438529432 ], [ 5634927.352306383661926, 6164867.202441398985684 ], [ 5634924.878155363723636, 6164872.21835130546242 ], [ 5634922.286376507952809, 6164877.174504837952554 ], [ 5634921.623664842918515, 6164878.81626352481544 ], [ 5634920.840459526516497, 6164880.404075777158141 ], [ 5634918.86986736766994, 6164885.638341908343136 ], [ 5634916.776356629095972, 6164890.824668964371085 ], [ 5634916.277756594121456, 6164892.523479233495891 ], [ 5634915.653955440968275, 6164894.180413284339011 ], [ 5634914.205900015309453, 6164899.582626818679273 ], [ 5634912.630819055251777, 6164904.949180211871862 ], [ 5634912.301132440567017, 6164906.688681591302156 ], [ 5634911.842742997221649, 6164908.398780260235071 ], [ 5634910.931169877760112, 6164913.916914904490113 ], [ 5634909.889687578193843, 6164919.412011814303696 ], [ 5634909.732089444994926, 6164921.175451963208616 ], [ 5634909.443526254035532, 6164922.922246058471501 ], [ 5634909.077214385382831, 6164928.503159168176353 ], [ 5634908.579360793344676, 6164934.073878798633814 ], [ 5634903.977818323299289, 6165048.920224671252072 ], [ 5634900.745246076025069, 6165129.531677790917456 ], [ 5634900.745280706323683, 6165129.535521974787116 ], [ 5634900.744938570074737, 6165129.539351054467261 ], [ 5634898.039719421416521, 6165197.086444878950715 ], [ 5634898.039721478708088, 6165197.086671957746148 ], [ 5634898.039701268076897, 6165197.086898156441748 ], [ 5634892.086092236451805, 6165345.754856072366238 ], [ 5634887.07695047929883, 6165470.783728350885212 ], [ 5634887.076981781981885, 6165470.787189071998 ], [ 5634887.076673883013427, 6165470.790636211633682 ], [ 5634883.138812210410833, 6165569.193592973984778 ], [ 5634880.754219541326165, 6165628.609785278327763 ], [ 5634878.900207125581801, 6165660.183443574234843 ], [ 5634878.887908176518977, 6165661.469166749157012 ], [ 5634878.771562354639173, 6165662.749674076214433 ], [ 5634876.9937429940328, 6165705.540375663898885 ], [ 5634876.993750375695527, 6165705.541351498104632 ], [ 5634876.993662087246776, 6165705.542323346249759 ], [ 5634873.701252179220319, 6165784.812856206670403 ], [ 5634869.774282431229949, 6165879.355666292831302 ], [ 5634869.755191491916776, 6165879.833666726946831 ], [ 5634869.151357429102063, 6165895.582250929437578 ], [ 5634869.151370658539236, 6165895.583479888737202 ], [ 5634869.151263385079801, 6165895.584704222157598 ], [ 5634866.091896107420325, 6165975.410127016715705 ], [ 5634865.781434138305485, 6165982.850154183804989 ], [ 5634802.676806351169944, 6165979.634578036144376 ], [ 5634787.956528563052416, 6165979.607715778052807 ], [ 5634773.304499973542988, 6165981.023822403512895 ], [ 5634758.861827628687024, 6165983.869260029867291 ], [ 5634744.767602358013391, 6165988.116625538095832 ], [ 5634731.15755925513804, 6165993.725014477036893 ], [ 5634718.162770475260913, 6166000.640414995141327 ], [ 5634705.908382938243449, 6166008.796228004619479 ], [ 5634694.512413095682859, 6166018.113908568397164 ], [ 5634684.084610365331173, 6166028.503722328692675 ], [ 5634674.725400188937783, 6166039.865609699860215 ], [ 5634666.524916876107454, 6166052.090149494819343 ], [ 5634659.56213556509465, 6166065.059612712822855 ], [ 5634653.904111645184457, 6166078.649096333421767 ], [ 5634649.605334980413318, 6166092.727726199664176 ], [ 5634646.707205139100552, 6166107.159917411394417 ], [ 5634645.237632695585489, 6166121.806680077686906 ], [ 5634645.21077043749392, 6166136.526957865804434 ], [ 5634646.626877062954009, 6166151.178986455313861 ], [ 5634649.472314689308405, 6166165.621658800169826 ], [ 5634653.719680197536945, 6166179.715884070843458 ], [ 5634658.469103533774614, 6166191.241449972614646 ] ] ] } },
{ "type": "Feature", "properties": { "enclave_id": "E09", "colectividad": "coreana (desplazamiento a Retiro y Microcentro norte)", "barrios_declarados": "Retiro / San Nicolas", "estado_via_D": "abierta", "nivel_precision": "media (dos fuentes separadas por siete anos trazan la misma linea)", "n_grupos_fuentes": "2", "es_normativa": "no", "designacion_oficial": "ninguna. Existe la Asociacion Hansang de Gastronomicos Coreanos (entidad gremial).", "advertencia": "CONTRADICCION ENTRE MIS DOS FRENTES: el relevamiento de enclaves concluyo que NO hay enclave coreano en Retiro y recomendo no crear la fila; el relevamiento del norte encontro Info Gastronomica 2019 mas La Nacion 10/05/2026 con direccionario de 25 restaurantes y entidad gremial. GANA EL SEGUNDO: tiene fuente de prensa nacional de hace tres meses. El primero no llego a esa nota.", "metodo_geometria": "puntos+buffer", "computa_via_D": "si", "n_tramos": 6, "largo_eje_m": 0.0, "motivo_no_computa": "", "buffer_m": 150, "ha": 30.84 }, "geometry": { "type": "MultiPolygon", "coordinates": [ [ [ [ 5649307.140457443892956, 6170544.796258655376732 ], [ 5649306.418166444636881, 6170530.093687606044114 ], [ 5649304.258249504491687, 6170515.532710352912545 ], [ 5649300.681507803499699, 6170501.253557067364454 ], [ 5649295.722387320362031, 6170487.393743800930679 ], [ 5649289.428647096268833, 6170474.086748131550848 ], [ 5649281.860899289138615, 6170461.460723702795804 ], [ 5649273.092025448568165, 6170449.637266030535102 ], [ 5649263.206474621780217, 6170438.730241477489471 ], [ 5649252.299450068734586, 6170428.844690650701523 ], [ 5649240.475992396473885, 6170420.075816810131073 ], [ 5649227.84996796771884, 6170412.508069003000855 ], [ 5649214.542972298339009, 6170406.214328778907657 ], [ 5649200.683159031905234, 6170401.255208295769989 ], [ 5649186.404005746357143, 6170397.678466594778001 ], [ 5649171.843028493225574, 6170395.518549654632807 ], [ 5649157.140457443892956, 6170394.796258655376732 ], [ 5649142.437886394560337, 6170395.518549654632807 ], [ 5649127.876909141428769, 6170397.678466594778001 ], [ 5649113.597755855880678, 6170401.255208295769989 ], [ 5649099.737942589446902, 6170406.214328778907657 ], [ 5649086.430946920067072, 6170412.508069003000855 ], [ 5649073.804922491312027, 6170420.075816810131073 ], [ 5649061.981464819051325, 6170428.844690650701523 ], [ 5649051.074440266005695, 6170438.730241477489471 ], [ 5649041.188889439217746, 6170449.637266030535102 ], [ 5649032.420015598647296, 6170461.460723702795804 ], [ 5649024.852267791517079, 6170474.086748131550848 ], [ 5649018.55852756742388, 6170487.393743800930679 ], [ 5649013.599407084286213, 6170501.253557067364454 ], [ 5649010.022665383294225, 6170515.532710352912545 ], [ 5649007.86274844314903, 6170530.093687606044114 ], [ 5649007.140457443892956, 6170544.796258655376732 ], [ 5649007.86274844314903, 6170559.498829704709351 ], [ 5649010.022665383294225, 6170574.059806957840919 ], [ 5649013.599407084286213, 6170588.33896024338901 ], [ 5649018.55852756742388, 6170602.198773509822786 ], [ 5649024.852267791517079, 6170615.505769179202616 ], [ 5649032.420015598647296, 6170628.131793607957661 ], [ 5649041.188889439217746, 6170639.955251280218363 ], [ 5649051.074440266005695, 6170650.862275833263993 ], [ 5649061.981464819051325, 6170660.747826660051942 ], [ 5649073.804922491312027, 6170669.516700500622392 ], [ 5649086.430946920067072, 6170677.084448307752609 ], [ 5649099.737942589446902, 6170683.378188531845808 ], [ 5649113.597755855880678, 6170688.337309014983475 ], [ 5649127.876909141428769, 6170691.914050715975463 ], [ 5649142.437886394560337, 6170694.073967656120658 ], [ 5649157.140457443892956, 6170694.796258655376732 ], [ 5649171.843028493225574, 6170694.073967656120658 ], [ 5649186.404005746357143, 6170691.914050715975463 ], [ 5649200.683159031905234, 6170688.337309014983475 ], [ 5649214.542972298339009, 6170683.378188531845808 ], [ 5649227.84996796771884, 6170677.084448307752609 ], [ 5649240.475992396473885, 6170669.516700500622392 ], [ 5649252.299450068734586, 6170660.747826660051942 ], [ 5649263.206474621780217, 6170650.862275833263993 ], [ 5649273.092025448568165, 6170639.955251280218363 ], [ 5649281.860899289138615, 6170628.131793607957661 ], [ 5649289.428647096268833, 6170615.505769179202616 ], [ 5649295.722387320362031, 6170602.198773509822786 ], [ 5649300.681507803499699, 6170588.33896024338901 ], [ 5649304.258249504491687, 6170574.059806957840919 ], [ 5649306.418166444636881, 6170559.498829704709351 ], [ 5649307.140457443892956, 6170544.796258655376732 ] ] ], [ [ [ 5648586.241483286954463, 6170935.222346153110266 ], [ 5648585.548582372255623, 6170949.326668294146657 ], [ 5648586.270873371511698, 6170964.029239343479276 ], [ 5648588.430790311656892, 6170978.590216596610844 ], [ 5648592.00753201264888, 6170992.869369882158935 ], [ 5648596.966652495786548, 6171006.72918314859271 ], [ 5648603.260392719879746, 6171020.036178817972541 ], [ 5648610.828140527009964, 6171032.662203246727586 ], [ 5648619.597014367580414, 6171044.485660918988287 ], [ 5648629.482565194368362, 6171055.392685472033918 ], [ 5648640.389589747413993, 6171065.278236298821867 ], [ 5648652.213047419674695, 6171074.047110139392316 ], [ 5648664.839071848429739, 6171081.614857946522534 ], [ 5648678.14606751780957, 6171087.908598170615733 ], [ 5648692.005880784243345, 6171092.8677186537534 ], [ 5648706.285034069791436, 6171096.444460354745388 ], [ 5648720.846011322923005, 6171098.604377294890583 ], [ 5648735.548582372255623, 6171099.326668294146657 ], [ 5648750.251153421588242, 6171098.604377294890583 ], [ 5648764.81213067471981, 6171096.444460354745388 ], [ 5648779.091283960267901, 6171092.8677186537534 ], [ 5648792.951097226701677, 6171087.908598170615733 ], [ 5648806.258092896081507, 6171081.614857946522534 ], [ 5648818.884117324836552, 6171074.047110139392316 ], [ 5648830.707574997097254, 6171065.278236298821867 ], [ 5648836.406147388741374, 6171060.113351344130933 ], [ 5648848.938335065729916, 6171064.597439795732498 ], [ 5648863.217488351278007, 6171068.174181496724486 ], [ 5648877.778465604409575, 6171070.334098436869681 ], [ 5648892.481036653742194, 6171071.056389436125755 ], [ 5648907.183607703074813, 6171070.334098436869681 ], [ 5648921.744584956206381, 6171068.174181496724486 ], [ 5648936.023738241754472, 6171064.597439795732498 ], [ 5648949.883551508188248, 6171059.638319312594831 ], [ 5648963.190547177568078, 6171053.344579088501632 ], [ 5648975.816571606323123, 6171045.776831281371415 ], [ 5648987.640029278583825, 6171037.007957440800965 ], [ 5648998.547053831629455, 6171027.122406614013016 ], [ 5649008.432604658417404, 6171016.215382060967386 ], [ 5649017.201478498987854, 6171004.391924388706684 ], [ 5649024.769226306118071, 6170991.765899959951639 ], [ 5649031.06296653021127, 6170978.458904290571809 ], [ 5649036.022087013348937, 6170964.599091024138033 ], [ 5649039.598828714340925, 6170950.319937738589942 ], [ 5649041.75874565448612, 6170935.758960485458374 ], [ 5649042.481036653742194, 6170921.056389436125755 ], [ 5649041.75874565448612, 6170906.353818386793137 ], [ 5649039.598828714340925, 6170891.792841133661568 ], [ 5649036.022087013348937, 6170877.513687848113477 ], [ 5649031.06296653021127, 6170863.653874581679702 ], [ 5649024.769226306118071, 6170850.346878912299871 ], [ 5649017.201478498987854, 6170837.720854483544827 ], [ 5649008.432604658417404, 6170825.897396811284125 ], [ 5648998.547053831629455, 6170814.990372258238494 ], [ 5648987.640029278583825, 6170805.104821431450546 ], [ 5648975.816571606323123, 6170796.335947590880096 ], [ 5648963.190547177568078, 6170788.768199783749878 ], [ 5648949.883551508188248, 6170782.47445955965668 ], [ 5648936.023738241754472, 6170777.515339076519012 ], [ 5648921.744584956206381, 6170773.938597375527024 ], [ 5648907.183607703074813, 6170771.77868043538183 ], [ 5648892.481036653742194, 6170771.056389436125755 ], [ 5648877.778465604409575, 6170771.77868043538183 ], [ 5648863.217488351278007, 6170773.938597375527024 ], [ 5648857.962492696009576, 6170775.254905262961984 ], [ 5648856.723010485991836, 6170770.306614903733134 ], [ 5648851.763890002854168, 6170756.446801637299359 ], [ 5648845.47014977876097, 6170743.139805967919528 ], [ 5648837.902401971630752, 6170730.513781539164484 ], [ 5648829.133528131060302, 6170718.690323866903782 ], [ 5648819.247977304272354, 6170707.783299313858151 ], [ 5648808.340952751226723, 6170697.897748487070203 ], [ 5648796.517495078966022, 6170689.128874646499753 ], [ 5648783.891470650210977, 6170681.561126839369535 ], [ 5648770.584474980831146, 6170675.267386615276337 ], [ 5648756.724661714397371, 6170670.308266132138669 ], [ 5648742.44550842884928, 6170666.731524431146681 ], [ 5648727.884531175717711, 6170664.571607491001487 ], [ 5648713.181960126385093, 6170663.849316491745412 ], [ 5648710.675237830728292, 6170663.972463861107826 ], [ 5648704.369751559570432, 6170661.716324797831476 ], [ 5648690.090598274022341, 6170658.139583096839488 ], [ 5648675.529621020890772, 6170655.979666156694293 ], [ 5648660.827049971558154, 6170655.257375157438219 ], [ 5648646.124478922225535, 6170655.979666156694293 ], [ 5648631.563501669093966, 6170658.139583096839488 ], [ 5648617.284348383545876, 6170661.716324797831476 ], [ 5648603.4245351171121, 6170666.675445280969143 ], [ 5648590.11753944773227, 6170672.969185505062342 ], [ 5648577.491515018977225, 6170680.536933312192559 ], [ 5648565.668057346716523, 6170689.305807152763009 ], [ 5648554.761032793670893, 6170699.191357979550958 ], [ 5648544.875481966882944, 6170710.098382532596588 ], [ 5648536.106608126312494, 6170721.92184020485729 ], [ 5648528.538860319182277, 6170734.547864633612335 ], [ 5648522.245120095089078, 6170747.854860302992165 ], [ 5648517.285999611951411, 6170761.714673569425941 ], [ 5648513.709257910959423, 6170775.993826854974031 ], [ 5648511.549340970814228, 6170790.5548041081056 ], [ 5648510.827049971558154, 6170805.257375157438219 ], [ 5648511.549340970814228, 6170819.959946206770837 ], [ 5648513.709257910959423, 6170834.520923459902406 ], [ 5648517.285999611951411, 6170848.800076745450497 ], [ 5648522.245120095089078, 6170862.659890011884272 ], [ 5648528.538860319182277, 6170875.966885681264102 ], [ 5648536.106608126312494, 6170888.592910110019147 ], [ 5648544.875481966882944, 6170900.416367782279849 ], [ 5648554.761032793670893, 6170911.32339233532548 ], [ 5648565.668057346716523, 6170921.208943162113428 ], [ 5648577.491515018977225, 6170929.977817002683878 ], [ 5648586.241483286954463, 6170935.222346153110266 ] ] ], [ [ [ 5648633.751219932921231, 6171162.340725631453097 ], [ 5648633.028928933665156, 6171147.638154582120478 ], [ 5648630.869011993519962, 6171133.07717732898891 ], [ 5648627.292270292527974, 6171118.798024043440819 ], [ 5648622.333149809390306, 6171104.938210777007043 ], [ 5648616.039409585297108, 6171091.631215107627213 ], [ 5648608.47166177816689, 6171079.005190678872168 ], [ 5648599.70278793759644, 6171067.181733006611466 ], [ 5648589.817237110808492, 6171056.274708453565836 ], [ 5648578.910212557762861, 6171046.389157626777887 ], [ 5648567.08675488550216, 6171037.620283786207438 ], [ 5648554.460730456747115, 6171030.05253597907722 ], [ 5648541.153734787367284, 6171023.758795754984021 ], [ 5648527.293921520933509, 6171018.799675271846354 ], [ 5648513.014768235385418, 6171015.222933570854366 ], [ 5648498.45379098225385, 6171013.063016630709171 ], [ 5648483.751219932921231, 6171012.340725631453097 ], [ 5648469.048648883588612, 6171013.063016630709171 ], [ 5648454.487671630457044, 6171015.222933570854366 ], [ 5648440.208518344908953, 6171018.799675271846354 ], [ 5648426.348705078475177, 6171023.758795754984021 ], [ 5648413.041709409095347, 6171030.05253597907722 ], [ 5648400.415684980340302, 6171037.620283786207438 ], [ 5648388.5922273080796, 6171046.389157626777887 ], [ 5648377.68520275503397, 6171056.274708453565836 ], [ 5648367.799651928246021, 6171067.181733006611466 ], [ 5648359.030778087675571, 6171079.005190678872168 ], [ 5648351.463030280545354, 6171091.631215107627213 ], [ 5648345.169290056452155, 6171104.938210777007043 ], [ 5648340.210169573314488, 6171118.798024043440819 ], [ 5648336.6334278723225, 6171133.07717732898891 ], [ 5648334.473510932177305, 6171147.638154582120478 ], [ 5648333.751219932921231, 6171162.340725631453097 ], [ 5648334.473510932177305, 6171177.043296680785716 ], [ 5648336.6334278723225, 6171191.604273933917284 ], [ 5648340.210169573314488, 6171205.883427219465375 ], [ 5648345.169290056452155, 6171219.74324048589915 ], [ 5648351.463030280545354, 6171233.050236155278981 ], [ 5648359.030778087675571, 6171245.676260584034026 ], [ 5648367.799651928246021, 6171257.499718256294727 ], [ 5648377.68520275503397, 6171268.406742809340358 ], [ 5648388.5922273080796, 6171278.292293636128306 ], [ 5648400.415684980340302, 6171287.061167476698756 ], [ 5648413.041709409095347, 6171294.628915283828974 ], [ 5648426.348705078475177, 6171300.922655507922173 ], [ 5648440.208518344908953, 6171305.88177599105984 ], [ 5648454.487671630457044, 6171309.458517692051828 ], [ 5648469.048648883588612, 6171311.618434632197022 ], [ 5648483.751219932921231, 6171312.340725631453097 ], [ 5648498.45379098225385, 6171311.618434632197022 ], [ 5648513.014768235385418, 6171309.458517692051828 ], [ 5648527.293921520933509, 6171305.88177599105984 ], [ 5648541.153734787367284, 6171300.922655507922173 ], [ 5648554.460730456747115, 6171294.628915283828974 ], [ 5648567.08675488550216, 6171287.061167476698756 ], [ 5648578.910212557762861, 6171278.292293636128306 ], [ 5648589.817237110808492, 6171268.406742809340358 ], [ 5648599.70278793759644, 6171257.499718256294727 ], [ 5648608.47166177816689, 6171245.676260584034026 ], [ 5648616.039409585297108, 6171233.050236155278981 ], [ 5648622.333149809390306, 6171219.74324048589915 ], [ 5648627.292270292527974, 6171205.883427219465375 ], [ 5648630.869011993519962, 6171191.604273933917284 ], [ 5648633.028928933665156, 6171177.043296680785716 ], [ 5648633.751219932921231, 6171162.340725631453097 ] ] ] ] } }
]
}
