{
"type": "FeatureCollection",
"name": "nunez_corredor_viaducto",
"crs": { "type": "name", "properties": { "name": "urn:ogc:def:crs:EPSG::5347" } },
"features": [
{ "type": "Feature", "properties": { "que_es": "corredor bajo el viaducto Mitre (aprox. recta entre cabeceras)", "largo_km": 1.43, "buffer_m": 150, "locales_base": 245, "polos_publicables_tocados": 2 }, "geometry": { "type": "Polygon", "coordinates": [ [ [ 5641786.575543923303485, 6175454.322118962183595 ], [ 5641774.522247076965868, 6175454.909500372596085 ], [ 5641759.580455167219043, 6175457.159651516936719 ], [ 5641744.94085630401969, 6175460.90163906570524 ], [ 5641730.752006844617426, 6175466.097490937449038 ], [ 5641717.157889130525291, 6175472.694481861777604 ], [ 5641704.296450424008071, 6175480.625668411143124 ], [ 5641692.29820307623595, 6175489.81056831497699 ], [ 5641681.284900140017271, 6175500.155977156944573 ], [ 5641597.26597713958472, 6175587.452346446923912 ], [ 5641587.590859831310809, 6175598.546462221071124 ], [ 5641579.049744359217584, 6175610.535484125837684 ], [ 5641571.724886335432529, 6175623.303951327688992 ], [ 5641565.68682814668864, 6175636.728896507062018 ], [ 5641560.99371959362179, 6175650.681030102074146 ], [ 5641557.690757877193391, 6175665.02598544023931 ], [ 5641555.80975232552737, 6175679.625612759962678 ], [ 5641555.368818049319088, 6175694.339309668168426 ], [ 5641556.372201486490667, 6175709.025375220924616 ], [ 5641558.810239506885409, 6175723.542374579235911 ], [ 5641562.65945247001946, 6175737.750501102767885 ], [ 5641567.882770352996886, 6175751.512922766618431 ], [ 5641574.429889747872949, 6175764.697099926881492 ], [ 5641582.237758316099644, 6175777.176061749458313 ], [ 5641591.23118201456964, 6175788.829629010520875 ], [ 5641601.323549258522689, 6175799.545571488328278 ], [ 5641612.417665032669902, 6175809.22068879660219 ], [ 5641624.406686937436461, 6175817.761804268695414 ], [ 5641637.17515413928777, 6175825.086662292480469 ], [ 5641650.600099318660796, 6175831.124720481224358 ], [ 5641664.552232913672924, 6175835.817829034291208 ], [ 5641678.897188251838088, 6175839.120790750719607 ], [ 5641693.496815571561456, 6175841.001796302385628 ], [ 5641708.210512479767203, 6175841.44273057859391 ], [ 5641722.896578032523394, 6175840.439347141422331 ], [ 5641737.413577390834689, 6175838.001309121027589 ], [ 5641751.621703914366663, 6175834.152096157893538 ], [ 5641765.384125578217208, 6175828.928778274916112 ], [ 5641778.56830273848027, 6175822.38165888004005 ], [ 5641791.047264561057091, 6175814.573790311813354 ], [ 5641802.700831822119653, 6175805.580366613343358 ], [ 5641813.416774299927056, 6175795.487999369390309 ], [ 5641838.747100443579257, 6175769.169576967135072 ], [ 5641852.373850504867733, 6175766.254445859231055 ], [ 5641866.11451119184494, 6175761.900137010961771 ], [ 5641879.373791826888919, 6175756.247063624672592 ], [ 5641892.029255763627589, 6175749.347426373511553 ], [ 5641903.96404202003032, 6175741.264936740510166 ], [ 5641998.791833133436739, 6175670.168043699115515 ], [ 5642119.042629569768906, 6175615.647732816636562 ], [ 5642133.354978621006012, 6175608.206298490986228 ], [ 5642146.78545655310154, 6175599.270944961346686 ], [ 5642159.178736438043416, 6175588.94501188583672 ], [ 5642170.391486810520291, 6175577.347921335138381 ], [ 5642180.294029332697392, 6175564.613796638324857 ], [ 5642241.495105345733464, 6175476.516533284448087 ], [ 5642314.597231895662844, 6175412.192124797962606 ], [ 5642427.878391809761524, 6175355.553890421055257 ], [ 5642440.090316780842841, 6175348.718271658755839 ], [ 5642451.612027240917087, 6175340.77428126335144 ], [ 5642462.343229624442756, 6175331.791069657541811 ], [ 5642472.190511533990502, 6175321.846833419986069 ], [ 5642487.670675043016672, 6175304.681818062439561 ], [ 5642487.673807070590556, 6175304.682064765132964 ], [ 5642502.027163501828909, 6175304.436105612665415 ], [ 5642516.291276064701378, 6175302.819185848347843 ], [ 5642530.33549858815968, 6175299.846114972606301 ], [ 5642544.031198892742395, 6175295.544123582541943 ], [ 5642557.252936939708889, 6175289.952613970264792 ], [ 5642569.879613751545548, 6175283.122799228876829 ], [ 5642581.79558056499809, 6175275.117234187200665 ], [ 5642592.891698068007827, 6175266.009242470376194 ], [ 5642603.06633601244539, 6175255.882244918495417 ], [ 5642676.665649354457855, 6175175.257295436225832 ], [ 5642771.27674116846174, 6175115.990067509002984 ], [ 5642883.176864720880985, 6175064.519201141782105 ], [ 5642896.232320718467236, 6175057.719026993960142 ], [ 5642908.558377504348755, 6175049.671939081512392 ], [ 5642920.036328411661088, 6175040.455435258336365 ], [ 5642930.555634499527514, 6175030.158275496214628 ], [ 5642940.014989100396633, 6175018.879627071321011 ], [ 5642948.323293457739055, 6175006.728109533898532 ], [ 5642955.400534058921039, 6174993.82074864115566 ], [ 5642961.178553208708763, 6174980.281849334016442 ], [ 5642965.601705423556268, 6174966.241798613220453 ], [ 5642968.627393329516053, 6174951.835809843614697 ], [ 5642970.226477898657322, 6174937.202620570547879 ], [ 5642970.383559072390199, 6174922.483156407251954 ], [ 5642969.097124071791768, 6174907.819173839874566 ], [ 5642966.379561970941722, 6174893.351895036175847 ], [ 5642962.257044377736747, 6174879.220647799782455 ], [ 5642956.769273390062153, 6174865.561523767188191 ], [ 5642949.969099242240191, 6174852.506067769601941 ], [ 5642941.92201132979244, 6174840.180010983720422 ], [ 5642932.705507506616414, 6174828.702060076408088 ], [ 5642922.408347744494677, 6174818.182753988541663 ], [ 5642911.129699319601059, 6174808.723399387672544 ], [ 5642898.978181782178581, 6174800.415095030330122 ], [ 5642886.070820889435709, 6174793.337854429148138 ], [ 5642872.531921582296491, 6174787.559835279360414 ], [ 5642858.491870861500502, 6174783.136683064512908 ], [ 5642844.085882091894746, 6174780.110995158553123 ], [ 5642829.452692818827927, 6174778.511910589411855 ], [ 5642814.733228655532002, 6174778.354829415678978 ], [ 5642800.069246088154614, 6174779.641264416277409 ], [ 5642785.601967284455895, 6174782.358826517127454 ], [ 5642771.470720048062503, 6174786.481344110332429 ], [ 5642757.81159601546824, 6174791.969115098007023 ], [ 5642637.142927483655512, 6174847.473262149840593 ], [ 5642620.195043915882707, 6174856.630326051265001 ], [ 5642500.054873200133443, 6174931.889735328964889 ], [ 5642488.900451584719121, 6174939.600450208410621 ], [ 5642478.487949695438147, 6174948.286994396708906 ], [ 5642468.902461388148367, 6174957.878379042260349 ], [ 5642453.737650909461081, 6174974.490790533833206 ], [ 5642452.567593903280795, 6174974.401235740631819 ], [ 5642438.154591005295515, 6174974.685966556891799 ], [ 5642423.835481754504144, 6174976.352950202301145 ], [ 5642409.742521088570356, 6174979.386789990589023 ], [ 5642396.005875176750124, 6174983.759464605711401 ], [ 5642382.752419176511467, 6174989.430586913600564 ], [ 5642370.104565377347171, 6174996.347776983864605 ], [ 5642358.179132576100528, 6175004.44714589137584 ], [ 5642347.086267104372382, 6175013.653885803185403 ], [ 5642336.928425488062203, 6175023.882960927672684 ], [ 5642268.379657469689846, 6175099.892536345869303 ], [ 5642163.034890520386398, 6175152.562738570384681 ], [ 5642151.759590683504939, 6175158.819853289984167 ], [ 5642141.063366052694619, 6175166.022259115241468 ], [ 5642131.025265944190323, 6175174.11672742664814 ], [ 5642029.621990475803614, 6175263.344032033346593 ], [ 5642016.752549691125751, 6175276.129341178573668 ], [ 5642005.520627659745514, 6175290.374711076729 ], [ 5641957.50398322660476, 6175359.49334828928113 ], [ 5641859.985511773265898, 6175403.707087724469602 ], [ 5641845.512802405282855, 6175411.24331820756197 ], [ 5641831.944316929206252, 6175420.306997826322913 ], [ 5641786.575543923303485, 6175454.322118962183595 ] ] ] } }
]
}
