{"type": "FeatureCollection", "features": [{"type": "Feature", "geometry": {"type": "Point", "coordinates": [-58.447479, -34.570725]}, "properties": {"fuente": "AGC/F02", "comuna": "13", "barrio": "Colegiales", "categoria_pastas": "pastas_frescas", "calidad_geo": "cache_usig_exacta"}}, {"type": "Feature", "geometry": {"type": "Point", "coordinates": [-58.477981, -34.671957]}, "properties": {"fuente": "AGC/F02", "comuna": "8", "barrio": "Villa Lugano", "categoria_pastas": "pastas_frescas", "calidad_geo": "cache_usig_exacta"}}, {"type": "Feature", "geometry": {"type": "Point", "coordinates": [-58.474706, -34.63799]}, "properties": {"fuente": "AGC/F02", "comuna": "10", "barrio": "Floresta", "categoria_pastas": "pastas_frescas", "calidad_geo": "cache_usig_exacta"}}, {"type": "Feature", "geometry": {"type": "Point", "coordinates": [-58.449554, -34.631104]}, "properties": {"fuente": "AGC/F02", "comuna": "7", "barrio": "Parque Chacabuco", "categoria_pastas": "pastas_frescas", "calidad_geo": "cache_usig_exacta"}}, {"type": "Feature", "geometry": {"type": "Point", "coordinates": [-58.519945, -34.610781]}, "properties": {"fuente": "AGC/F02", "comuna": "11", "barrio": "Villa Devoto", "categoria_pastas": "pastas_frescas", "calidad_geo": "cache_usig_exacta"}}, {"type": "Feature", "geometry": {"type": "Point", "coordinates": [-58.453642, -34.56037]}, "properties": {"fuente": "AGC/F02", "comuna": "13", "barrio": "Belgrano", "categoria_pastas": "pastas_frescas", "calidad_geo": "cache_usig_exacta"}}, {"type": "Feature", "geometry": {"type": "Point", "coordinates": [-58.49012, -34.663018]}, "properties": {"fuente": "AGC/F02", "comuna": "9", "barrio": "Mataderos", "categoria_pastas": "pastas_frescas", "calidad_geo": "cache_usig_exacta"}}, {"type": "Feature", "geometry": {"type": "Point", "coordinates": [-58.368294, -34.64711]}, "properties": {"fuente": "AGC/F02", "comuna": "4", "barrio": "Barracas", "categoria_pastas": "pastas_frescas", "calidad_geo": "cache_usig_exacta"}}, {"type": "Feature", "geometry": {"type": "Point", "coordinates": [-58.392675, -34.588914]}, "properties": {"fuente": "AGC/F02", "comuna": "2", "barrio": "Recoleta", "categoria_pastas": "pastas_frescas", "calidad_geo": "cache_usig_exacta"}}], "_nota": "Solo AGC/F02 (oficial). Sin nombres ni direcciones. OSM queda aparte."}