{
"type": "FeatureCollection",
"name": "bordes_de_los_cuatro",
"crs": { "type": "name", "properties": { "name": "urn:ogc:def:crs:OGC:1.3:CRS84" } },
"features": [
{ "type": "Feature", "properties": { "polo": "Z46", "pagina": "Retiro", "pieza": "el núcleo coreano y asiático", "ha": 1.96, "locales": 21 }, "geometry": { "type": "Polygon", "coordinates": [ [ [ -58.376958189365432, -34.596278856647025 ], [ -58.37691435967718, -34.597485605086959 ], [ -58.376904378581926, -34.597584402373997 ], [ -58.377575673029668, -34.597622482033465 ], [ -58.378365941929403, -34.597658457736536 ], [ -58.378443606693907, -34.596489197705083 ], [ -58.378441772170383, -34.596367081830266 ], [ -58.378316513122016, -34.596354600098515 ], [ -58.377064381969845, -34.596281748684611 ], [ -58.376958189365432, -34.596278856647025 ] ] ] } },
{ "type": "Feature", "properties": { "polo": "Z46", "pagina": "Retiro", "pieza": "el corredor Arroyo", "ha": 9.57, "locales": 23 }, "geometry": { "type": "Polygon", "coordinates": [ [ [ -58.378584884291712, -34.592886491612838 ], [ -58.380081808281993, -34.592859211276895 ], [ -58.381428000164171, -34.592834628491858 ], [ -58.381619093406606, -34.59283447485253 ], [ -58.381560947299299, -34.591600471933525 ], [ -58.381549935160962, -34.591367221250692 ], [ -58.381550097687295, -34.590592701402777 ], [ -58.38144046833505, -34.590367694568329 ], [ -58.380909326948832, -34.58927731875692 ], [ -58.379543311285943, -34.590020838067481 ], [ -58.379396954592153, -34.590102675271567 ], [ -58.378753196500789, -34.590492061710684 ], [ -58.377859405920077, -34.59107842083656 ], [ -58.378575555168702, -34.592345560784253 ], [ -58.378584884291712, -34.592886491612838 ] ] ] } },
{ "type": "Feature", "properties": { "polo": "Z41", "pagina": "Núñez", "pieza": "el corredor de Crisólogo Larralde", "ha": 23.81, "locales": 61 }, "geometry": { "type": "Polygon", "coordinates": [ [ [ -58.468189805299183, -34.548940819241764 ], [ -58.468226401041441, -34.548895112449813 ], [ -58.468509037869119, -34.548540444319201 ], [ -58.468553548057727, -34.548484595999447 ], [ -58.467473539833925, -34.548087797150842 ], [ -58.467299886843563, -34.548043791681138 ], [ -58.466370051039618, -34.547582201026358 ], [ -58.466179653923234, -34.547388033183012 ], [ -58.466068959037401, -34.54729644494784 ], [ -58.465940552347938, -34.547160893412183 ], [ -58.465652384573481, -34.546801972195055 ], [ -58.465354813614944, -34.546507108646992 ], [ -58.465172587130809, -34.546256049116231 ], [ -58.464853336899978, -34.54609647223247 ], [ -58.465159382536797, -34.545691387621012 ], [ -58.46538499993131, -34.545392714679565 ], [ -58.46552491424665, -34.545207496392514 ], [ -58.465915717668878, -34.544684095475795 ], [ -58.465136287165748, -34.544291705625213 ], [ -58.465143305366752, -34.544205978250396 ], [ -58.465076952899139, -34.544141609461185 ], [ -58.464969417987575, -34.544118892235183 ], [ -58.464859969977368, -34.544153099676478 ], [ -58.464486595215661, -34.543962564038317 ], [ -58.464058645867269, -34.543745154236497 ], [ -58.46398639052817, -34.543842973992867 ], [ -58.463533195065956, -34.544459328986541 ], [ -58.463009182141924, -34.545172304182437 ], [ -58.462066013424135, -34.544693976654294 ], [ -58.461881925715893, -34.544600592069294 ], [ -58.46112821738123, -34.5442121911097 ], [ -58.460623110759862, -34.543951822520242 ], [ -58.459796343721472, -34.544719637484093 ], [ -58.458925224069048, -34.545402865630933 ], [ -58.459897404834656, -34.545889246539787 ], [ -58.460709337213608, -34.546295332726267 ], [ -58.460851894281681, -34.546366886709031 ], [ -58.461787159819878, -34.546835716112291 ], [ -58.462697328199944, -34.547292073103733 ], [ -58.462157543690999, -34.548081031981191 ], [ -58.46163714317553, -34.548839239000543 ], [ -58.462000580580067, -34.549029627931802 ], [ -58.462028158487151, -34.549087956303389 ], [ -58.462243320932807, -34.549195635888218 ], [ -58.462395077743409, -34.549271555516491 ], [ -58.462515714224644, -34.549288716570217 ], [ -58.462741296699249, -34.549391794334497 ], [ -58.462830776786141, -34.549427017577081 ], [ -58.463367663279513, -34.548694221073809 ], [ -58.463425965146449, -34.548614219106341 ], [ -58.463901312300095, -34.54790624289619 ], [ -58.464589274548587, -34.548248640191829 ], [ -58.465530539959317, -34.548717159016995 ], [ -58.466471305232389, -34.549185388865951 ], [ -58.467560267177404, -34.549727410925975 ], [ -58.468189805299183, -34.548940819241764 ] ] ] } }
]
}
