{
"type": "FeatureCollection",
"name": "chacagiales",
"crs": { "type": "name", "properties": { "name": "urn:ogc:def:crs:OGC:1.3:CRS84" } },
"features": [
{ "type": "Feature", "properties": { "polo_id": "R09+R19+Z43", "polo_nombre": "Chacagiales", "papel": "el sistema", "ha": 495.82, "locales": 891 }, "geometry": { "type": "MultiPolygon", "coordinates": [ [ [ [ -58.445918989107639, -34.592303351876325 ], [ -58.445912690460744, -34.592305139758984 ], [ -58.445906204579487, -34.59230638856323 ], [ -58.445899598738968, -34.592307085335882 ], [ -58.445892941458531, -34.592307222849705 ], [ -58.445886301791035, -34.592306799678134 ], [ -58.445879748606636, -34.592305820210754 ], [ -58.445873349878568, -34.592304294607004 ], [ -58.445326652217602, -34.592148606847445 ], [ -58.445320987718048, -34.592146745210108 ], [ -58.444366046705241, -34.591789423702949 ], [ -58.4443599950839, -34.591786837169039 ], [ -58.444354301712394, -34.591783743994547 ], [ -58.444349028386156, -34.591780177752675 ], [ -58.444260149751422, -34.591713387922496 ], [ -58.443605923931194, -34.591587837068765 ], [ -58.443152428191155, -34.591683689827974 ], [ -58.442918528457824, -34.59178873321725 ], [ -58.442904225432279, -34.591902968519804 ], [ -58.442990705129276, -34.592050303996508 ], [ -58.443177968187278, -34.592230739447857 ], [ -58.443651532698446, -34.592536363164271 ], [ -58.444411404019007, -34.592967171935001 ], [ -58.444877374342468, -34.593293562165734 ], [ -58.445049438384558, -34.59351553710102 ], [ -58.445260399699023, -34.593692043651622 ], [ -58.445510258207079, -34.593823081616826 ], [ -58.446703991103455, -34.594151321710576 ], [ -58.448503672523643, -34.594593674585632 ], [ -58.449003367617458, -34.595046166926799 ], [ -58.449011739602277, -34.595053038256083 ], [ -58.449019387992585, -34.595060465516816 ], [ -58.449030852777597, -34.595069607664151 ], [ -58.449041412338794, -34.595079466483313 ], [ -58.44907993789424, -34.595109012081998 ], [ -58.449117230509067, -34.595139619980642 ], [ -58.449126377172405, -34.595145779999548 ], [ -58.449134868537072, -34.595152551078456 ], [ -58.449294224117288, -34.595267694362811 ], [ -58.449428226384661, -34.595354763230787 ], [ -58.44948476742988, -34.595384186784955 ], [ -58.449516018817917, -34.595409393657015 ], [ -58.449568756213729, -34.595448125220742 ], [ -58.449631487355674, -34.595499054400676 ], [ -58.449702505149062, -34.595546353307455 ], [ -58.449807148714498, -34.595623205590236 ], [ -58.449858060683205, -34.595665328958411 ], [ -58.449943718699402, -34.595723492017427 ], [ -58.450544727767351, -34.596164770890852 ], [ -58.450611475208866, -34.596218647806197 ], [ -58.450718053986279, -34.596289211287463 ], [ -58.450829351456619, -34.596367184814696 ], [ -58.451025195413457, -34.596504976689161 ], [ -58.451025196164551, -34.596504977329673 ], [ -58.451025252866025, -34.596505017167097 ], [ -58.451548714590771, -34.596873344667777 ], [ -58.451570535808941, -34.596888430135373 ], [ -58.451783334305055, -34.597032959798668 ], [ -58.451783406726172, -34.59703300425172 ], [ -58.451783473484461, -34.597033054311282 ], [ -58.452609248513852, -34.597593774547953 ], [ -58.452712052829128, -34.597665708753858 ], [ -58.452760626059252, -34.597699724855453 ], [ -58.452761069485859, -34.597700005744059 ], [ -58.452761478584783, -34.597700321529281 ], [ -58.453417095281353, -34.598158813714157 ], [ -58.453549402694279, -34.598400925116003 ], [ -58.453943411104817, -34.598782188991635 ], [ -58.454290311851025, -34.59902300314878 ], [ -58.454590102804147, -34.599123367947605 ], [ -58.454839203752478, -34.599135152798709 ], [ -58.454923762010296, -34.599102424509553 ], [ -58.454987182859483, -34.599122068142883 ], [ -58.455142214340547, -34.599156201113793 ], [ -58.455300545243794, -34.5991776040619 ], [ -58.455460650915569, -34.599186070915607 ], [ -58.455620989131944, -34.599181520132127 ], [ -58.455780015892032, -34.599163995528635 ], [ -58.455936199490736, -34.599133665829406 ], [ -58.456088035700013, -34.59909082323518 ], [ -58.456234062327141, -34.599035880272147 ], [ -58.456372872800891, -34.598969366177229 ], [ -58.456503130552868, -34.59889192149091 ], [ -58.456623580792993, -34.598804292075933 ], [ -58.456733063724457, -34.598707321892263 ], [ -58.456830524832384, -34.59860194483359 ], [ -58.456915025622351, -34.598489175758431 ], [ -58.456985752410503, -34.598370100775234 ], [ -58.457042023821337, -34.598245866610291 ], [ -58.457083298288822, -34.598117669795272 ], [ -58.457109178196625, -34.597986744820986 ], [ -58.457119414445749, -34.597854352747923 ], [ -58.457113908538652, -34.597721768522938 ], [ -58.457092713561863, -34.597590268913947 ], [ -58.457056033751961, -34.597461120426551 ], [ -58.457004222324478, -34.597335566838858 ], [ -58.456937778314362, -34.597214817174105 ], [ -58.456857341768554, -34.597100034374662 ], [ -58.456763687306214, -34.596992323864342 ], [ -58.456657716901901, -34.596892722913452 ], [ -58.456540451022754, -34.59680219061287 ], [ -58.455851196985179, -34.596320170911923 ], [ -58.455851179748329, -34.596320159968016 ], [ -58.455851163305944, -34.596320147321578 ], [ -58.454873175925066, -34.595636227798273 ], [ -58.454824706588767, -34.595602285053083 ], [ -58.454824436936455, -34.595602114261531 ], [ -58.454824189567567, -34.595601923202103 ], [ -58.454711956454204, -34.59552339296674 ], [ -58.454693406206125, -34.595510606407174 ], [ -58.45385844379885, -34.59494365817897 ], [ -58.453858407523867, -34.59494363356373 ], [ -58.45385830462039, -34.594943563668707 ], [ -58.453656636625695, -34.594806596235337 ], [ -58.453143952267155, -34.59444585895929 ], [ -58.453143922319832, -34.594445839922145 ], [ -58.453143895565958, -34.594445819122818 ], [ -58.453053514935668, -34.594382230379928 ], [ -58.453039951187279, -34.594361468955604 ], [ -58.452942374409332, -34.594243762414926 ], [ -58.452830336443334, -34.594135218259858 ], [ -58.452705085742515, -34.594037046000778 ], [ -58.452119610518814, -34.593624407008335 ], [ -58.452117215283273, -34.593622880057971 ], [ -58.452115004430915, -34.593621172748087 ], [ -58.452066091107042, -34.593590229126917 ], [ -58.452018047622133, -34.593558372754075 ], [ -58.451849036341578, -34.593457158805613 ], [ -58.451813400687129, -34.593432828860863 ], [ -58.451678455015312, -34.59326933648277 ], [ -58.451650367342054, -34.593238656177604 ], [ -58.451623832907245, -34.593207043688189 ], [ -58.451607273029978, -34.593190947383128 ], [ -58.451592052744587, -34.593173972159143 ], [ -58.451586560997143, -34.593168960220524 ], [ -58.45158162378862, -34.593163567298731 ], [ -58.451550034513282, -34.593135310991748 ], [ -58.451519881369045, -34.593106001858537 ], [ -58.451090321455546, -34.592727754973417 ], [ -58.450964610825331, -34.592628248913755 ], [ -58.450826822006178, -34.592540357616073 ], [ -58.450822993373173, -34.592538414185896 ], [ -58.450832075568499, -34.592530722033452 ], [ -58.451037489757411, -34.592338961161005 ], [ -58.451113543284805, -34.592267954768758 ], [ -58.451227440358487, -34.592148738892959 ], [ -58.451293750205693, -34.592060532103467 ], [ -58.451331533658973, -34.59203592101926 ], [ -58.451334411505712, -34.592033847495621 ], [ -58.451485941483661, -34.591909362803591 ], [ -58.451650162629257, -34.591755556501596 ], [ -58.451724911306663, -34.591677270935868 ], [ -58.45182217141511, -34.591594318494188 ], [ -58.452212132106588, -34.591228924611208 ], [ -58.452253377199938, -34.591229508733626 ], [ -58.452298504877639, -34.591226859600589 ], [ -58.452342307336913, -34.591232706884497 ], [ -58.45234536468358, -34.591232977639834 ], [ -58.45249925148989, -34.591240559723737 ], [ -58.452653317656193, -34.591236119532105 ], [ -58.452806192872799, -34.591219696555591 ], [ -58.452809250306842, -34.591219245980319 ], [ -58.452948720101311, -34.591193444127484 ], [ -58.453084931551693, -34.591157666313975 ], [ -58.453216843423199, -34.591112186034188 ], [ -58.453219631155008, -34.591111104273104 ], [ -58.453271330577692, -34.59108868927872 ], [ -58.453791726683356, -34.591664253531249 ], [ -58.45409139611003, -34.592383117732552 ], [ -58.454386241634921, -34.592953282136882 ], [ -58.454676261700321, -34.593374746774785 ], [ -58.455487777131232, -34.593965264677244 ], [ -58.456820804204277, -34.594724825815518 ], [ -58.457700883003817, -34.595309268125021 ], [ -58.458127998226246, -34.595718601057129 ], [ -58.45846445805352, -34.596141476480277 ], [ -58.458710261233158, -34.596577895109675 ], [ -58.458919578346467, -34.596763338188381 ], [ -58.459092407318323, -34.596697805869532 ], [ -58.459276875223487, -34.596284262521657 ], [ -58.459472979380266, -34.595522707957279 ], [ -58.459545563976064, -34.594984133519972 ], [ -58.459494632145443, -34.594668539566449 ], [ -58.459287111603864, -34.594289724418203 ], [ -58.458923004954116, -34.593847687334097 ], [ -58.458449767234178, -34.593416059209723 ], [ -58.457867400016788, -34.592994838817347 ], [ -58.45719423474565, -34.592638864897509 ], [ -58.456430271094767, -34.592348135946828 ], [ -58.455898292502198, -34.592046739586344 ], [ -58.455598296534319, -34.591734678788207 ], [ -58.455237446289324, -34.59104700478408 ], [ -58.45481574780451, -34.589983717081843 ], [ -58.45479740032161, -34.589721634275456 ], [ -58.454834306270833, -34.58969490731473 ], [ -58.454840979860165, -34.589693969990961 ], [ -58.45484898299344, -34.589692527870845 ], [ -58.455005063685149, -34.589657634924635 ], [ -58.455012797107116, -34.589655561622052 ], [ -58.455146220712095, -34.589614398386118 ], [ -58.455153684412402, -34.58961178406814 ], [ -58.455298979990992, -34.589553738216985 ], [ -58.455306173974115, -34.589550492718423 ], [ -58.455427819858841, -34.589489797015617 ], [ -58.455434384415518, -34.589486190811726 ], [ -58.455606501453602, -34.589377385721228 ], [ -58.455706769473942, -34.589304808765029 ], [ -58.455822278233292, -34.5892125288618 ], [ -58.455869515618154, -34.589166559761971 ], [ -58.455981641284069, -34.589116430172929 ], [ -58.456113266586222, -34.589043115188787 ], [ -58.456235674828207, -34.588959589933715 ], [ -58.456347712248196, -34.588866641694672 ], [ -58.456448322847436, -34.588765146574943 ], [ -58.45653655834338, -34.588656061235234 ], [ -58.456611587107325, -34.588540413875698 ], [ -58.456672702001796, -34.588419294543868 ], [ -58.456719327044127, -34.588293844859372 ], [ -58.4567510228336, -34.588165247252903 ], [ -58.456767490690666, -34.588034713820768 ], [ -58.45676857546961, -34.587903474899889 ], [ -58.456755474361316, -34.587783796539135 ], [ -58.45675572002358, -34.587767023787499 ], [ -58.45674150742822, -34.587632981193487 ], [ -58.45671125247496, -34.587500771122308 ], [ -58.456665254989773, -34.587371703441839 ], [ -58.456603970761769, -34.587247056880784 ], [ -58.456528007024971, -34.587128066360123 ], [ -58.456438116439813, -34.587015910759007 ], [ -58.456384316719934, -34.586961440606636 ], [ -58.456309376288488, -34.586865187705598 ], [ -58.456306589068866, -34.586861941621038 ], [ -58.456209127666177, -34.586759313525157 ], [ -58.456100155506761, -34.586664935344288 ], [ -58.455980688070717, -34.586579686527848 ], [ -58.455851838626636, -34.586504361451681 ], [ -58.455714807857191, -34.586439662016673 ], [ -58.455570872671473, -34.58638619110895 ], [ -58.455567815552058, -34.586385199116897 ], [ -58.455426100297309, -34.586345304559593 ], [ -58.455280566256299, -34.586316299860655 ], [ -58.455132434072681, -34.586298428290263 ], [ -58.45498294617817, -34.586291839741264 ], [ -58.454833356373193, -34.586296589472198 ], [ -58.45480798244855, -34.586299332770082 ], [ -58.454606239845624, -34.585795876892199 ], [ -58.454696918462496, -34.585796652123733 ], [ -58.454856706926549, -34.585785014125875 ], [ -58.455014346604557, -34.585760478887345 ], [ -58.455168319269731, -34.585723282705104 ], [ -58.455449535088235, -34.585642765800692 ], [ -58.455517929601022, -34.585620017403542 ], [ -58.455586540438965, -34.585597719062548 ], [ -58.456880509011604, -34.585115285404846 ], [ -58.458109239246049, -34.584657310227357 ], [ -58.459148196173714, -34.584348781342968 ], [ -58.460598829231238, -34.584301033560365 ], [ -58.460662497282712, -34.584296341480595 ], [ -58.460752444370321, -34.584290051220556 ], [ -58.460756731531738, -34.584289396732693 ], [ -58.460758600507447, -34.584289258994758 ], [ -58.460796774527147, -34.584283283669798 ], [ -58.460910183906094, -34.584265970236139 ], [ -58.46091553565109, -34.584264694077696 ], [ -58.460916206919713, -34.58426458900415 ], [ -58.460929781205145, -34.584261297131221 ], [ -58.461064309837894, -34.584229217793371 ], [ -58.461213337784173, -34.584180147852898 ], [ -58.461355832468385, -34.584119233004671 ], [ -58.461490421543608, -34.584047059915605 ], [ -58.461615808810805, -34.583964323679162 ], [ -58.461730786703114, -34.583871821119715 ], [ -58.461834247916109, -34.583770443117977 ], [ -58.461925196071867, -34.583661166029962 ], [ -58.462002755314451, -34.583545042282871 ], [ -58.462066178743676, -34.583423190238832 ], [ -58.462114855606885, -34.583296783423044 ], [ -58.462148317178894, -34.583167039221685 ], [ -58.46216624127365, -34.583035207156485 ], [ -58.462168455344774, -34.582902556851025 ], [ -58.462154938144138, -34.582770365803086 ], [ -58.462125819923862, -34.582639907081628 ], [ -58.462081381179004, -34.582512437066278 ], [ -58.462022049943521, -34.582389183348589 ], [ -58.461948397665623, -34.582271332909606 ], [ -58.461861133702129, -34.582160020689813 ], [ -58.461761098485447, -34.582056318659681 ], [ -58.461649255428334, -34.581961225497096 ], [ -58.461526681645026, -34.581875656970823 ], [ -58.461500889381526, -34.581860973141112 ], [ -58.461503302629971, -34.581859645527615 ], [ -58.461539810997415, -34.581834970480656 ], [ -58.461558282856899, -34.581823822863228 ], [ -58.461579808417589, -34.581807937244633 ], [ -58.461627505798901, -34.581775699760335 ], [ -58.461662101871092, -34.581747205520266 ], [ -58.461677964903672, -34.581735498748039 ], [ -58.461696131357584, -34.581719177905804 ], [ -58.461741162212846, -34.581682089218972 ], [ -58.461773199200572, -34.581649939627702 ], [ -58.461786603090992, -34.581637897463544 ], [ -58.461801631830809, -34.581621407033857 ], [ -58.461843177295783, -34.58157971545473 ], [ -58.461872032595892, -34.581544159000536 ], [ -58.46188315117751, -34.581531958994098 ], [ -58.461895287006016, -34.581515504120027 ], [ -58.461932568598598, -34.581469564413105 ], [ -58.461957661461447, -34.581430930962533 ], [ -58.46196667937064, -34.581418703615022 ], [ -58.461976173619611, -34.581402429263235 ], [ -58.462008475260227, -34.581352696937898 ], [ -58.462029283623991, -34.58131139181625 ], [ -58.462036383280335, -34.581299222065354 ], [ -58.462043477685782, -34.581283216222388 ], [ -58.462070166297231, -34.581230238553381 ], [ -58.462086242192875, -34.581186734138441 ], [ -58.462091591664361, -34.581174665043093 ], [ -58.462096503681657, -34.581158964582123 ], [ -58.462117047642245, -34.58110336862368 ], [ -58.462128030623674, -34.581058193705459 ], [ -58.462131772891411, -34.581046232121551 ], [ -58.462134683065123, -34.58103083102705 ], [ -58.462148667862856, -34.580973308994388 ], [ -58.462154295981946, -34.580927036237206 ], [ -58.46215654005838, -34.58091516019644 ], [ -58.462157581974289, -34.580900019737129 ], [ -58.462164722507012, -34.580841312224372 ], [ -58.462164840439613, -34.580794544139685 ], [ -58.462165654714383, -34.580782711573413 ], [ -58.462164907949187, -34.580767771935854 ], [ -58.46216505703255, -34.580708649522713 ], [ -58.462159621061595, -34.580662003412122 ], [ -58.462159029154293, -34.580650161810432 ], [ -58.462156515512511, -34.580635354650397 ], [ -58.462149668292462, -34.5805765985059 ], [ -58.462138747966804, -34.580530690878582 ], [ -58.462136727260557, -34.580518787433689 ], [ -58.462132410450195, -34.58050404876213 ], [ -58.462118704562613, -34.580446430893524 ], [ -58.462102480967495, -34.580401861875636 ], [ -58.462098963885154, -34.58038985364373 ], [ -58.462092752639101, -34.580375136454734 ], [ -58.462072464110676, -34.580319400261118 ], [ -58.462051224807823, -34.580276738519551 ], [ -58.462046102777514, -34.58026460213128 ], [ -58.462037857284649, -34.58024988818854 ], [ -58.462011392321152, -34.580196729967973 ], [ -58.461985523134189, -34.580156498650624 ], [ -58.461978653079001, -34.580144239119441 ], [ -58.461968194449035, -34.580129549351661 ], [ -58.461936077403507, -34.580079601375971 ], [ -58.461906051337593, -34.580042265534139 ], [ -58.461897264417203, -34.580029923747816 ], [ -58.461884386776184, -34.580015326760808 ], [ -58.461847244725298, -34.579969142473345 ], [ -58.461813608410402, -34.579935098376261 ], [ -58.461802720647881, -34.579922756910271 ], [ -58.461787205349822, -34.579908375198869 ], [ -58.461745749824956, -34.579866417012362 ], [ -58.46170910795891, -34.579835983696185 ], [ -58.461695932304202, -34.579823770653498 ], [ -58.461677563651428, -34.579809784188768 ], [ -58.461632570171069, -34.579772414265825 ], [ -58.46159356850918, -34.579745827576239 ], [ -58.461577927827214, -34.579733918239249 ], [ -58.46155650962465, -34.579720565214224 ], [ -58.461508795748244, -34.57968803950105 ], [ -58.461468103231041, -34.579665448797321 ], [ -58.461449843660809, -34.57965406496487 ], [ -58.461425215889236, -34.579641639595508 ], [ -58.46137561855997, -34.579614105262934 ], [ -58.461333909201471, -34.579595572855077 ], [ -58.46131291330714, -34.579584979831161 ], [ -58.461284968185787, -34.579573827230689 ], [ -58.461234321149306, -34.57955132354958 ], [ -58.461192256305544, -34.579536826839828 ], [ -58.461168455448373, -34.579527328137601 ], [ -58.461137152175681, -34.579517836401877 ], [ -58.461086264248252, -34.579500298956695 ], [ -58.461044475872363, -34.579489735160116 ], [ -58.461017861248052, -34.579481665076536 ], [ -58.460983238749925, -34.579474254831695 ], [ -58.460932873674871, -34.579461522855922 ], [ -58.460891949115663, -34.579454716080576 ], [ -58.46086258095518, -34.579448430386904 ], [ -58.460824768045043, -34.579443542160213 ], [ -58.460775626603521, -34.57943536866366 ], [ -58.460736095445746, -34.579432079049134 ], [ -58.460704109939641, -34.57942794412044 ], [ -58.460663332387213, -34.579426023983338 ], [ -58.460616037341474, -34.579422088245344 ], [ -58.460578360702556, -34.579422022784911 ], [ -58.46054397429355, -34.57942040355983 ], [ -58.459182952719445, -34.579411633265906 ], [ -58.459182945628399, -34.579411633508208 ], [ -58.459182938542874, -34.579411633174551 ], [ -58.45799620629667, -34.579403982108566 ], [ -58.457948465701655, -34.579405613289623 ], [ -58.457900684448262, -34.579405675603759 ], [ -58.457868383175615, -34.579408349474363 ], [ -58.457835948192205, -34.579409457667445 ], [ -58.457788630774658, -34.579414951269605 ], [ -58.457741086974281, -34.57941888685535 ], [ -58.457709258098767, -34.579424166478105 ], [ -58.457677110614796, -34.579427898802145 ], [ -58.457630672045589, -34.579437201920804 ], [ -58.457583823549143, -34.57944497287771 ], [ -58.457552773585789, -34.579452807408785 ], [ -58.457521223184685, -34.579459127920984 ], [ -58.457476110672317, -34.57947215096533 ], [ -58.457430408635709, -34.579483682457997 ], [ -58.456499772346959, -34.579760457433103 ], [ -58.455602540284737, -34.580026724814743 ], [ -58.454267856665084, -34.580422743970161 ], [ -58.452916012723229, -34.580823756905019 ], [ -58.452914626995977, -34.580824232646783 ], [ -58.452913192364726, -34.580824595935027 ], [ -58.452200067248697, -34.581037352228471 ], [ -58.452199356822504, -34.58103714715633 ], [ -58.451818535785328, -34.58098023417066 ], [ -58.450689412812658, -34.580717365591269 ], [ -58.450578848542939, -34.580686209383501 ], [ -58.450558108392471, -34.580686916360342 ], [ -58.450551429211814, -34.580686861579942 ], [ -58.450544791648802, -34.58068624341869 ], [ -58.450538264988126, -34.580685068328968 ], [ -58.450518005757644, -34.580680512948746 ], [ -58.450519447715472, -34.580679941041438 ], [ -58.45064585284404, -34.580629806174954 ], [ -58.451499004880233, -34.580600720906666 ], [ -58.452340266569671, -34.580301205122204 ], [ -58.452733022400082, -34.580041693373602 ], [ -58.452707274193614, -34.579940307360388 ], [ -58.453022735310562, -34.579839126830073 ], [ -58.453535577764065, -34.579674658778792 ], [ -58.454864377740435, -34.579248481815796 ], [ -58.45540130883473, -34.579076260719248 ], [ -58.455972889540796, -34.578922068754984 ], [ -58.457149543358049, -34.578604616443954 ], [ -58.457163725580529, -34.578600789704211 ], [ -58.457342699597859, -34.578552558774817 ], [ -58.457745603182694, -34.578443843298977 ], [ -58.457765851152828, -34.578442620082569 ], [ -58.458540327117419, -34.578395847112077 ], [ -58.459696907985169, -34.578325955929095 ], [ -58.459786422086637, -34.578320553590018 ], [ -58.460103976036358, -34.578301389894278 ], [ -58.460200392842523, -34.578301170630105 ], [ -58.460226666340347, -34.578301110899034 ], [ -58.460548772390624, -34.577948788212311 ], [ -58.460634404597322, -34.577859319996527 ], [ -58.461607027633008, -34.576843151857247 ], [ -58.462248822677694, -34.576172578352114 ], [ -58.462377817987395, -34.576037792761298 ], [ -58.463188835027623, -34.575111026456085 ], [ -58.463357270753995, -34.575014325094315 ], [ -58.462904843233986, -34.574598753442558 ], [ -58.462524276217643, -34.574208109508859 ], [ -58.461732078112789, -34.573438157556403 ], [ -58.461380666253461, -34.573097416931091 ], [ -58.460884557454129, -34.57261636635311 ], [ -58.460263506506536, -34.572014297753149 ], [ -58.459681284816227, -34.571446876132782 ], [ -58.45879600625036, -34.570586547458433 ], [ -58.457986510069958, -34.569799738655441 ], [ -58.457711546291293, -34.569532466787464 ], [ -58.45763002387595, -34.569004071715163 ], [ -58.457477031566157, -34.569115264561177 ], [ -58.456577557388663, -34.568588939937456 ], [ -58.456314545485213, -34.568435005576141 ], [ -58.455678518423454, -34.56806274929076 ], [ -58.454789111026557, -34.567542256882149 ], [ -58.453936673063197, -34.567043392344303 ], [ -58.453877922599339, -34.567009010086814 ], [ -58.453751890994049, -34.566938014688112 ], [ -58.452289750658849, -34.566114351029093 ], [ -58.451720528505426, -34.566415783500595 ], [ -58.45158635296292, -34.566486828425816 ], [ -58.450951527164825, -34.566833580159972 ], [ -58.450782741196214, -34.566925771784049 ], [ -58.450165232886185, -34.56726296785061 ], [ -58.449932293730356, -34.567387311596178 ], [ -58.449046761194694, -34.567859827049936 ], [ -58.448645070931164, -34.568074220018886 ], [ -58.448135592973706, -34.568334586427888 ], [ -58.447044597636037, -34.568892132868278 ], [ -58.446693559141011, -34.569071596713812 ], [ -58.446499351387736, -34.569166923998125 ], [ -58.445707444748841, -34.569555764689703 ], [ -58.444888199884353, -34.569958046289081 ], [ -58.444113138123775, -34.570338639180953 ], [ -58.44383011830201, -34.570477610619911 ], [ -58.443642289451091, -34.570569765837419 ], [ -58.442958828221421, -34.570921210327874 ], [ -58.442546722018008, -34.571133046568015 ], [ -58.442206051780573, -34.571308203001585 ], [ -58.442116855069045, -34.571357345488785 ], [ -58.442014346107285, -34.571253838989833 ], [ -58.441906747124591, -34.57115546446002 ], [ -58.441788009632717, -34.571066287461996 ], [ -58.44165927713383, -34.570987166788449 ], [ -58.441521789373091, -34.570918864384936 ], [ -58.441376870399829, -34.570862038013111 ], [ -58.441225915817569, -34.570817234917158 ], [ -58.441070379345355, -34.570784886554293 ], [ -58.44091175881973, -34.570765304440897 ], [ -58.440751581772403, -34.570758677152519 ], [ -58.440591390721828, -34.570765068508571 ], [ -58.440432728320744, -34.570784416957601 ], [ -58.440277122502614, -34.570816536170476 ], [ -58.440126071769441, -34.570861116834124 ], [ -58.439981030763001, -34.570917729630111 ], [ -58.439843396258063, -34.570985829368446 ], [ -58.4397144937127, -34.571064760237434 ], [ -58.4395955645047, -34.5711537621182 ], [ -58.439487753977517, -34.571251977904041 ], [ -58.439392100410217, -34.571358461753839 ], [ -58.439309525018089, -34.571472188199714 ], [ -58.43924082308034, -34.571592062021637 ], [ -58.439186656279475, -34.571716928794103 ], [ -58.439147546327547, -34.571845586002752 ], [ -58.439123869939522, -34.571976794624504 ], [ -58.439115855202509, -34.572109291059462 ], [ -58.43912357937706, -34.572241799299569 ], [ -58.4391469681497, -34.572373043217134 ], [ -58.43918579634596, -34.572501758854642 ], [ -58.439239690096194, -34.572626706597525 ], [ -58.439308130433496, -34.572746683113053 ], [ -58.439390458289452, -34.572860532939565 ], [ -58.439485880839214, -34.572967159614983 ], [ -58.440440264546922, -34.573930848172402 ], [ -58.44044032603145, -34.573930904385854 ], [ -58.44044038056694, -34.573930965308456 ], [ -58.441157690047291, -34.574655083610814 ], [ -58.441525682383038, -34.575026623839285 ], [ -58.441537765838092, -34.575041411554679 ], [ -58.441640170142655, -34.57514351263098 ], [ -58.441754180626731, -34.575236819598054 ], [ -58.441878699308674, -34.575320433828203 ], [ -58.441959796076311, -34.575364740750636 ], [ -58.441968254698907, -34.575372591658287 ], [ -58.442255061005177, -34.575657393990468 ], [ -58.442326044436221, -34.575721231619923 ], [ -58.442330418616066, -34.575739235094829 ], [ -58.442377279278602, -34.57586610871877 ], [ -58.442438949179142, -34.575988572218307 ], [ -58.442514834457306, -34.576105446182829 ], [ -58.442604204339631, -34.576215605027819 ], [ -58.442629680392407, -34.576241178268994 ], [ -58.442568016862147, -34.576285360994781 ], [ -58.441880793356304, -34.576777762558073 ], [ -58.441816755511091, -34.57682366723671 ], [ -58.440891180524865, -34.577802181578313 ], [ -58.440223153694284, -34.578330110503856 ], [ -58.439941551470191, -34.578552652292601 ], [ -58.440535783125263, -34.579105591781115 ], [ -58.441545849305307, -34.580045512096618 ], [ -58.441580372766929, -34.580077638738125 ], [ -58.442285069052787, -34.580733401252679 ], [ -58.442511928976714, -34.580944499831425 ], [ -58.443425649861219, -34.58179475284927 ], [ -58.443434188194963, -34.581802697598192 ], [ -58.443600867542678, -34.582020406344078 ], [ -58.443574389656462, -34.582031872518954 ], [ -58.443440266967421, -34.582104631588081 ], [ -58.443315412621658, -34.582187913204919 ], [ -58.443253416259196, -34.582238320742249 ], [ -58.443097450691823, -34.582186326066008 ], [ -58.442853260011653, -34.582301439601913 ], [ -58.442621993852001, -34.582617382348047 ], [ -58.442418016650699, -34.583070463041473 ], [ -58.442241327753209, -34.583660681774411 ], [ -58.44231720693741, -34.584066720499877 ], [ -58.442645657512614, -34.584288578867749 ], [ -58.442895419902513, -34.584364156988094 ], [ -58.443019266351833, -34.584312973210132 ], [ -58.443031909796986, -34.584261528109089 ], [ -58.443198044342815, -34.584830641546844 ], [ -58.443198061241326, -34.584830699627553 ], [ -58.443198061553076, -34.584830700442723 ], [ -58.443515563092397, -34.585918529339175 ], [ -58.443515582145544, -34.585918582940707 ], [ -58.443515594947797, -34.585918638625671 ], [ -58.443814284760805, -34.586941616622774 ], [ -58.443814318564442, -34.586941732513736 ], [ -58.443814318666675, -34.586941732875552 ], [ -58.443906600471109, -34.587257904455356 ], [ -58.443907228968548, -34.587260050324993 ], [ -58.444116538331478, -34.58797206737129 ], [ -58.444116542268624, -34.587972078327525 ], [ -58.444116544889887, -34.587972089717667 ], [ -58.444299369779436, -34.58859395789127 ], [ -58.444289495759179, -34.588658669685195 ], [ -58.444074954148981, -34.588995235948445 ], [ -58.443940743365495, -34.589390876545977 ], [ -58.44388686422289, -34.589845591754802 ], [ -58.443979817593345, -34.59012682756871 ], [ -58.44421960446418, -34.590234583699498 ], [ -58.444403997026605, -34.590382626494232 ], [ -58.444532995234539, -34.590570956200402 ], [ -58.444897559882762, -34.590628573676746 ], [ -58.445053965793441, -34.591160578934428 ], [ -58.445056993689235, -34.59116904446406 ], [ -58.445059139871219, -34.591177690738824 ], [ -58.445079736226013, -34.591232629330413 ], [ -58.445099466639242, -34.591287792579152 ], [ -58.445103483080729, -34.591295971466039 ], [ -58.44510664393966, -34.591304402635984 ], [ -58.445133654726973, -34.591357411027339 ], [ -58.445159826445895, -34.59141070543609 ], [ -58.44516479257959, -34.591418518858575 ], [ -58.445168937808383, -34.591426653687321 ], [ -58.445202100623028, -34.591477216212382 ], [ -58.445234463851001, -34.591528133756135 ], [ -58.445240332775796, -34.591535507747096 ], [ -58.445245421683019, -34.59154326657832 ], [ -58.445284417328246, -34.591590896949775 ], [ -58.445322660151163, -34.5916389464765 ], [ -58.445329374254733, -34.591645808644671 ], [ -58.445335358834065, -34.591653118308116 ], [ -58.445379812963189, -34.591697359188444 ], [ -58.445423566062459, -34.591742076664453 ], [ -58.445431061709598, -34.591748361932481 ], [ -58.445437883352142, -34.59175515083529 ], [ -58.445475004223759, -34.591788607535499 ], [ -58.445504137452822, -34.591814189334919 ], [ -58.445612401173854, -34.591906813081415 ], [ -58.446014799908696, -34.592271559331188 ], [ -58.445918989107639, -34.592303351876325 ] ], [ [ -58.450456680406454, -34.587756038820139 ], [ -58.450332477080025, -34.587784703839297 ], [ -58.450170524921546, -34.587811054001477 ], [ -58.450011968813058, -34.587850999553964 ], [ -58.449859119170767, -34.587904019115683 ], [ -58.44971354758367, -34.587969567545066 ], [ -58.449576750818231, -34.588046970879354 ], [ -58.449450135429927, -34.588135433263325 ], [ -58.449335003302224, -34.588234045131451 ], [ -58.448381879724302, -34.589137930379493 ], [ -58.448326713490374, -34.58919578607992 ], [ -58.448272181409514, -34.589241946092677 ], [ -58.448152297244853, -34.589355629795897 ], [ -58.448075524570946, -34.589436879240871 ], [ -58.448072999310284, -34.589438711268222 ], [ -58.447972812969951, -34.589525557457272 ], [ -58.447945404868534, -34.589551533262487 ], [ -58.447939050503436, -34.5895299217499 ], [ -58.447938900180283, -34.58952950144225 ], [ -58.447938800066588, -34.589529071227695 ], [ -58.447925031384663, -34.589482374684181 ], [ -58.447600652152452, -34.588379122995498 ], [ -58.44852736687541, -34.587995074178266 ], [ -58.448527494419558, -34.587995014673929 ], [ -58.448527628391226, -34.587994965775245 ], [ -58.448697094122451, -34.587924703296466 ], [ -58.448699811337057, -34.587923574087604 ], [ -58.449554033751546, -34.587567751788285 ], [ -58.449554034716286, -34.587567751336088 ], [ -58.449554035730031, -34.587567750964162 ], [ -58.450252462041135, -34.587276817006 ], [ -58.450456680406454, -34.587756038820139 ] ], [ [ -58.447037747099664, -34.582213786531199 ], [ -58.447143754054892, -34.58231039324626 ], [ -58.447279846643895, -34.582422986275894 ], [ -58.447398678858299, -34.582512091844642 ], [ -58.447527499113413, -34.582591134830864 ], [ -58.447665066780424, -34.582659353977817 ], [ -58.447810056974376, -34.582716092269756 ], [ -58.447961073315014, -34.582760803261294 ], [ -58.448095765188548, -34.582788724617139 ], [ -58.4473200486674, -34.583122877525604 ], [ -58.446202920718925, -34.583604063015514 ], [ -58.445991521673882, -34.582879974570908 ], [ -58.445946267776932, -34.582752701554817 ], [ -58.445886148659653, -34.58262971004249 ], [ -58.44585128156141, -34.582574636412986 ], [ -58.446184107599606, -34.582431586031646 ], [ -58.446941275717727, -34.582106145146618 ], [ -58.446943493368295, -34.582109178228954 ], [ -58.447037747099664, -34.582213786531199 ] ] ], [ [ [ -58.442998156883974, -34.587363936191998 ], [ -58.442997250023339, -34.587359060948231 ], [ -58.442830476744824, -34.586075119466486 ], [ -58.442830126176659, -34.586067896016765 ], [ -58.44286673184002, -34.584937704980696 ], [ -58.442867130225601, -34.584933020398474 ], [ -58.442868018573172, -34.584928382071261 ], [ -58.442920289405464, -34.584715699536545 ], [ -58.442789463835645, -34.58451194037675 ], [ -58.442300656583726, -34.584332445348529 ], [ -58.441882741828785, -34.584510858611914 ], [ -58.441535714528456, -34.585047180732396 ], [ -58.44137782871897, -34.585425846630294 ], [ -58.441409087926118, -34.585646857162018 ], [ -58.441499531208052, -34.585784741480111 ], [ -58.441649158609387, -34.585839499459034 ], [ -58.441675175755087, -34.585932391797257 ], [ -58.441577582259839, -34.586063418561992 ], [ -58.441629856167417, -34.586462543939149 ], [ -58.441831999988466, -34.587129767756771 ], [ -58.441995236961418, -34.587504695333031 ], [ -58.442119564995217, -34.587587326815743 ], [ -58.442142163569628, -34.587785702603846 ], [ -58.442063032018154, -34.588099822725923 ], [ -58.442109441031036, -34.588296244380643 ], [ -58.442281391336913, -34.5883749674543 ], [ -58.442537208054517, -34.588313905109999 ], [ -58.442876889722541, -34.588113056776344 ], [ -58.443056282440573, -34.587752680017708 ], [ -58.443065375648928, -34.587505223936198 ], [ -58.443001558847108, -34.587373380964898 ], [ -58.442999597153509, -34.587368722807767 ], [ -58.442998156883974, -34.587363936191998 ] ] ], [ [ [ -58.440062013703887, -34.561555521343728 ], [ -58.439430282806349, -34.56107483210566 ], [ -58.439063647099296, -34.560934549818789 ], [ -58.438596008114672, -34.560852153752698 ], [ -58.438027365231633, -34.560827642730132 ], [ -58.437515034693313, -34.560870739773016 ], [ -58.437059015310318, -34.560981445557935 ], [ -58.436637701753909, -34.561177507170548 ], [ -58.436251092938697, -34.561458924933902 ], [ -58.435928324491243, -34.561846724413805 ], [ -58.43566939598859, -34.562340906087854 ], [ -58.435552952766741, -34.562810727872517 ], [ -58.435578997332563, -34.563256190249035 ], [ -58.435791644364528, -34.563725227252107 ], [ -58.436190897210039, -34.564217837990967 ], [ -58.436656009853991, -34.564574919162446 ], [ -58.437186980975362, -34.564796469997937 ], [ -58.437519453485663, -34.564897622367113 ], [ -58.437653425178418, -34.564878377839818 ], [ -58.437918800186367, -34.565032166845981 ], [ -58.438315580881351, -34.565358988579895 ], [ -58.438584715285835, -34.565530402682882 ], [ -58.438726201115422, -34.565546409950294 ], [ -58.438829295496738, -34.565618764475971 ], [ -58.438893998528911, -34.56574746635826 ], [ -58.439035781270135, -34.565832122957545 ], [ -58.439254643746267, -34.565872734007201 ], [ -58.439364068092324, -34.565965295922396 ], [ -58.439364054130074, -34.566109808991044 ], [ -58.439557537970821, -34.566450247403935 ], [ -58.439944523285263, -34.566986610309812 ], [ -58.440109102872803, -34.567308830418511 ], [ -58.440051272954506, -34.567416908558883 ], [ -58.440115505416166, -34.567641699636255 ], [ -58.440301801483464, -34.567983203479294 ], [ -58.440398290236125, -34.568326303621738 ], [ -58.440404970563307, -34.568671000246553 ], [ -58.440824356207372, -34.569277721814423 ], [ -58.44165646005726, -34.570146464343637 ], [ -58.44217883210122, -34.570559894211385 ], [ -58.442391459300865, -34.570518015130219 ], [ -58.442502116543103, -34.570217044144442 ], [ -58.442510803779086, -34.569656981496422 ], [ -58.442712070403118, -34.569128330718463 ], [ -58.443105913045308, -34.568631090772818 ], [ -58.443525896584582, -34.568287941458927 ], [ -58.443972023109573, -34.568098882586185 ], [ -58.444658519947779, -34.567992068182683 ], [ -58.445585388377459, -34.567967494225222 ], [ -58.446047539819943, -34.567888267674583 ], [ -58.446044974476763, -34.567754393820614 ], [ -58.444884537691308, -34.566462397541834 ], [ -58.442566330679988, -34.564012247844559 ], [ -58.440958852025254, -34.562376613670665 ], [ -58.440062013703887, -34.561555521343728 ] ] ] ] } },
{ "type": "Feature", "properties": { "polo_id": "R09", "polo_nombre": "Chacarita", "papel": "subzona", "ha": 94.81, "locales": 202 }, "geometry": { "type": "MultiPolygon", "coordinates": [ [ [ [ -58.443065375648928, -34.587505223936198 ], [ -58.443001558847108, -34.587373380964898 ], [ -58.442999597153509, -34.587368722807767 ], [ -58.442998156883974, -34.587363936191998 ], [ -58.442997250023339, -34.587359060948231 ], [ -58.442830476744824, -34.586075119466486 ], [ -58.442830126176659, -34.586067896016765 ], [ -58.44286673184002, -34.584937704980696 ], [ -58.442867130225601, -34.584933020398474 ], [ -58.442868018573172, -34.584928382071261 ], [ -58.442920289405464, -34.584715699536545 ], [ -58.442789463835645, -34.58451194037675 ], [ -58.442300656583726, -34.584332445348529 ], [ -58.441882741828785, -34.584510858611914 ], [ -58.441535714528456, -34.585047180732396 ], [ -58.44137782871897, -34.585425846630294 ], [ -58.441409087926118, -34.585646857162018 ], [ -58.441499531208052, -34.585784741480111 ], [ -58.441649158609387, -34.585839499459034 ], [ -58.441675175755087, -34.585932391797257 ], [ -58.441577582259839, -34.586063418561992 ], [ -58.441629856167417, -34.586462543939149 ], [ -58.441831999988466, -34.587129767756771 ], [ -58.441995236961418, -34.587504695333031 ], [ -58.442119564995217, -34.587587326815743 ], [ -58.442142163569628, -34.587785702603846 ], [ -58.442063032018154, -34.588099822725923 ], [ -58.442109441031036, -34.588296244380643 ], [ -58.442281391336913, -34.5883749674543 ], [ -58.442537208054517, -34.588313905109999 ], [ -58.442876889722541, -34.588113056776344 ], [ -58.443056282440573, -34.587752680017708 ], [ -58.443065375648928, -34.587505223936198 ] ] ], [ [ [ -58.443400353547929, -34.58280070078407 ], [ -58.443354567637712, -34.582272041719627 ], [ -58.443097450691823, -34.582186326066008 ], [ -58.442853260011653, -34.582301439601913 ], [ -58.442621993852001, -34.582617382348047 ], [ -58.442418016650699, -34.583070463041473 ], [ -58.442241327753209, -34.583660681774411 ], [ -58.44231720693741, -34.584066720499877 ], [ -58.442645657512614, -34.584288578867749 ], [ -58.442895419902513, -34.584364156988094 ], [ -58.443019266351833, -34.584312973210132 ], [ -58.443107995308161, -34.583951941159398 ], [ -58.443108957014758, -34.583948581403909 ], [ -58.443281865968189, -34.583420352320353 ], [ -58.44328375540546, -34.583415499761465 ], [ -58.443286188987749, -34.583410815933135 ], [ -58.44328914508386, -34.58340634246796 ], [ -58.443292597418427, -34.583402119128465 ], [ -58.443296515304979, -34.583398183454051 ], [ -58.443298886234253, -34.583396213577956 ], [ -58.443400353547929, -34.58280070078407 ] ] ], [ [ [ -58.456073315848144, -34.598961357292609 ], [ -58.456269716878239, -34.598833530442796 ], [ -58.456224289335815, -34.598725374222241 ], [ -58.456032721850342, -34.59862094925181 ], [ -58.455695014972619, -34.598520254857078 ], [ -58.455427954217889, -34.598548908921721 ], [ -58.455231538393051, -34.59870691187681 ], [ -58.455138673671378, -34.598648859668678 ], [ -58.45514936053145, -34.59837475254141 ], [ -58.45499353742013, -34.598155366614009 ], [ -58.454671205386518, -34.597990701280757 ], [ -58.45446810752852, -34.597837803072231 ], [ -58.454384243083688, -34.597696672565128 ], [ -58.454246432666196, -34.597634689097724 ], [ -58.454054676018082, -34.597651852482237 ], [ -58.453988700708891, -34.597577960534601 ], [ -58.454048506602852, -34.597413013452481 ], [ -58.453757549894199, -34.596753164570345 ], [ -58.453115843726394, -34.595598411584071 ], [ -58.452609299162603, -34.594910181261682 ], [ -58.452237904743072, -34.594688475122517 ], [ -58.451668220908807, -34.594465973426431 ], [ -58.450900249371692, -34.594242673437954 ], [ -58.44966604926298, -34.593386492806829 ], [ -58.447965662821893, -34.591897418262192 ], [ -58.44701921844996, -34.591169091816781 ], [ -58.446826670597943, -34.591201530057951 ], [ -58.446660955265415, -34.591380994040634 ], [ -58.446625624539614, -34.591485522217177 ], [ -58.446623339838865, -34.591491093040773 ], [ -58.446620336908737, -34.591496425659152 ], [ -58.446313443940973, -34.591971953629105 ], [ -58.446309168454633, -34.591977687292022 ], [ -58.446086496777554, -34.592238421340866 ], [ -58.446082647334727, -34.592242499725799 ], [ -58.446078344187903, -34.592246255205772 ], [ -58.446073626730765, -34.592249653400884 ], [ -58.446068538149781, -34.592252663201904 ], [ -58.446063125029013, -34.59225525705525 ], [ -58.446057436923468, -34.592257411215229 ], [ -58.445918989107639, -34.592303351876325 ], [ -58.445912690460744, -34.592305139758984 ], [ -58.445906204579487, -34.59230638856323 ], [ -58.445899598738968, -34.592307085335882 ], [ -58.445892941458531, -34.592307222849705 ], [ -58.445886301791035, -34.592306799678134 ], [ -58.445879748606636, -34.592305820210754 ], [ -58.445873349878568, -34.592304294607004 ], [ -58.445326652217602, -34.592148606847445 ], [ -58.445320987718048, -34.592146745210108 ], [ -58.444366046705241, -34.591789423702949 ], [ -58.4443599950839, -34.591786837169039 ], [ -58.444354301712394, -34.591783743994547 ], [ -58.444349028386156, -34.591780177752675 ], [ -58.444260149751422, -34.591713387922496 ], [ -58.443605923931194, -34.591587837068765 ], [ -58.443152428191155, -34.591683689827974 ], [ -58.442918528457824, -34.59178873321725 ], [ -58.442904225432279, -34.591902968519804 ], [ -58.442990705129276, -34.592050303996508 ], [ -58.443177968187278, -34.592230739447857 ], [ -58.443651532698446, -34.592536363164271 ], [ -58.444411404019007, -34.592967171935001 ], [ -58.444877374342468, -34.593293562165734 ], [ -58.445049438384558, -34.59351553710102 ], [ -58.445260399699023, -34.593692043651622 ], [ -58.445510258207079, -34.593823081616826 ], [ -58.446703991103455, -34.594151321710576 ], [ -58.448841618994564, -34.594676736715378 ], [ -58.44999014641391, -34.594923419977185 ], [ -58.450149552072403, -34.594891398925782 ], [ -58.450240313065976, -34.594931021681106 ], [ -58.450262429520613, -34.59504228839878 ], [ -58.450465632329163, -34.59523777978918 ], [ -58.450849923392795, -34.595517494990162 ], [ -58.45146456439106, -34.595841922540878 ], [ -58.45230955911655, -34.596211059050283 ], [ -58.452683709247601, -34.59662449901483 ], [ -58.452687235041303, -34.596626571456184 ], [ -58.452692484434337, -34.596630419419888 ], [ -58.452697205141178, -34.596634710251216 ], [ -58.452701342833194, -34.596639394569017 ], [ -58.452729173015236, -34.59667473662271 ], [ -58.452887142070345, -34.596849292341588 ], [ -58.45319731231379, -34.597756626117409 ], [ -58.453549402694279, -34.598400925116003 ], [ -58.453943411104817, -34.598782188991635 ], [ -58.454290311851025, -34.59902300314878 ], [ -58.454590102804147, -34.599123367947605 ], [ -58.454839203752478, -34.599135152798709 ], [ -58.455037613870076, -34.599058357991247 ], [ -58.455206606260646, -34.599060620679339 ], [ -58.455346181397282, -34.59914194099796 ], [ -58.45563508503664, -34.59910885356885 ], [ -58.456073315848144, -34.598961357292609 ] ] ], [ [ [ -58.446634870618603, -34.590455301044216 ], [ -58.446548622904842, -34.589958899003584 ], [ -58.446294148249095, -34.589083750370378 ], [ -58.445883432262008, -34.587986482015857 ], [ -58.445316484105717, -34.586667092500171 ], [ -58.444941451527086, -34.585955768157682 ], [ -58.444758321959966, -34.585852510610891 ], [ -58.444610695147148, -34.585863563641311 ], [ -58.444498570489159, -34.585988927361171 ], [ -58.444431073013213, -34.586661303577102 ], [ -58.444408201947297, -34.587880692181962 ], [ -58.444289495759179, -34.588658669685195 ], [ -58.444074954148981, -34.588995235948445 ], [ -58.443940743365495, -34.589390876545977 ], [ -58.44388686422289, -34.589845591754802 ], [ -58.443979817593345, -34.59012682756871 ], [ -58.44421960446418, -34.590234583699498 ], [ -58.444403997026605, -34.590382626494232 ], [ -58.444532995234539, -34.590570956200402 ], [ -58.445076094896869, -34.59065678974865 ], [ -58.446033295519918, -34.590640121592173 ], [ -58.4465528874642, -34.590572956826087 ], [ -58.446634870618603, -34.590455301044216 ] ] ], [ [ [ -58.459494632145443, -34.594668539566449 ], [ -58.459287111603864, -34.594289724418203 ], [ -58.458923004954116, -34.593847687334097 ], [ -58.458449767234178, -34.593416059209723 ], [ -58.457867400016788, -34.592994838817347 ], [ -58.45719423474565, -34.592638864897509 ], [ -58.456430271094767, -34.592348135946828 ], [ -58.455898292502198, -34.592046739586344 ], [ -58.455598296534319, -34.591734678788207 ], [ -58.455237446289324, -34.59104700478408 ], [ -58.45481574780451, -34.589983717081843 ], [ -58.454752955733184, -34.589086764973992 ], [ -58.455049058311495, -34.588356148766067 ], [ -58.455202192880272, -34.587823418083701 ], [ -58.455212363395042, -34.58748857361762 ], [ -58.454843715484479, -34.586388505200695 ], [ -58.454096273225822, -34.584523209671012 ], [ -58.45365022337549, -34.583175708357551 ], [ -58.45350554387997, -34.582346004284602 ], [ -58.453299861767839, -34.581925880974403 ], [ -58.453033175186157, -34.581915338143766 ], [ -58.452838880100273, -34.582009008271996 ], [ -58.452716975998662, -34.582206891687555 ], [ -58.452438525463485, -34.582347200380383 ], [ -58.452003528334771, -34.582429933276494 ], [ -58.45172777055091, -34.582541089552024 ], [ -58.45161125241966, -34.582680670294749 ], [ -58.451280585941106, -34.582748548783911 ], [ -58.450735771520186, -34.582744723289252 ], [ -58.450402870033493, -34.582687894556003 ], [ -58.450281881610223, -34.582578064323016 ], [ -58.450011357689981, -34.582476249519992 ], [ -58.449591298782465, -34.582382449165223 ], [ -58.44932981734955, -34.582242890830074 ], [ -58.449226912976712, -34.582057575521354 ], [ -58.449064127658616, -34.581920061907049 ], [ -58.448841461430113, -34.581830349750859 ], [ -58.448730292827356, -34.581707490555758 ], [ -58.448730621472755, -34.581551484614991 ], [ -58.448590060684332, -34.581324382095403 ], [ -58.448308611968038, -34.581026182542757 ], [ -58.448179326198812, -34.580803230152185 ], [ -58.448202201812101, -34.580655525373281 ], [ -58.448122113285486, -34.580541827185442 ], [ -58.447939060955377, -34.580462135396566 ], [ -58.447896423429981, -34.58036613526545 ], [ -58.447994200241766, -34.580253826926416 ], [ -58.448003343135738, -34.58013775341152 ], [ -58.447923852479079, -34.58001791475035 ], [ -58.447724076841716, -34.579982309014042 ], [ -58.447404015800018, -34.580030935601016 ], [ -58.447019104992165, -34.58016794013853 ], [ -58.446569342882867, -34.580393321965531 ], [ -58.446283903836097, -34.580558972885825 ], [ -58.446162789412007, -34.580664894100273 ], [ -58.446115265575095, -34.580774850363191 ], [ -58.446141332605407, -34.580888841767923 ], [ -58.44645466302007, -34.581079549360538 ], [ -58.447055259718994, -34.581346970997032 ], [ -58.447737495445011, -34.581824243546265 ], [ -58.448501376658378, -34.58251136576709 ], [ -58.449036536512153, -34.583516718546917 ], [ -58.449342972292918, -34.584840304686502 ], [ -58.449895857613463, -34.58643999039684 ], [ -58.450695211648004, -34.58831577264457 ], [ -58.451290008013665, -34.589471700152032 ], [ -58.451680223867072, -34.589907775665687 ], [ -58.45231696872402, -34.590420567325779 ], [ -58.453200248983158, -34.591010071421671 ], [ -58.453791726683356, -34.591664253531249 ], [ -58.45409139611003, -34.592383117732552 ], [ -58.454386241634921, -34.592953282136882 ], [ -58.454676261700321, -34.593374746774785 ], [ -58.455487777131232, -34.593965264677244 ], [ -58.456820804204277, -34.594724825815518 ], [ -58.457700883003817, -34.595309268125021 ], [ -58.458127998226246, -34.595718601057129 ], [ -58.45846445805352, -34.596141476480277 ], [ -58.458710261233158, -34.596577895109675 ], [ -58.458919578346467, -34.596763338188381 ], [ -58.459092407318323, -34.596697805869532 ], [ -58.459276875223487, -34.596284262521657 ], [ -58.459472979380266, -34.595522707957279 ], [ -58.459545563976064, -34.594984133519972 ], [ -58.459494632145443, -34.594668539566449 ] ] ], [ [ [ -58.451709995226366, -34.579180845127908 ], [ -58.451160568013606, -34.578999538071571 ], [ -58.450687981074694, -34.578991321255415 ], [ -58.449972642160915, -34.579167661654708 ], [ -58.449014545109549, -34.579528554815013 ], [ -58.448500901956251, -34.579769881889327 ], [ -58.448431718584636, -34.579891648668024 ], [ -58.448544484356681, -34.580034427509318 ], [ -58.448721797212933, -34.580132970514214 ], [ -58.449284775503401, -34.580264494643586 ], [ -58.449288089470997, -34.580265348035603 ], [ -58.450588365921149, -34.580631765777213 ], [ -58.451499004880233, -34.580600720906666 ], [ -58.452340266569671, -34.580301205122204 ], [ -58.452733022400082, -34.580041693373602 ], [ -58.452677276965325, -34.579822190124851 ], [ -58.45233626662889, -34.579535241476457 ], [ -58.451709995226366, -34.579180845127908 ] ] ] ] } },
{ "type": "Feature", "properties": { "polo_id": "R19", "polo_nombre": "Federico Lacroze", "papel": "subzona", "ha": 303.28, "locales": 532 }, "geometry": { "type": "MultiPolygon", "coordinates": [ [ [ [ -58.454824706588767, -34.595602285053083 ], [ -58.454824436936455, -34.595602114261531 ], [ -58.454824189567567, -34.595601923202103 ], [ -58.454711956454204, -34.59552339296674 ], [ -58.454693406206125, -34.595510606407174 ], [ -58.45385844379885, -34.59494365817897 ], [ -58.453858407523867, -34.59494363356373 ], [ -58.45385830462039, -34.594943563668707 ], [ -58.453656636625695, -34.594806596235337 ], [ -58.453143952267155, -34.59444585895929 ], [ -58.453143922319832, -34.594445839922145 ], [ -58.453143895565958, -34.594445819122818 ], [ -58.453053514935668, -34.594382230379928 ], [ -58.453039951187279, -34.594361468955604 ], [ -58.452942374409332, -34.594243762414926 ], [ -58.452830336443334, -34.594135218259858 ], [ -58.452705085742515, -34.594037046000778 ], [ -58.452119610518814, -34.593624407008335 ], [ -58.452117215283273, -34.593622880057971 ], [ -58.452115004430915, -34.593621172748087 ], [ -58.452066091107042, -34.593590229126917 ], [ -58.452018047622133, -34.593558372754075 ], [ -58.451849036341578, -34.593457158805613 ], [ -58.451813400687129, -34.593432828860863 ], [ -58.451678455015312, -34.59326933648277 ], [ -58.451650367342054, -34.593238656177604 ], [ -58.451623832907245, -34.593207043688189 ], [ -58.451607273029978, -34.593190947383128 ], [ -58.451592052744587, -34.593173972159143 ], [ -58.451586560997143, -34.593168960220524 ], [ -58.45158162378862, -34.593163567298731 ], [ -58.451550034513282, -34.593135310991748 ], [ -58.451519881369045, -34.593106001858537 ], [ -58.451090321455546, -34.592727754973417 ], [ -58.450964610825331, -34.592628248913755 ], [ -58.450826822006178, -34.592540357616073 ], [ -58.450822993373173, -34.592538414185896 ], [ -58.450832075568499, -34.592530722033452 ], [ -58.451037489757411, -34.592338961161005 ], [ -58.451113543284805, -34.592267954768758 ], [ -58.451227440358487, -34.592148738892959 ], [ -58.451293750205693, -34.592060532103467 ], [ -58.451331533658973, -34.59203592101926 ], [ -58.451334411505712, -34.592033847495621 ], [ -58.451485941483661, -34.591909362803591 ], [ -58.451650162629257, -34.591755556501596 ], [ -58.451724911306663, -34.591677270935868 ], [ -58.45182217141511, -34.591594318494188 ], [ -58.452212132106588, -34.591228924611208 ], [ -58.452253377199938, -34.591229508733626 ], [ -58.452298504877639, -34.591226859600589 ], [ -58.452342307336913, -34.591232706884497 ], [ -58.45234536468358, -34.591232977639834 ], [ -58.45249925148989, -34.591240559723737 ], [ -58.452653317656193, -34.591236119532105 ], [ -58.452806192872799, -34.591219696555591 ], [ -58.452809250306842, -34.591219245980319 ], [ -58.452948720101311, -34.591193444127484 ], [ -58.453084931551693, -34.591157666313975 ], [ -58.453216843423199, -34.591112186034188 ], [ -58.453219631155008, -34.591111104273104 ], [ -58.453347417840604, -34.591055700538654 ], [ -58.453468798975045, -34.590991193873045 ], [ -58.453582828873728, -34.590918086856554 ], [ -58.453702637974345, -34.59083401830015 ], [ -58.453927933217052, -34.590680080793405 ], [ -58.453966413302211, -34.590652949363886 ], [ -58.454161109780593, -34.590511314115346 ], [ -58.454314251754163, -34.590384025235615 ], [ -58.454317669120499, -34.59038077953398 ], [ -58.454433561584942, -34.59025688968282 ], [ -58.454437518625319, -34.590252111210269 ], [ -58.454547061038923, -34.590099138827902 ], [ -58.454550208804413, -34.590093999637268 ], [ -58.454624423220807, -34.589953619901074 ], [ -58.454626851629037, -34.589948210165595 ], [ -58.454678018756688, -34.589808192558579 ], [ -58.454705379633516, -34.58978827471455 ], [ -58.454834306270833, -34.58969490731473 ], [ -58.454840979860165, -34.589693969990961 ], [ -58.45484898299344, -34.589692527870845 ], [ -58.455005063685149, -34.589657634924635 ], [ -58.455012797107116, -34.589655561622052 ], [ -58.455146220712095, -34.589614398386118 ], [ -58.455153684412402, -34.58961178406814 ], [ -58.455298979990992, -34.589553738216985 ], [ -58.455306173974115, -34.589550492718423 ], [ -58.455427819858841, -34.589489797015617 ], [ -58.455434384415518, -34.589486190811726 ], [ -58.455606501453602, -34.589377385721228 ], [ -58.455706769473942, -34.589304808765029 ], [ -58.455822278233292, -34.5892125288618 ], [ -58.455869515618154, -34.589166559761971 ], [ -58.455981641284069, -34.589116430172929 ], [ -58.456113266586222, -34.589043115188787 ], [ -58.456235674828207, -34.588959589933715 ], [ -58.456347712248196, -34.588866641694672 ], [ -58.456448322847436, -34.588765146574943 ], [ -58.45653655834338, -34.588656061235234 ], [ -58.456611587107325, -34.588540413875698 ], [ -58.456672702001796, -34.588419294543868 ], [ -58.456719327044127, -34.588293844859372 ], [ -58.4567510228336, -34.588165247252903 ], [ -58.456767490690666, -34.588034713820768 ], [ -58.45676857546961, -34.587903474899889 ], [ -58.456755474361316, -34.587783796539135 ], [ -58.45675572002358, -34.587767023787499 ], [ -58.45674150742822, -34.587632981193487 ], [ -58.45671125247496, -34.587500771122308 ], [ -58.456665254989773, -34.587371703441839 ], [ -58.456603970761769, -34.587247056880784 ], [ -58.456528007024971, -34.587128066360123 ], [ -58.456438116439813, -34.587015910759007 ], [ -58.456384316719934, -34.586961440606636 ], [ -58.456309376288488, -34.586865187705598 ], [ -58.456306589068866, -34.586861941621038 ], [ -58.456209127666177, -34.586759313525157 ], [ -58.456100155506761, -34.586664935344288 ], [ -58.455980688070717, -34.586579686527848 ], [ -58.455851838626636, -34.586504361451681 ], [ -58.455714807857191, -34.586439662016673 ], [ -58.455570872671473, -34.58638619110895 ], [ -58.455567815552058, -34.586385199116897 ], [ -58.455426100297309, -34.586345304559593 ], [ -58.455280566256299, -34.586316299860655 ], [ -58.455132434072681, -34.586298428290263 ], [ -58.45498294617817, -34.586291839741264 ], [ -58.454833356373193, -34.586296589472198 ], [ -58.454684919312413, -34.586312637644049 ], [ -58.454598417307977, -34.586325345225994 ], [ -58.454444711716341, -34.586354310764492 ], [ -58.45429509477048, -34.586395387204306 ], [ -58.454150958101501, -34.586448192481214 ], [ -58.454093339795214, -34.58647506522933 ], [ -58.454048987330914, -34.586479499998816 ], [ -58.45390799925277, -34.586504171046741 ], [ -58.453898287907371, -34.586506244144317 ], [ -58.453702554789785, -34.586559104587238 ], [ -58.453673240514995, -34.586568750081746 ], [ -58.453548426822586, -34.586614907983005 ], [ -58.453540333841865, -34.586618243481176 ], [ -58.45349178917045, -34.586639566259322 ], [ -58.453411782443794, -34.586665582031188 ], [ -58.453000119919473, -34.58681982235376 ], [ -58.452966133573945, -34.586834288185749 ], [ -58.452925303216809, -34.586847902940441 ], [ -58.452393682235147, -34.587047214053008 ], [ -58.452359820456245, -34.587061513702217 ], [ -58.452331950025481, -34.587070443700448 ], [ -58.451946541007466, -34.587214854699923 ], [ -58.451918184097813, -34.587227042976387 ], [ -58.451886845943648, -34.587237272593754 ], [ -58.450736725077562, -34.587668334339362 ], [ -58.45073750096617, -34.5876697502705 ], [ -58.450672496188886, -34.587693181117181 ], [ -58.450655770234249, -34.587700122172038 ], [ -58.450579605198087, -34.587737700077916 ], [ -58.450462755158853, -34.587754636817728 ], [ -58.450332477080025, -34.587784703839297 ], [ -58.450170524921546, -34.587811054001477 ], [ -58.450011968813058, -34.587850999553964 ], [ -58.449859119170767, -34.587904019115683 ], [ -58.44971354758367, -34.587969567545066 ], [ -58.449576750818231, -34.588046970879354 ], [ -58.449450135429927, -34.588135433263325 ], [ -58.449335003302224, -34.588234045131451 ], [ -58.448381879724302, -34.589137930379493 ], [ -58.448326713490374, -34.58919578607992 ], [ -58.448272181409514, -34.589241946092677 ], [ -58.448152297244853, -34.589355629795897 ], [ -58.448075524570946, -34.589436879240871 ], [ -58.448072999310284, -34.589438711268222 ], [ -58.447972812969951, -34.589525557457272 ], [ -58.447945404868534, -34.589551533262487 ], [ -58.447939050503436, -34.5895299217499 ], [ -58.447938900180283, -34.58952950144225 ], [ -58.447938800066588, -34.589529071227695 ], [ -58.447925031384663, -34.589482374684181 ], [ -58.447600652152452, -34.588379122995498 ], [ -58.44852736687541, -34.587995074178266 ], [ -58.448527494419558, -34.587995014673929 ], [ -58.448527628391226, -34.587994965775245 ], [ -58.448697094122451, -34.587924703296466 ], [ -58.448699811337057, -34.587923574087604 ], [ -58.449554033751546, -34.587567751788285 ], [ -58.449554034716286, -34.587567751336088 ], [ -58.449554035730031, -34.587567750964162 ], [ -58.450618503676459, -34.587124337570224 ], [ -58.450618534849035, -34.587124322956683 ], [ -58.45061856760281, -34.587124310939238 ], [ -58.45082626527153, -34.587037781577394 ], [ -58.450859448922131, -34.587023561148797 ], [ -58.45205247784795, -34.58649789959248 ], [ -58.453115629964543, -34.586029470247141 ], [ -58.453115692128399, -34.586029439527294 ], [ -58.453115757630975, -34.586029413989863 ], [ -58.453936342222462, -34.58566777371783 ], [ -58.454067054147295, -34.585713867458885 ], [ -58.454220064086734, -34.585753688173625 ], [ -58.454377056747425, -34.585780913355507 ], [ -58.454536520136756, -34.5857952807972 ], [ -58.454696918462496, -34.585796652123733 ], [ -58.454856706926549, -34.585785014125875 ], [ -58.455014346604557, -34.585760478887345 ], [ -58.455168319269731, -34.585723282705104 ], [ -58.455449535088235, -34.585642765800692 ], [ -58.455517929601022, -34.585620017403542 ], [ -58.455586540438965, -34.585597719062548 ], [ -58.456880509011604, -34.585115285404846 ], [ -58.458109239246049, -34.584657310227357 ], [ -58.459148196173714, -34.584348781342968 ], [ -58.460598829231238, -34.584301033560365 ], [ -58.460662497282712, -34.584296341480595 ], [ -58.460752444370321, -34.584290051220556 ], [ -58.460756731531738, -34.584289396732693 ], [ -58.460758600507447, -34.584289258994758 ], [ -58.460796774527147, -34.584283283669798 ], [ -58.460910183906094, -34.584265970236139 ], [ -58.46091553565109, -34.584264694077696 ], [ -58.460916206919713, -34.58426458900415 ], [ -58.460929781205145, -34.584261297131221 ], [ -58.461064309837894, -34.584229217793371 ], [ -58.461213337784173, -34.584180147852898 ], [ -58.461355832468385, -34.584119233004671 ], [ -58.461490421543608, -34.584047059915605 ], [ -58.461615808810805, -34.583964323679162 ], [ -58.461730786703114, -34.583871821119715 ], [ -58.461834247916109, -34.583770443117977 ], [ -58.461925196071867, -34.583661166029962 ], [ -58.462002755314451, -34.583545042282871 ], [ -58.462066178743676, -34.583423190238832 ], [ -58.462114855606885, -34.583296783423044 ], [ -58.462148317178894, -34.583167039221685 ], [ -58.46216624127365, -34.583035207156485 ], [ -58.462168455344774, -34.582902556851025 ], [ -58.462154938144138, -34.582770365803086 ], [ -58.462125819923862, -34.582639907081628 ], [ -58.462081381179004, -34.582512437066278 ], [ -58.462022049943521, -34.582389183348589 ], [ -58.461948397665623, -34.582271332909606 ], [ -58.461861133702129, -34.582160020689813 ], [ -58.461761098485447, -34.582056318659681 ], [ -58.461649255428334, -34.581961225497096 ], [ -58.461526681645026, -34.581875656970823 ], [ -58.461500889381526, -34.581860973141112 ], [ -58.461503302629971, -34.581859645527615 ], [ -58.461539810997415, -34.581834970480656 ], [ -58.461558282856899, -34.581823822863228 ], [ -58.461579808417589, -34.581807937244633 ], [ -58.461627505798901, -34.581775699760335 ], [ -58.461662101871092, -34.581747205520266 ], [ -58.461677964903672, -34.581735498748039 ], [ -58.461696131357584, -34.581719177905804 ], [ -58.461741162212846, -34.581682089218972 ], [ -58.461773199200572, -34.581649939627702 ], [ -58.461786603090992, -34.581637897463544 ], [ -58.461801631830809, -34.581621407033857 ], [ -58.461843177295783, -34.58157971545473 ], [ -58.461872032595892, -34.581544159000536 ], [ -58.46188315117751, -34.581531958994098 ], [ -58.461895287006016, -34.581515504120027 ], [ -58.461932568598598, -34.581469564413105 ], [ -58.461957661461447, -34.581430930962533 ], [ -58.46196667937064, -34.581418703615022 ], [ -58.461976173619611, -34.581402429263235 ], [ -58.462008475260227, -34.581352696937898 ], [ -58.462029283623991, -34.58131139181625 ], [ -58.462036383280335, -34.581299222065354 ], [ -58.462043477685782, -34.581283216222388 ], [ -58.462070166297231, -34.581230238553381 ], [ -58.462086242192875, -34.581186734138441 ], [ -58.462091591664361, -34.581174665043093 ], [ -58.462096503681657, -34.581158964582123 ], [ -58.462117047642245, -34.58110336862368 ], [ -58.462128030623674, -34.581058193705459 ], [ -58.462131772891411, -34.581046232121551 ], [ -58.462134683065123, -34.58103083102705 ], [ -58.462148667862856, -34.580973308994388 ], [ -58.462154295981946, -34.580927036237206 ], [ -58.46215654005838, -34.58091516019644 ], [ -58.462157581974289, -34.580900019737129 ], [ -58.462164722507012, -34.580841312224372 ], [ -58.462164840439613, -34.580794544139685 ], [ -58.462165654714383, -34.580782711573413 ], [ -58.462164907949187, -34.580767771935854 ], [ -58.46216505703255, -34.580708649522713 ], [ -58.462159621061595, -34.580662003412122 ], [ -58.462159029154293, -34.580650161810432 ], [ -58.462156515512511, -34.580635354650397 ], [ -58.462149668292462, -34.5805765985059 ], [ -58.462138747966804, -34.580530690878582 ], [ -58.462136727260557, -34.580518787433689 ], [ -58.462132410450195, -34.58050404876213 ], [ -58.462118704562613, -34.580446430893524 ], [ -58.462102480967495, -34.580401861875636 ], [ -58.462098963885154, -34.58038985364373 ], [ -58.462092752639101, -34.580375136454734 ], [ -58.462072464110676, -34.580319400261118 ], [ -58.462051224807823, -34.580276738519551 ], [ -58.462046102777514, -34.58026460213128 ], [ -58.462037857284649, -34.58024988818854 ], [ -58.462011392321152, -34.580196729967973 ], [ -58.461985523134189, -34.580156498650624 ], [ -58.461978653079001, -34.580144239119441 ], [ -58.461968194449035, -34.580129549351661 ], [ -58.461936077403507, -34.580079601375971 ], [ -58.461906051337593, -34.580042265534139 ], [ -58.461897264417203, -34.580029923747816 ], [ -58.461884386776184, -34.580015326760808 ], [ -58.461847244725298, -34.579969142473345 ], [ -58.461813608410402, -34.579935098376261 ], [ -58.461802720647881, -34.579922756910271 ], [ -58.461787205349822, -34.579908375198869 ], [ -58.461745749824956, -34.579866417012362 ], [ -58.46170910795891, -34.579835983696185 ], [ -58.461695932304202, -34.579823770653498 ], [ -58.461677563651428, -34.579809784188768 ], [ -58.461632570171069, -34.579772414265825 ], [ -58.46159356850918, -34.579745827576239 ], [ -58.461577927827214, -34.579733918239249 ], [ -58.46155650962465, -34.579720565214224 ], [ -58.461508795748244, -34.57968803950105 ], [ -58.461468103231041, -34.579665448797321 ], [ -58.461449843660809, -34.57965406496487 ], [ -58.461425215889236, -34.579641639595508 ], [ -58.46137561855997, -34.579614105262934 ], [ -58.461333909201471, -34.579595572855077 ], [ -58.46131291330714, -34.579584979831161 ], [ -58.461284968185787, -34.579573827230689 ], [ -58.461234321149306, -34.57955132354958 ], [ -58.461192256305544, -34.579536826839828 ], [ -58.461168455448373, -34.579527328137601 ], [ -58.461137152175681, -34.579517836401877 ], [ -58.461086264248252, -34.579500298956695 ], [ -58.461044475872363, -34.579489735160116 ], [ -58.461017861248052, -34.579481665076536 ], [ -58.460983238749925, -34.579474254831695 ], [ -58.460932873674871, -34.579461522855922 ], [ -58.460891949115663, -34.579454716080576 ], [ -58.46086258095518, -34.579448430386904 ], [ -58.460824768045043, -34.579443542160213 ], [ -58.460775626603521, -34.57943536866366 ], [ -58.460736095445746, -34.579432079049134 ], [ -58.460704109939641, -34.57942794412044 ], [ -58.460663332387213, -34.579426023983338 ], [ -58.460616037341474, -34.579422088245344 ], [ -58.460578360702556, -34.579422022784911 ], [ -58.46054397429355, -34.57942040355983 ], [ -58.459182952719445, -34.579411633265906 ], [ -58.459182945628399, -34.579411633508208 ], [ -58.459182938542874, -34.579411633174551 ], [ -58.45799620629667, -34.579403982108566 ], [ -58.457948465701655, -34.579405613289623 ], [ -58.457900684448262, -34.579405675603759 ], [ -58.457868383175615, -34.579408349474363 ], [ -58.457835948192205, -34.579409457667445 ], [ -58.457788630774658, -34.579414951269605 ], [ -58.457741086974281, -34.57941888685535 ], [ -58.457709258098767, -34.579424166478105 ], [ -58.457677110614796, -34.579427898802145 ], [ -58.457630672045589, -34.579437201920804 ], [ -58.457583823549143, -34.57944497287771 ], [ -58.457552773585789, -34.579452807408785 ], [ -58.457521223184685, -34.579459127920984 ], [ -58.457476110672317, -34.57947215096533 ], [ -58.457430408635709, -34.579483682457997 ], [ -58.456499772346959, -34.579760457433103 ], [ -58.455602540284737, -34.580026724814743 ], [ -58.454267856665084, -34.580422743970161 ], [ -58.452916012723229, -34.580823756905019 ], [ -58.452914626995977, -34.580824232646783 ], [ -58.452913192364726, -34.580824595935027 ], [ -58.452200067248697, -34.581037352228471 ], [ -58.452199356822504, -34.58103714715633 ], [ -58.451818535785328, -34.58098023417066 ], [ -58.450689412812658, -34.580717365591269 ], [ -58.450578848542939, -34.580686209383501 ], [ -58.450558108392471, -34.580686916360342 ], [ -58.450551429211814, -34.580686861579942 ], [ -58.450544791648802, -34.58068624341869 ], [ -58.450538264988126, -34.580685068328968 ], [ -58.449579017527981, -34.580469372963819 ], [ -58.449539238630948, -34.580408518901052 ], [ -58.449532057674091, -34.580398715944632 ], [ -58.449525862115571, -34.580388463386164 ], [ -58.448908997123098, -34.579481827613321 ], [ -58.448859663240796, -34.579409236506137 ], [ -58.448880189997041, -34.57940205120714 ], [ -58.449224032513435, -34.579231842682844 ], [ -58.44937010109016, -34.579081016652879 ], [ -58.449656250471534, -34.578985519453845 ], [ -58.45008248079197, -34.578945350104775 ], [ -58.45035623358276, -34.578872106552801 ], [ -58.450477508876375, -34.578765789825091 ], [ -58.450608269920941, -34.578746213696078 ], [ -58.450748517121227, -34.578813378146819 ], [ -58.450885011511282, -34.578798735955218 ], [ -58.451017752689566, -34.578702287122589 ], [ -58.45114114402373, -34.578719028100728 ], [ -58.45125518600635, -34.578848958930301 ], [ -58.451605808245596, -34.578928959233309 ], [ -58.452193010878119, -34.578959026973145 ], [ -58.452504207960217, -34.578908103103636 ], [ -58.452539399002752, -34.578776189724074 ], [ -58.451399290768386, -34.576688574438357 ], [ -58.44908404711753, -34.572645226877206 ], [ -58.447829770675234, -34.570621531621065 ], [ -58.447636297724202, -34.570617518811325 ], [ -58.447387702209888, -34.570831111670337 ], [ -58.447083981712851, -34.571262309775328 ], [ -58.44669946674064, -34.571613991527784 ], [ -58.4462341574406, -34.571886156179005 ], [ -58.445745767291243, -34.572071480969875 ], [ -58.445234297696764, -34.572169965667442 ], [ -58.444660464178988, -34.572206585599162 ], [ -58.444024267969453, -34.572181339918345 ], [ -58.443698915426758, -34.572240462286537 ], [ -58.443684406119992, -34.572383955179319 ], [ -58.444259248857108, -34.573435282186111 ], [ -58.444189615109345, -34.57337065279075 ], [ -58.44406725482775, -34.573268573329607 ], [ -58.443932482216063, -34.573177818247409 ], [ -58.443905780434406, -34.573163445581663 ], [ -58.443686068345997, -34.572941621707706 ], [ -58.443686023994701, -34.57294158116342 ], [ -58.443685984657066, -34.57294153722107 ], [ -58.442968682970488, -34.57221744971946 ], [ -58.442014346107285, -34.571253838989833 ], [ -58.441906747124591, -34.57115546446002 ], [ -58.441788009632717, -34.571066287461996 ], [ -58.44165927713383, -34.570987166788449 ], [ -58.441521789373091, -34.570918864384936 ], [ -58.441376870399829, -34.570862038013111 ], [ -58.441225915817569, -34.570817234917158 ], [ -58.441070379345355, -34.570784886554293 ], [ -58.44091175881973, -34.570765304440897 ], [ -58.440751581772403, -34.570758677152519 ], [ -58.440591390721828, -34.570765068508571 ], [ -58.440432728320744, -34.570784416957601 ], [ -58.440277122502614, -34.570816536170476 ], [ -58.440126071769441, -34.570861116834124 ], [ -58.439981030763001, -34.570917729630111 ], [ -58.439843396258063, -34.570985829368446 ], [ -58.4397144937127, -34.571064760237434 ], [ -58.4395955645047, -34.5711537621182 ], [ -58.439487753977517, -34.571251977904041 ], [ -58.439392100410217, -34.571358461753839 ], [ -58.439309525018089, -34.571472188199714 ], [ -58.43924082308034, -34.571592062021637 ], [ -58.439186656279475, -34.571716928794103 ], [ -58.439147546327547, -34.571845586002752 ], [ -58.439123869939522, -34.571976794624504 ], [ -58.439115855202509, -34.572109291059462 ], [ -58.43912357937706, -34.572241799299569 ], [ -58.4391469681497, -34.572373043217134 ], [ -58.43918579634596, -34.572501758854642 ], [ -58.439239690096194, -34.572626706597525 ], [ -58.439308130433496, -34.572746683113053 ], [ -58.439390458289452, -34.572860532939565 ], [ -58.439485880839214, -34.572967159614983 ], [ -58.440440264546922, -34.573930848172402 ], [ -58.44044032603145, -34.573930904385854 ], [ -58.44044038056694, -34.573930965308456 ], [ -58.441157690047291, -34.574655083610814 ], [ -58.441525682383038, -34.575026623839285 ], [ -58.441537765838092, -34.575041411554679 ], [ -58.441640170142655, -34.57514351263098 ], [ -58.441754180626731, -34.575236819598054 ], [ -58.441878699308674, -34.575320433828203 ], [ -58.441959796076311, -34.575364740750636 ], [ -58.441968254698907, -34.575372591658287 ], [ -58.442255061005177, -34.575657393990468 ], [ -58.442326044436221, -34.575721231619923 ], [ -58.442330418616066, -34.575739235094829 ], [ -58.442377279278602, -34.57586610871877 ], [ -58.442438949179142, -34.575988572218307 ], [ -58.442514834457306, -34.576105446182829 ], [ -58.442604204339631, -34.576215605027819 ], [ -58.442706198175848, -34.5763179878359 ], [ -58.443121934201152, -34.576695882659571 ], [ -58.443220944808132, -34.576778448249435 ], [ -58.443328168536951, -34.576853669746427 ], [ -58.44334554532918, -34.576863873737217 ], [ -58.443465077107689, -34.576984538204783 ], [ -58.444347539624005, -34.577875381720396 ], [ -58.444793799029085, -34.578669665467665 ], [ -58.445323860936973, -34.579667972177319 ], [ -58.445341797545396, -34.579700573059284 ], [ -58.445407674143752, -34.579816218677657 ], [ -58.445407757680535, -34.579816348404407 ], [ -58.445407825477226, -34.579816484266587 ], [ -58.445488511809423, -34.579958047981187 ], [ -58.445541411518249, -34.580042947311597 ], [ -58.445996709003559, -34.580714292710056 ], [ -58.446059627815345, -34.580806878836093 ], [ -58.446059837570992, -34.580807154844472 ], [ -58.446060013777, -34.580807446458174 ], [ -58.446670258832093, -34.581704398616296 ], [ -58.446861870667831, -34.581997542633211 ], [ -58.446943493368295, -34.582109178228954 ], [ -58.447037747099664, -34.582213786531199 ], [ -58.447143754054892, -34.58231039324626 ], [ -58.447279846643895, -34.582422986275894 ], [ -58.447398678858299, -34.582512091844642 ], [ -58.447527499113413, -34.582591134830864 ], [ -58.447665066780424, -34.582659353977817 ], [ -58.447810056974376, -34.582716092269756 ], [ -58.447961073315014, -34.582760803261294 ], [ -58.448095765188548, -34.582788724617139 ], [ -58.4473200486674, -34.583122877525604 ], [ -58.446202920718925, -34.583604063015514 ], [ -58.445991521673882, -34.582879974570908 ], [ -58.445946267776932, -34.582752701554817 ], [ -58.445886148659653, -34.58262971004249 ], [ -58.445811743233534, -34.582512184338725 ], [ -58.445723768249941, -34.582401256330471 ], [ -58.445623070879513, -34.582297994217321 ], [ -58.445510621048946, -34.582203392590159 ], [ -58.445387501492213, -34.582118362391945 ], [ -58.445254898207764, -34.582043722504878 ], [ -58.445114087968818, -34.581980191661422 ], [ -58.444966426897771, -34.581928381720232 ], [ -58.444813336960053, -34.581888791546668 ], [ -58.444656292537132, -34.581861802516222 ], [ -58.444496805900314, -34.58184767454506 ], [ -58.444336412985201, -34.581846543565483 ], [ -58.444176658265832, -34.581858420522522 ], [ -58.444019080380102, -34.581883191010462 ], [ -58.443865196635443, -34.581920616517188 ], [ -58.443716489021035, -34.581970336678957 ], [ -58.443574389656462, -34.582031872518954 ], [ -58.443440266967421, -34.582104631588081 ], [ -58.443315412621658, -34.582187913204919 ], [ -58.443201028979409, -34.582280915324823 ], [ -58.443098217507526, -34.582382742231964 ], [ -58.443007968588489, -34.582492413421512 ], [ -58.442931151217373, -34.582608872569843 ], [ -58.442868505279691, -34.582730998340494 ], [ -58.442820634166928, -34.582857614564396 ], [ -58.44278799889188, -34.58298750179015 ], [ -58.442770913830905, -34.583119409216849 ], [ -58.442769543667595, -34.583252066461746 ], [ -58.442783901630371, -34.583384196065559 ], [ -58.442813849483159, -34.583514525480318 ], [ -58.443198044342815, -34.584830641546844 ], [ -58.443198061241326, -34.584830699627553 ], [ -58.443198061553076, -34.584830700442723 ], [ -58.443515563092397, -34.585918529339175 ], [ -58.443515582145544, -34.585918582940707 ], [ -58.443515594947797, -34.585918638625671 ], [ -58.443814284760805, -34.586941616622774 ], [ -58.443814318564442, -34.586941732513736 ], [ -58.443814318666675, -34.586941732875552 ], [ -58.443906600471109, -34.587257904455356 ], [ -58.443907228968548, -34.587260050324993 ], [ -58.444116538331478, -34.58797206737129 ], [ -58.444116542268624, -34.587972078327525 ], [ -58.444116544889887, -34.587972089717667 ], [ -58.444419703568052, -34.589003261355089 ], [ -58.444419703670341, -34.589003261716947 ], [ -58.444419709411001, -34.589003281168601 ], [ -58.444748487805477, -34.590121640827263 ], [ -58.444748638215572, -34.590122061500274 ], [ -58.444748738618358, -34.590122492892583 ], [ -58.444762518621772, -34.59016923371528 ], [ -58.445053965793441, -34.591160578934428 ], [ -58.445056993689235, -34.59116904446406 ], [ -58.445059139871219, -34.591177690738824 ], [ -58.445079736226013, -34.591232629330413 ], [ -58.445099466639242, -34.591287792579152 ], [ -58.445103483080729, -34.591295971466039 ], [ -58.44510664393966, -34.591304402635984 ], [ -58.445133654726973, -34.591357411027339 ], [ -58.445159826445895, -34.59141070543609 ], [ -58.44516479257959, -34.591418518858575 ], [ -58.445168937808383, -34.591426653687321 ], [ -58.445202100623028, -34.591477216212382 ], [ -58.445234463851001, -34.591528133756135 ], [ -58.445240332775796, -34.591535507747096 ], [ -58.445245421683019, -34.59154326657832 ], [ -58.445284417328246, -34.591590896949775 ], [ -58.445322660151163, -34.5916389464765 ], [ -58.445329374254733, -34.591645808644671 ], [ -58.445335358834065, -34.591653118308116 ], [ -58.445379812963189, -34.591697359188444 ], [ -58.445423566062459, -34.591742076664453 ], [ -58.445431061709598, -34.591748361932481 ], [ -58.445437883352142, -34.59175515083529 ], [ -58.445475004223759, -34.591788607535499 ], [ -58.445504137452822, -34.591814189334919 ], [ -58.445612401173854, -34.591906813081415 ], [ -58.446392073279789, -34.592613527172183 ], [ -58.446394239480696, -34.59261530675245 ], [ -58.446396192555703, -34.592617246938794 ], [ -58.447445148627935, -34.593560924581404 ], [ -58.447445178369058, -34.593560948754863 ], [ -58.447445203837042, -34.593560974135826 ], [ -58.447832327254552, -34.593909201584871 ], [ -58.447848497291481, -34.593934678933081 ], [ -58.447918725914434, -34.594034685889781 ], [ -58.447999034043043, -34.594129363144056 ], [ -58.44808883392389, -34.594218017742151 ], [ -58.449003367617458, -34.595046166926799 ], [ -58.449011739602277, -34.595053038256083 ], [ -58.449019387992585, -34.595060465516816 ], [ -58.449030852777597, -34.595069607664151 ], [ -58.449041412338794, -34.595079466483313 ], [ -58.44907993789424, -34.595109012081998 ], [ -58.449117230509067, -34.595139619980642 ], [ -58.449126377172405, -34.595145779999548 ], [ -58.449134868537072, -34.595152551078456 ], [ -58.449294224117288, -34.595267694362811 ], [ -58.449428226384661, -34.595354763230787 ], [ -58.44948476742988, -34.595384186784955 ], [ -58.449516018817917, -34.595409393657015 ], [ -58.449568756213729, -34.595448125220742 ], [ -58.449631487355674, -34.595499054400676 ], [ -58.449702505149062, -34.595546353307455 ], [ -58.449807148714498, -34.595623205590236 ], [ -58.449858060683205, -34.595665328958411 ], [ -58.449943718699402, -34.595723492017427 ], [ -58.450544727767351, -34.596164770890852 ], [ -58.450611475208866, -34.596218647806197 ], [ -58.450718053986279, -34.596289211287463 ], [ -58.450829351456619, -34.596367184814696 ], [ -58.451025195413457, -34.596504976689161 ], [ -58.451025196164551, -34.596504977329673 ], [ -58.451025252866025, -34.596505017167097 ], [ -58.451548714590771, -34.596873344667777 ], [ -58.451570535808941, -34.596888430135373 ], [ -58.451783334305055, -34.597032959798668 ], [ -58.451783406726172, -34.59703300425172 ], [ -58.451783473484461, -34.597033054311282 ], [ -58.452609248513852, -34.597593774547953 ], [ -58.452712052829128, -34.597665708753858 ], [ -58.452760626059252, -34.597699724855453 ], [ -58.452761069485859, -34.597700005744059 ], [ -58.452761478584783, -34.597700321529281 ], [ -58.453739880641898, -34.598384543984295 ], [ -58.453739881180098, -34.598384544351653 ], [ -58.453739914968487, -34.598384567943974 ], [ -58.454429139145297, -34.598866575866268 ], [ -58.454556572162709, -34.598947169727147 ], [ -58.454692944878325, -34.599017046728321 ], [ -58.454836944179824, -34.599075533953027 ], [ -58.454987182859483, -34.599122068142883 ], [ -58.455142214340547, -34.599156201113793 ], [ -58.455300545243794, -34.5991776040619 ], [ -58.455460650915569, -34.599186070915607 ], [ -58.455620989131944, -34.599181520132127 ], [ -58.455780015892032, -34.599163995528635 ], [ -58.455936199490736, -34.599133665829406 ], [ -58.456088035700013, -34.59909082323518 ], [ -58.456234062327141, -34.599035880272147 ], [ -58.456372872800891, -34.598969366177229 ], [ -58.456503130552868, -34.59889192149091 ], [ -58.456623580792993, -34.598804292075933 ], [ -58.456733063724457, -34.598707321892263 ], [ -58.456830524832384, -34.59860194483359 ], [ -58.456915025622351, -34.598489175758431 ], [ -58.456985752410503, -34.598370100775234 ], [ -58.457042023821337, -34.598245866610291 ], [ -58.457083298288822, -34.598117669795272 ], [ -58.457109178196625, -34.597986744820986 ], [ -58.457119414445749, -34.597854352747923 ], [ -58.457113908538652, -34.597721768522938 ], [ -58.457092713561863, -34.597590268913947 ], [ -58.457056033751961, -34.597461120426551 ], [ -58.457004222324478, -34.597335566838858 ], [ -58.456937778314362, -34.597214817174105 ], [ -58.456857341768554, -34.597100034374662 ], [ -58.456763687306214, -34.596992323864342 ], [ -58.456657716901901, -34.596892722913452 ], [ -58.456540451022754, -34.59680219061287 ], [ -58.455851196985179, -34.596320170911923 ], [ -58.455851179748329, -34.596320159968016 ], [ -58.455851163305944, -34.596320147321578 ], [ -58.454873175925066, -34.595636227798273 ], [ -58.454824706588767, -34.595602285053083 ] ] ], [ [ [ -58.446044974476763, -34.567754393820614 ], [ -58.444884537691308, -34.566462397541834 ], [ -58.442566330679988, -34.564012247844559 ], [ -58.440958852025254, -34.562376613670665 ], [ -58.440062013703887, -34.561555521343728 ], [ -58.439430282806349, -34.56107483210566 ], [ -58.439063647099296, -34.560934549818789 ], [ -58.438596008114672, -34.560852153752698 ], [ -58.438027365231633, -34.560827642730132 ], [ -58.437515034693313, -34.560870739773016 ], [ -58.437059015310318, -34.560981445557935 ], [ -58.436637701753909, -34.561177507170548 ], [ -58.436251092938697, -34.561458924933902 ], [ -58.435928324491243, -34.561846724413805 ], [ -58.43566939598859, -34.562340906087854 ], [ -58.435552952766741, -34.562810727872517 ], [ -58.435578997332563, -34.563256190249035 ], [ -58.435791644364528, -34.563725227252107 ], [ -58.436190897210039, -34.564217837990967 ], [ -58.436656009853991, -34.564574919162446 ], [ -58.437186980975362, -34.564796469997937 ], [ -58.437519453485663, -34.564897622367113 ], [ -58.437653425178418, -34.564878377839818 ], [ -58.437918800186367, -34.565032166845981 ], [ -58.438315580881351, -34.565358988579895 ], [ -58.438584715285835, -34.565530402682882 ], [ -58.438726201115422, -34.565546409950294 ], [ -58.438829295496738, -34.565618764475971 ], [ -58.438893998528911, -34.56574746635826 ], [ -58.439035781270135, -34.565832122957545 ], [ -58.439254643746267, -34.565872734007201 ], [ -58.439364068092324, -34.565965295922396 ], [ -58.439364054130074, -34.566109808991044 ], [ -58.439557537970821, -34.566450247403935 ], [ -58.439944523285263, -34.566986610309812 ], [ -58.440109102872803, -34.567308830418511 ], [ -58.440051272954506, -34.567416908558883 ], [ -58.440115505416166, -34.567641699636255 ], [ -58.440301801483464, -34.567983203479294 ], [ -58.440398290236125, -34.568326303621738 ], [ -58.440404970563307, -34.568671000246553 ], [ -58.440824356207372, -34.569277721814423 ], [ -58.44165646005726, -34.570146464343637 ], [ -58.44217883210122, -34.570559894211385 ], [ -58.442391459300865, -34.570518015130219 ], [ -58.442502116543103, -34.570217044144442 ], [ -58.442510803779086, -34.569656981496422 ], [ -58.442712070403118, -34.569128330718463 ], [ -58.443105913045308, -34.568631090772818 ], [ -58.443525896584582, -34.568287941458927 ], [ -58.443972023109573, -34.568098882586185 ], [ -58.444658519947779, -34.567992068182683 ], [ -58.445585388377459, -34.567967494225222 ], [ -58.446047539819943, -34.567888267674583 ], [ -58.446044974476763, -34.567754393820614 ] ] ] ] } },
{ "type": "Feature", "properties": { "polo_id": "Z43", "polo_nombre": "Colegiales", "papel": "subzona", "ha": 229.08, "locales": 441 }, "geometry": { "type": "Polygon", "coordinates": [ [ [ -58.449046761194694, -34.567859827049936 ], [ -58.448645070931164, -34.568074220018886 ], [ -58.448135592973706, -34.568334586427888 ], [ -58.447044597636037, -34.568892132868278 ], [ -58.446693559141011, -34.569071596713812 ], [ -58.446499351387736, -34.569166923998125 ], [ -58.445707444748841, -34.569555764689703 ], [ -58.444888199884353, -34.569958046289081 ], [ -58.444113138123775, -34.570338639180953 ], [ -58.44383011830201, -34.570477610619911 ], [ -58.443642289451091, -34.570569765837419 ], [ -58.442958828221421, -34.570921210327874 ], [ -58.442546722018008, -34.571133046568015 ], [ -58.442206051780573, -34.571308203001585 ], [ -58.441946522436986, -34.571451189061598 ], [ -58.440747208995056, -34.572112113953004 ], [ -58.441705678479209, -34.573079911900109 ], [ -58.442423033540187, -34.573804065117884 ], [ -58.443141679006587, -34.574529623178144 ], [ -58.443546104930512, -34.574937916400415 ], [ -58.443974225584576, -34.575370125944232 ], [ -58.44375678703549, -34.575509779023122 ], [ -58.44292173554846, -34.576046095555732 ], [ -58.442730481082265, -34.576168953084753 ], [ -58.442568016862147, -34.576285360994781 ], [ -58.441880793356304, -34.576777762558073 ], [ -58.441816755511091, -34.57682366723671 ], [ -58.440891180524865, -34.577802181578313 ], [ -58.440223153694284, -34.578330110503856 ], [ -58.439941551470191, -34.578552652292601 ], [ -58.440535783125263, -34.579105591781115 ], [ -58.441545849305307, -34.580045512096618 ], [ -58.441580372766929, -34.580077638738125 ], [ -58.442285069052787, -34.580733401252679 ], [ -58.442511928976714, -34.580944499831425 ], [ -58.443425649861219, -34.58179475284927 ], [ -58.443434188194963, -34.581802697598192 ], [ -58.443763954142511, -34.582233421123654 ], [ -58.443782159323291, -34.582257199124165 ], [ -58.444451017096199, -34.583176453136346 ], [ -58.444451033439471, -34.58317647567447 ], [ -58.444473973453853, -34.583166615822854 ], [ -58.444644968276371, -34.583093121855953 ], [ -58.445788395835436, -34.582601664869046 ], [ -58.446184107599606, -34.582431586031646 ], [ -58.447094829519337, -34.582040144791925 ], [ -58.448054152673791, -34.581627781632513 ], [ -58.448277353142707, -34.58153183726845 ], [ -58.448281945107297, -34.581529862810825 ], [ -58.44829187227198, -34.581526207851148 ], [ -58.448328132356465, -34.581512857689475 ], [ -58.448395709622133, -34.581487975806347 ], [ -58.448461872108446, -34.581463617441841 ], [ -58.449194256416064, -34.581193980712747 ], [ -58.449443917751331, -34.581102106297244 ], [ -58.449597699933662, -34.581045503331794 ], [ -58.449676581517764, -34.581014220984812 ], [ -58.450001228865339, -34.580885474659851 ], [ -58.450519447715472, -34.580679941041438 ], [ -58.450954655932684, -34.580507327720291 ], [ -58.451011863506338, -34.580484632897395 ], [ -58.451019793741338, -34.580481486819458 ], [ -58.451253959541511, -34.580406382657088 ], [ -58.452024462867193, -34.58015925566859 ], [ -58.452140875715912, -34.580121953663642 ], [ -58.452195184092709, -34.580104552091235 ], [ -58.453022735310562, -34.579839126830073 ], [ -58.453535577764065, -34.579674658778792 ], [ -58.454864377740435, -34.579248481815796 ], [ -58.45540130883473, -34.579076260719248 ], [ -58.455972889540796, -34.578922068754984 ], [ -58.457149543358049, -34.578604616443954 ], [ -58.457163725580529, -34.578600789704211 ], [ -58.457342699597859, -34.578552558774817 ], [ -58.457745603182694, -34.578443843298977 ], [ -58.457765851152828, -34.578442620082569 ], [ -58.458540327117419, -34.578395847112077 ], [ -58.459696907985169, -34.578325955929095 ], [ -58.459786422086637, -34.578320553590018 ], [ -58.460103976036358, -34.578301389894278 ], [ -58.460200392842523, -34.578301170630105 ], [ -58.460226666340347, -34.578301110899034 ], [ -58.460548772390624, -34.577948788212311 ], [ -58.460634404597322, -34.577859319996527 ], [ -58.461607027633008, -34.576843151857247 ], [ -58.462248822677694, -34.576172578352114 ], [ -58.462377817987395, -34.576037792761298 ], [ -58.463188835027623, -34.575111026456085 ], [ -58.463357270753995, -34.575014325094315 ], [ -58.462904843233986, -34.574598753442558 ], [ -58.462524276217643, -34.574208109508859 ], [ -58.461732078112789, -34.573438157556403 ], [ -58.461380666253461, -34.573097416931091 ], [ -58.460884557454129, -34.57261636635311 ], [ -58.460263506506536, -34.572014297753149 ], [ -58.459681284816227, -34.571446876132782 ], [ -58.45879600625036, -34.570586547458433 ], [ -58.457986510069958, -34.569799738655441 ], [ -58.457711546291293, -34.569532466787464 ], [ -58.45763002387595, -34.569004071715163 ], [ -58.457477031566157, -34.569115264561177 ], [ -58.456577557388663, -34.568588939937456 ], [ -58.456314545485213, -34.568435005576141 ], [ -58.455678518423454, -34.56806274929076 ], [ -58.454789111026557, -34.567542256882149 ], [ -58.453936673063197, -34.567043392344303 ], [ -58.453877922599339, -34.567009010086814 ], [ -58.453751890994049, -34.566938014688112 ], [ -58.452289750658849, -34.566114351029093 ], [ -58.451720528505426, -34.566415783500595 ], [ -58.45158635296292, -34.566486828425816 ], [ -58.450951527164825, -34.566833580159972 ], [ -58.450782741196214, -34.566925771784049 ], [ -58.450165232886185, -34.56726296785061 ], [ -58.449932293730356, -34.567387311596178 ], [ -58.449046761194694, -34.567859827049936 ] ] ] } }
]
}
